<?xml version="1.0" encoding="UTF-8"?>
<gpx version="1.1" creator="네이버지도" xmlns="http://www.topografix.com/GPX/1/1" xmlns:nmap="https://map.naver.com/gpx/1" xmlns:xsi="http://www.w3.org/2001/XMLSchema-instance" xsi:schemaLocation="http://www.topografix.com/GPX/1/1 http://www.topografix.com/GPX/1/1/gpx.xsd">
  <metadata>
    <name>경기 고양시 덕양구 오금동 693-경기 고양시 덕양구 오금동 596_260801</name>
    <desc>경기 고양시 덕양구 오금동 693-경기 고양시 덕양구 오금동 693-경기 고양시 덕양구 오금동 693-경기 고양시 덕양구 오금동 693-경기 고양시 덕양구 오금동 693-경기 고양시 덕양구 오금동 산77-4-경기 고양시 덕양구 오금동 693-경기 고양시 덕양구 오금동 693-경기 고양시 덕양구 오금동 693-경기 고양시 덕양구 오금동 693-경기 고양시 덕양구 오금동 693-경기 고양시 덕양구 오금동 693-경기 고양시 덕양구 오금동 693-경기 고양시 덕양구 오금동 693-경기 고양시 덕양구 오금동 693-경기 고양시 덕양구 오금동 693-경기 고양시 덕양구 오금동 596</desc>
    <author><name>네이버지도</name></author>
    <link href="https://map.naver.com"><text>네이버지도</text></link>
    <time>2026-08-01T01:39:54.034Z</time>
    <bounds minlat="37.6588633" minlon="126.8954656" maxlat="37.6635093" maxlon="126.917947"/>
    <extensions>
      <nmap:walkCourse schemaVersion="1.0">
        <nmap:distance>4782</nmap:distance>
        <nmap:duration>4351.7</nmap:duration>
        <nmap:stepCount>7473</nmap:stepCount>
        <nmap:calories>262</nmap:calories>
        <nmap:totalAscent>45</nmap:totalAscent>
        <nmap:totalDescent>45</nmap:totalDescent>
        <nmap:altMin>40</nmap:altMin>
        <nmap:altMax>73</nmap:altMax>
        <nmap:waypoints>
          <nmap:waypoint index="0" lat="37.6635093" lon="126.8958313">
            <nmap:type>start</nmap:type>
            <nmap:name>출발지</nmap:name>
            <nmap:desc>경기 고양시 덕양구 오금동 693</nmap:desc>
          </nmap:waypoint>
          <nmap:waypoint index="1" lat="37.6600601" lon="126.9006437">
            <nmap:type>waypoint</nmap:type>
            <nmap:name>경유지 #1</nmap:name>
            <nmap:desc>경기 고양시 덕양구 오금동 693</nmap:desc>
          </nmap:waypoint>
          <nmap:waypoint index="2" lat="37.6600058" lon="126.9029117">
            <nmap:type>waypoint</nmap:type>
            <nmap:name>경유지 #2</nmap:name>
            <nmap:desc>경기 고양시 덕양구 오금동 693</nmap:desc>
          </nmap:waypoint>
          <nmap:waypoint index="3" lat="37.6591988" lon="126.905172">
            <nmap:type>waypoint</nmap:type>
            <nmap:name>경유지 #3</nmap:name>
            <nmap:desc>경기 고양시 덕양구 오금동 693</nmap:desc>
          </nmap:waypoint>
          <nmap:waypoint index="4" lat="37.6632971" lon="126.9172552">
            <nmap:type>waypoint</nmap:type>
            <nmap:name>경유지 #4</nmap:name>
            <nmap:desc>경기 고양시 덕양구 오금동 693</nmap:desc>
          </nmap:waypoint>
          <nmap:waypoint index="5" lat="37.6625331" lon="126.9171432">
            <nmap:type>waypoint</nmap:type>
            <nmap:name>경유지 #5</nmap:name>
            <nmap:desc>경기 고양시 덕양구 오금동 산77-4</nmap:desc>
          </nmap:waypoint>
          <nmap:waypoint index="6" lat="37.6618966" lon="126.9134589">
            <nmap:type>waypoint</nmap:type>
            <nmap:name>경유지 #6</nmap:name>
            <nmap:desc>경기 고양시 덕양구 오금동 693</nmap:desc>
          </nmap:waypoint>
          <nmap:waypoint index="7" lat="37.6619848" lon="126.9125409">
            <nmap:type>waypoint</nmap:type>
            <nmap:name>경유지 #7</nmap:name>
            <nmap:desc>경기 고양시 덕양구 오금동 693</nmap:desc>
          </nmap:waypoint>
          <nmap:waypoint index="8" lat="37.6613153" lon="126.9111313">
            <nmap:type>waypoint</nmap:type>
            <nmap:name>경유지 #8</nmap:name>
            <nmap:desc>경기 고양시 덕양구 오금동 693</nmap:desc>
          </nmap:waypoint>
          <nmap:waypoint index="9" lat="37.6606064" lon="126.9090439">
            <nmap:type>waypoint</nmap:type>
            <nmap:name>경유지 #9</nmap:name>
            <nmap:desc>경기 고양시 덕양구 오금동 693</nmap:desc>
          </nmap:waypoint>
          <nmap:waypoint index="10" lat="37.6599916" lon="126.9074139">
            <nmap:type>waypoint</nmap:type>
            <nmap:name>경유지 #10</nmap:name>
            <nmap:desc>경기 고양시 덕양구 오금동 693</nmap:desc>
          </nmap:waypoint>
          <nmap:waypoint index="11" lat="37.6589603" lon="126.9052249">
            <nmap:type>waypoint</nmap:type>
            <nmap:name>경유지 #11</nmap:name>
            <nmap:desc>경기 고양시 덕양구 오금동 693</nmap:desc>
          </nmap:waypoint>
          <nmap:waypoint index="12" lat="37.6595164" lon="126.9023839">
            <nmap:type>waypoint</nmap:type>
            <nmap:name>경유지 #12</nmap:name>
            <nmap:desc>경기 고양시 덕양구 오금동 693</nmap:desc>
          </nmap:waypoint>
          <nmap:waypoint index="13" lat="37.6598431" lon="126.9001568">
            <nmap:type>waypoint</nmap:type>
            <nmap:name>경유지 #13</nmap:name>
            <nmap:desc>경기 고양시 덕양구 오금동 693</nmap:desc>
          </nmap:waypoint>
          <nmap:waypoint index="14" lat="37.6613395" lon="126.8971811">
            <nmap:type>waypoint</nmap:type>
            <nmap:name>경유지 #14</nmap:name>
            <nmap:desc>경기 고양시 덕양구 오금동 693</nmap:desc>
          </nmap:waypoint>
          <nmap:waypoint index="15" lat="37.6631709" lon="126.8955767">
            <nmap:type>waypoint</nmap:type>
            <nmap:name>경유지 #15</nmap:name>
            <nmap:desc>경기 고양시 덕양구 오금동 693</nmap:desc>
          </nmap:waypoint>
          <nmap:waypoint index="16" lat="37.6634398" lon="126.8954656">
            <nmap:type>goal</nmap:type>
            <nmap:name>도착지</nmap:name>
            <nmap:desc>경기 고양시 덕양구 오금동 596</nmap:desc>
          </nmap:waypoint>
        </nmap:waypoints>
      </nmap:walkCourse>
    </extensions>
  </metadata>
  <trk>
    <name>경기 고양시 덕양구 오금동 693-경기 고양시 덕양구 오금동 596_260801</name>
    <desc>경기 고양시 덕양구 오금동 693-경기 고양시 덕양구 오금동 693-경기 고양시 덕양구 오금동 693-경기 고양시 덕양구 오금동 693-경기 고양시 덕양구 오금동 693-경기 고양시 덕양구 오금동 산77-4-경기 고양시 덕양구 오금동 693-경기 고양시 덕양구 오금동 693-경기 고양시 덕양구 오금동 693-경기 고양시 덕양구 오금동 693-경기 고양시 덕양구 오금동 693-경기 고양시 덕양구 오금동 693-경기 고양시 덕양구 오금동 693-경기 고양시 덕양구 오금동 693-경기 고양시 덕양구 오금동 693-경기 고양시 덕양구 오금동 693-경기 고양시 덕양구 오금동 596</desc>
    <type>walking</type>
    <trkseg>
      <trkpt lat="37.6635093" lon="126.8958313"><ele>41.01</ele></trkpt>
      <trkpt lat="37.6634688" lon="126.895843"><ele>40.82</ele></trkpt>
      <trkpt lat="37.6634418" lon="126.8958511"><ele>40.61</ele></trkpt>
      <trkpt lat="37.6631541" lon="126.895985"><ele>40.48</ele></trkpt>
      <trkpt lat="37.6627998" lon="126.89615"><ele>40.43</ele></trkpt>
      <trkpt lat="37.6626658" lon="126.8962168"><ele>40.71</ele></trkpt>
      <trkpt lat="37.6625552" lon="126.896271"><ele>40.83</ele></trkpt>
      <trkpt lat="37.6623071" lon="126.8964011"><ele>41.01</ele></trkpt>
      <trkpt lat="37.6621698" lon="126.8965168"><ele>40.88</ele></trkpt>
      <trkpt lat="37.6619245" lon="126.8968351"><ele>42.25</ele></trkpt>
      <trkpt lat="37.661621" lon="126.8972332"><ele>42.3</ele></trkpt>
      <trkpt lat="37.6614759" lon="126.8974226"><ele>43.97</ele></trkpt>
      <trkpt lat="37.6613748" lon="126.8975697"><ele>44.92</ele></trkpt>
      <trkpt lat="37.6612585" lon="126.8977384"><ele>45</ele></trkpt>
      <trkpt lat="37.6611256" lon="126.8980014"><ele>45</ele></trkpt>
      <trkpt lat="37.6609315" lon="126.8984701"><ele>45</ele></trkpt>
      <trkpt lat="37.6606973" lon="126.8992044"><ele>45.1</ele></trkpt>
      <trkpt lat="37.6605072" lon="126.8997535"><ele>45.05</ele></trkpt>
      <trkpt lat="37.6604992" lon="126.899774"><ele>45.09</ele></trkpt>
      <trkpt lat="37.6604493" lon="126.8998991"><ele>45.17</ele></trkpt>
      <trkpt lat="37.6603528" lon="126.9000597"><ele>45.09</ele></trkpt>
      <trkpt lat="37.660249" lon="126.9002"><ele>45.06</ele></trkpt>
      <trkpt lat="37.6601145" lon="126.9005197"><ele>45.11</ele></trkpt>
      <trkpt lat="37.6600601" lon="126.9006437"><ele>45.11</ele></trkpt>
      <trkpt lat="37.6600601" lon="126.9006437"><ele>45.11</ele></trkpt>
      <trkpt lat="37.6600334" lon="126.9007029"><ele>45.12</ele></trkpt>
      <trkpt lat="37.6599282" lon="126.9009407"><ele>45.17</ele></trkpt>
      <trkpt lat="37.6598573" lon="126.9011657"><ele>45.29</ele></trkpt>
      <trkpt lat="37.6597939" lon="126.9014576"><ele>45.48</ele></trkpt>
      <trkpt lat="37.659793" lon="126.9014599"><ele>45.48</ele></trkpt>
      <trkpt lat="37.6597152" lon="126.9017632"><ele>45.65</ele></trkpt>
      <trkpt lat="37.6596981" lon="126.9019402"><ele>46.04</ele></trkpt>
      <trkpt lat="37.6597123" lon="126.9020762"><ele>46.21</ele></trkpt>
      <trkpt lat="37.6597673" lon="126.9022673"><ele>47.57</ele></trkpt>
      <trkpt lat="37.659914" lon="126.9025677"><ele>49.83</ele></trkpt>
      <trkpt lat="37.6599249" lon="126.9025971"><ele>49.9</ele></trkpt>
      <trkpt lat="37.6599788" lon="126.9027441"><ele>50</ele></trkpt>
      <trkpt lat="37.6600058" lon="126.9029117"><ele>50</ele></trkpt>
      <trkpt lat="37.6600058" lon="126.9029105"><ele>50</ele></trkpt>
      <trkpt lat="37.6600114" lon="126.902949"><ele>50</ele></trkpt>
      <trkpt lat="37.6600037" lon="126.903211"><ele>50</ele></trkpt>
      <trkpt lat="37.6599792" lon="126.9033506"><ele>50</ele></trkpt>
      <trkpt lat="37.65991" lon="126.9035598"><ele>50</ele></trkpt>
      <trkpt lat="37.6598169" lon="126.9036955"><ele>50</ele></trkpt>
      <trkpt lat="37.659782" lon="126.9037434"><ele>50</ele></trkpt>
      <trkpt lat="37.6595721" lon="126.9039469"><ele>50</ele></trkpt>
      <trkpt lat="37.6594481" lon="126.9040249"><ele>50</ele></trkpt>
      <trkpt lat="37.659293" lon="126.9041917"><ele>50</ele></trkpt>
      <trkpt lat="37.6592297" lon="126.9043113"><ele>50</ele></trkpt>
      <trkpt lat="37.6592154" lon="126.9043374"><ele>50</ele></trkpt>
      <trkpt lat="37.6591735" lon="126.9044262"><ele>50</ele></trkpt>
      <trkpt lat="37.6591464" lon="126.9045976"><ele>50</ele></trkpt>
      <trkpt lat="37.6591325" lon="126.904702"><ele>50</ele></trkpt>
      <trkpt lat="37.6591258" lon="126.9048053"><ele>50</ele></trkpt>
      <trkpt lat="37.6591382" lon="126.9049423"><ele>50</ele></trkpt>
      <trkpt lat="37.6591549" lon="126.9050374"><ele>50</ele></trkpt>
      <trkpt lat="37.6591586" lon="126.905059"><ele>50</ele></trkpt>
      <trkpt lat="37.6591988" lon="126.905172"><ele>50</ele></trkpt>
      <trkpt lat="37.6591979" lon="126.9051709"><ele>50</ele></trkpt>
      <trkpt lat="37.6592556" lon="126.9053348"><ele>50</ele></trkpt>
      <trkpt lat="37.659449" lon="126.9058004"><ele>50</ele></trkpt>
      <trkpt lat="37.65947" lon="126.9058478"><ele>50</ele></trkpt>
      <trkpt lat="37.6596732" lon="126.9062974"><ele>50</ele></trkpt>
      <trkpt lat="37.6598245" lon="126.9066194"><ele>50.52</ele></trkpt>
      <trkpt lat="37.6601344" lon="126.9071441"><ele>51.63</ele></trkpt>
      <trkpt lat="37.660139" lon="126.9071554"><ele>51.63</ele></trkpt>
      <trkpt lat="37.660224" lon="126.9073837"><ele>50.44</ele></trkpt>
      <trkpt lat="37.6603113" lon="126.9075463"><ele>50.24</ele></trkpt>
      <trkpt lat="37.6604427" lon="126.9076847"><ele>50.64</ele></trkpt>
      <trkpt lat="37.6604727" lon="126.9077321"><ele>50.73</ele></trkpt>
      <trkpt lat="37.6605208" lon="126.9078065"><ele>50.93</ele></trkpt>
      <trkpt lat="37.6606854" lon="126.9080819"><ele>51.89</ele></trkpt>
      <trkpt lat="37.660818" lon="126.9082826"><ele>54.51</ele></trkpt>
      <trkpt lat="37.6608501" lon="126.9083958"><ele>54.86</ele></trkpt>
      <trkpt lat="37.6608822" lon="126.9085043"><ele>54.98</ele></trkpt>
      <trkpt lat="37.660984" lon="126.9088686"><ele>55</ele></trkpt>
      <trkpt lat="37.6611731" lon="126.9095451"><ele>55.05</ele></trkpt>
      <trkpt lat="37.6613347" lon="126.9101459"><ele>55.58</ele></trkpt>
      <trkpt lat="37.6614398" lon="126.9104183"><ele>55.52</ele></trkpt>
      <trkpt lat="37.6616256" lon="126.9108068"><ele>56.26</ele></trkpt>
      <trkpt lat="37.6618317" lon="126.9112984"><ele>58.08</ele></trkpt>
      <trkpt lat="37.6619608" lon="126.9116908"><ele>59.39</ele></trkpt>
      <trkpt lat="37.6620094" lon="126.9118639"><ele>59.94</ele></trkpt>
      <trkpt lat="37.6620418" lon="126.9120292"><ele>60</ele></trkpt>
      <trkpt lat="37.6620756" lon="126.9121321"><ele>60</ele></trkpt>
      <trkpt lat="37.6621315" lon="126.912313"><ele>60</ele></trkpt>
      <trkpt lat="37.6622137" lon="126.9125176"><ele>60</ele></trkpt>
      <trkpt lat="37.6622164" lon="126.9125255"><ele>60</ele></trkpt>
      <trkpt lat="37.6622649" lon="126.9126691"><ele>60.83</ele></trkpt>
      <trkpt lat="37.6622814" lon="126.9129105"><ele>60.62</ele></trkpt>
      <trkpt lat="37.6622764" lon="126.9131815"><ele>60.71</ele></trkpt>
      <trkpt lat="37.6622351" lon="126.9135696"><ele>60.74</ele></trkpt>
      <trkpt lat="37.6622363" lon="126.9136217"><ele>60.81</ele></trkpt>
      <trkpt lat="37.6622379" lon="126.9137657"><ele>61.11</ele></trkpt>
      <trkpt lat="37.662235" lon="126.9140911"><ele>62.44</ele></trkpt>
      <trkpt lat="37.6622778" lon="126.9143618"><ele>64.21</ele></trkpt>
      <trkpt lat="37.662345" lon="126.9146515"><ele>65</ele></trkpt>
      <trkpt lat="37.6625308" lon="126.9152033"><ele>65.5</ele></trkpt>
      <trkpt lat="37.662678" lon="126.915641"><ele>65.71</ele></trkpt>
      <trkpt lat="37.6627178" lon="126.9158368"><ele>65.86</ele></trkpt>
      <trkpt lat="37.6627366" lon="126.9159965"><ele>66.32</ele></trkpt>
      <trkpt lat="37.6627972" lon="126.9164008"><ele>68.16</ele></trkpt>
      <trkpt lat="37.6628688" lon="126.9166769"><ele>69.96</ele></trkpt>
      <trkpt lat="37.6629944" lon="126.9169231"><ele>70</ele></trkpt>
      <trkpt lat="37.6632064" lon="126.91713"><ele>70</ele></trkpt>
      <trkpt lat="37.6632971" lon="126.9172552"><ele>70</ele></trkpt>
      <trkpt lat="37.6632953" lon="126.9172529"><ele>70</ele></trkpt>
      <trkpt lat="37.6632064" lon="126.91713"><ele>70</ele></trkpt>
      <trkpt lat="37.663306" lon="126.9172188"><ele>70.11</ele></trkpt>
      <trkpt lat="37.6634234" lon="126.9172746"><ele>70.9</ele></trkpt>
      <trkpt lat="37.6634243" lon="126.9172791"><ele>70.7</ele></trkpt>
      <trkpt lat="37.6634414" lon="126.9174547"><ele>70.14</ele></trkpt>
      <trkpt lat="37.6634213" lon="126.917947"><ele>70.29</ele></trkpt>
      <trkpt lat="37.6633062" lon="126.9178118"><ele>70.24</ele></trkpt>
      <trkpt lat="37.6632952" lon="126.9177813"><ele>70.24</ele></trkpt>
      <trkpt lat="37.6632733" lon="126.9177214"><ele>70.05</ele></trkpt>
      <trkpt lat="37.6632541" lon="126.9176762"><ele>70</ele></trkpt>
      <trkpt lat="37.6631756" lon="126.917662"><ele>70.16</ele></trkpt>
      <trkpt lat="37.6630802" lon="126.9176741"><ele>70.42</ele></trkpt>
      <trkpt lat="37.6630297" lon="126.9176836"><ele>70.91</ele></trkpt>
      <trkpt lat="37.6629199" lon="126.917706"><ele>71.41</ele></trkpt>
      <trkpt lat="37.6627948" lon="126.9177478"><ele>72.14</ele></trkpt>
      <trkpt lat="37.6627347" lon="126.917797"><ele>72.74</ele></trkpt>
      <trkpt lat="37.6626929" lon="126.9177316"><ele>72.75</ele></trkpt>
      <trkpt lat="37.6626034" lon="126.917501"><ele>71.42</ele></trkpt>
      <trkpt lat="37.6625942" lon="126.9174523"><ele>70.84</ele></trkpt>
      <trkpt lat="37.6625664" lon="126.917313"><ele>70</ele></trkpt>
      <trkpt lat="37.6625331" lon="126.9171432"><ele>70</ele></trkpt>
      <trkpt lat="37.6625322" lon="126.917141"><ele>70</ele></trkpt>
      <trkpt lat="37.6625202" lon="126.9170798"><ele>70</ele></trkpt>
      <trkpt lat="37.6625418" lon="126.9168915"><ele>70</ele></trkpt>
      <trkpt lat="37.6626311" lon="126.9167105"><ele>69.74</ele></trkpt>
      <trkpt lat="37.6625712" lon="126.9164615"><ele>68.29</ele></trkpt>
      <trkpt lat="37.6624781" lon="126.9158613"><ele>66.45</ele></trkpt>
      <trkpt lat="37.6624246" lon="126.9156078"><ele>66.46</ele></trkpt>
      <trkpt lat="37.662282" lon="126.9152075"><ele>65.9</ele></trkpt>
      <trkpt lat="37.6620764" lon="126.9148157"><ele>65.69</ele></trkpt>
      <trkpt lat="37.6619042" lon="126.9144441"><ele>64.43</ele></trkpt>
      <trkpt lat="37.6618413" lon="126.9139536"><ele>63.39</ele></trkpt>
      <trkpt lat="37.6618603" lon="126.9136009"><ele>61.53</ele></trkpt>
      <trkpt lat="37.661862" lon="126.9135839"><ele>61.46</ele></trkpt>
      <trkpt lat="37.6618966" lon="126.9134589"><ele>60.74</ele></trkpt>
      <trkpt lat="37.6618975" lon="126.9134589"><ele>60.74</ele></trkpt>
      <trkpt lat="37.6619054" lon="126.9134293"><ele>60.57</ele></trkpt>
      <trkpt lat="37.6619904" lon="126.9131237"><ele>60.24</ele></trkpt>
      <trkpt lat="37.6620147" lon="126.9129296"><ele>60.05</ele></trkpt>
      <trkpt lat="37.6620119" lon="126.9127357"><ele>60</ele></trkpt>
      <trkpt lat="37.6619927" lon="126.9126645"><ele>60</ele></trkpt>
      <trkpt lat="37.6619848" lon="126.9125409"><ele>60</ele></trkpt>
      <trkpt lat="37.6619839" lon="126.9125398"><ele>60</ele></trkpt>
      <trkpt lat="37.6619751" lon="126.9123993"><ele>60</ele></trkpt>
      <trkpt lat="37.6619083" lon="126.9121946"><ele>60</ele></trkpt>
      <trkpt lat="37.6617802" lon="126.9119825"><ele>59.85</ele></trkpt>
      <trkpt lat="37.661579" lon="126.9115929"><ele>57.85</ele></trkpt>
      <trkpt lat="37.6613153" lon="126.9111313"><ele>57.08</ele></trkpt>
      <trkpt lat="37.6613135" lon="126.911129"><ele>57.08</ele></trkpt>
      <trkpt lat="37.6612408" lon="126.9110003"><ele>56.87</ele></trkpt>
      <trkpt lat="37.6611735" lon="126.9108818"><ele>56.64</ele></trkpt>
      <trkpt lat="37.6609316" lon="126.9104552"><ele>55.68</ele></trkpt>
      <trkpt lat="37.6608614" lon="126.9102879"><ele>55.43</ele></trkpt>
      <trkpt lat="37.6608219" lon="126.9101567"><ele>55.35</ele></trkpt>
      <trkpt lat="37.6607757" lon="126.9099179"><ele>55.14</ele></trkpt>
      <trkpt lat="37.6606331" lon="126.909173"><ele>55</ele></trkpt>
      <trkpt lat="37.66061" lon="126.9090586"><ele>55</ele></trkpt>
      <trkpt lat="37.6606064" lon="126.9090439"><ele>55</ele></trkpt>
      <trkpt lat="37.6606055" lon="126.9090428"><ele>55</ele></trkpt>
      <trkpt lat="37.6605592" lon="126.9088142"><ele>55</ele></trkpt>
      <trkpt lat="37.6604613" lon="126.9083387"><ele>52.37</ele></trkpt>
      <trkpt lat="37.6603653" lon="126.9080697"><ele>51.31</ele></trkpt>
      <trkpt lat="37.6602519" lon="126.907913"><ele>51.57</ele></trkpt>
      <trkpt lat="37.660128" lon="126.9076498"><ele>50.33</ele></trkpt>
      <trkpt lat="37.6600325" lon="126.9074771"><ele>50.24</ele></trkpt>
      <trkpt lat="37.6599979" lon="126.9074229"><ele>50.22</ele></trkpt>
      <trkpt lat="37.6599916" lon="126.9074139"><ele>50.23</ele></trkpt>
      <trkpt lat="37.6599907" lon="126.9074128"><ele>50.23</ele></trkpt>
      <trkpt lat="37.6598582" lon="126.9072325"><ele>50.56</ele></trkpt>
      <trkpt lat="37.6595059" lon="126.9065403"><ele>50.29</ele></trkpt>
      <trkpt lat="37.6590911" lon="126.905606"><ele>50.5</ele></trkpt>
      <trkpt lat="37.6589603" lon="126.9052249"><ele>50.33</ele></trkpt>
      <trkpt lat="37.6589594" lon="126.9052227"><ele>50.33</ele></trkpt>
      <trkpt lat="37.6588889" lon="126.905018"><ele>50.24</ele></trkpt>
      <trkpt lat="37.658873" lon="126.9049048"><ele>50.41</ele></trkpt>
      <trkpt lat="37.6588633" lon="126.9047563"><ele>50.23</ele></trkpt>
      <trkpt lat="37.6588688" lon="126.90461"><ele>50.03</ele></trkpt>
      <trkpt lat="37.6588904" lon="126.9044103"><ele>50.01</ele></trkpt>
      <trkpt lat="37.6589506" lon="126.9042103"><ele>50.05</ele></trkpt>
      <trkpt lat="37.6590317" lon="126.9040305"><ele>50</ele></trkpt>
      <trkpt lat="37.6591956" lon="126.9038104"><ele>50</ele></trkpt>
      <trkpt lat="37.6593865" lon="126.9035946"><ele>50</ele></trkpt>
      <trkpt lat="37.6595539" lon="126.9033688"><ele>50</ele></trkpt>
      <trkpt lat="37.6595682" lon="126.9033505"><ele>50</ele></trkpt>
      <trkpt lat="37.6596092" lon="126.9032493"><ele>50</ele></trkpt>
      <trkpt lat="37.6596401" lon="126.9031334"><ele>50</ele></trkpt>
      <trkpt lat="37.6596483" lon="126.9029599"><ele>50</ele></trkpt>
      <trkpt lat="37.659634" lon="126.9028228"><ele>50</ele></trkpt>
      <trkpt lat="37.6595918" lon="126.9026656"><ele>49.75</ele></trkpt>
      <trkpt lat="37.6595688" lon="126.9025807"><ele>49.42</ele></trkpt>
      <trkpt lat="37.6595164" lon="126.9023839"><ele>48.21</ele></trkpt>
      <trkpt lat="37.6595164" lon="126.9023827"><ele>48.21</ele></trkpt>
      <trkpt lat="37.6594971" lon="126.9023103"><ele>47.77</ele></trkpt>
      <trkpt lat="37.6594713" lon="126.9021881"><ele>47.79</ele></trkpt>
      <trkpt lat="37.6594525" lon="126.9020352"><ele>47.29</ele></trkpt>
      <trkpt lat="37.6594573" lon="126.9019127"><ele>47.61</ele></trkpt>
      <trkpt lat="37.6594676" lon="126.9018094"><ele>47.55</ele></trkpt>
      <trkpt lat="37.6594861" lon="126.9017367"><ele>46.54</ele></trkpt>
      <trkpt lat="37.65951" lon="126.9016413"><ele>47.08</ele></trkpt>
      <trkpt lat="37.6595452" lon="126.9014812"><ele>47.04</ele></trkpt>
      <trkpt lat="37.6595627" lon="126.9013733"><ele>47.09</ele></trkpt>
      <trkpt lat="37.6595754" lon="126.9012043"><ele>48.17</ele></trkpt>
      <trkpt lat="37.6595943" lon="126.9010261"><ele>49.71</ele></trkpt>
      <trkpt lat="37.6595112" lon="126.9009849"><ele>50.4</ele></trkpt>
      <trkpt lat="37.6595342" lon="126.9007386"><ele>50.15</ele></trkpt>
      <trkpt lat="37.6596653" lon="126.9008056"><ele>48.2</ele></trkpt>
      <trkpt lat="37.6597118" lon="126.9007293"><ele>47.1</ele></trkpt>
      <trkpt lat="37.6597529" lon="126.9006621"><ele>46.1</ele></trkpt>
      <trkpt lat="37.6597713" lon="126.9005735"><ele>45.35</ele></trkpt>
      <trkpt lat="37.6597784" lon="126.9005405"><ele>45.48</ele></trkpt>
      <trkpt lat="37.6598431" lon="126.9001568"><ele>45.29</ele></trkpt>
      <trkpt lat="37.6598449" lon="126.9001557"><ele>45.29</ele></trkpt>
      <trkpt lat="37.6598484" lon="126.9001296"><ele>45.27</ele></trkpt>
      <trkpt lat="37.6598801" lon="126.8999751"><ele>45.4</ele></trkpt>
      <trkpt lat="37.6599917" lon="126.8997803"><ele>45.27</ele></trkpt>
      <trkpt lat="37.6601581" lon="126.899525"><ele>45.47</ele></trkpt>
      <trkpt lat="37.6602082" lon="126.8994487"><ele>45.17</ele></trkpt>
      <trkpt lat="37.6605174" lon="126.8989269"><ele>45</ele></trkpt>
      <trkpt lat="37.6607796" lon="126.8982071"><ele>45</ele></trkpt>
      <trkpt lat="37.6609791" lon="126.8977316"><ele>45</ele></trkpt>
      <trkpt lat="37.6609933" lon="126.8976975"><ele>45</ele></trkpt>
      <trkpt lat="37.6610414" lon="126.8975837"><ele>45.01</ele></trkpt>
      <trkpt lat="37.6613395" lon="126.8971811"><ele>43.59</ele></trkpt>
      <trkpt lat="37.6613395" lon="126.8971811"><ele>43.59</ele></trkpt>
      <trkpt lat="37.6615087" lon="126.896953"><ele>42.78</ele></trkpt>
      <trkpt lat="37.6618964" lon="126.8964476"><ele>41.78</ele></trkpt>
      <trkpt lat="37.6621316" lon="126.8960885"><ele>41.64</ele></trkpt>
      <trkpt lat="37.6621907" lon="126.89602"><ele>41.37</ele></trkpt>
      <trkpt lat="37.6622337" lon="126.8959698"><ele>41.26</ele></trkpt>
      <trkpt lat="37.6623144" lon="126.8958886"><ele>41.29</ele></trkpt>
      <trkpt lat="37.6624276" lon="126.8958185"><ele>40.86</ele></trkpt>
      <trkpt lat="37.662648" lon="126.8957181"><ele>43.52</ele></trkpt>
      <trkpt lat="37.6626668" lon="126.8957089"><ele>42.97</ele></trkpt>
      <trkpt lat="37.6628674" lon="126.8956324"><ele>41.42</ele></trkpt>
      <trkpt lat="37.6629475" lon="126.8956012"><ele>42.63</ele></trkpt>
      <trkpt lat="37.6631511" lon="126.8955802"><ele>42.17</ele></trkpt>
      <trkpt lat="37.6631709" lon="126.8955767"><ele>42.01</ele></trkpt>
      <trkpt lat="37.6631691" lon="126.8955767"><ele>42.02</ele></trkpt>
      <trkpt lat="37.6632816" lon="126.8955497"><ele>41.09</ele></trkpt>
      <trkpt lat="37.6634318" lon="126.8954725"><ele>41.08</ele></trkpt>
      <trkpt lat="37.6634398" lon="126.8954656"><ele>41.1</ele></trkpt>
    </trkseg>
  </trk>
</gpx>