<?xml version="1.0" encoding="UTF-8"?>
<gpx version="1.1" creator="naver-map-extract" xmlns="http://www.topografix.com/GPX/1/1" xmlns:xsi="http://www.w3.org/2001/XMLSchema-instance" xsi:schemaLocation="http://www.topografix.com/GPX/1/1 http://www.topografix.com/GPX/1/1/gpx.xsd">
  <metadata><name>사패산 사패산4코스</name><desc>거리 3587m, 소요시간 약 111분 / 회룡탐방지원센터 → 회룡사 → 회룡사거리 → 사패산</desc><time>2026-07-29T12:41:01Z</time></metadata>
  <wpt lat="37.7231977" lon="127.0362827"><name>회룡탐방지원센터</name></wpt>
  <wpt lat="37.7196816" lon="127.0276768"><name>회룡사</name></wpt>
  <wpt lat="37.7142976" lon="127.0133563"><name>회룡사거리</name></wpt>
  <wpt lat="37.7224673" lon="127.0102089"><name>사패산</name></wpt>
  <trk><name>사패산 사패산4코스</name><trkseg>
    <trkpt lat="37.7231977" lon="127.0362827"><ele>64.0</ele></trkpt>
    <trkpt lat="37.7231908" lon="127.0361997"><ele>64.0</ele></trkpt>
    <trkpt lat="37.7231849" lon="127.0361357"><ele>64.0</ele></trkpt>
    <trkpt lat="37.7231639" lon="127.0359739"><ele>63.3</ele></trkpt>
    <trkpt lat="37.7231543" lon="127.0359104"><ele>63.0</ele></trkpt>
    <trkpt lat="37.7231244" lon="127.0358044"><ele>63.0</ele></trkpt>
    <trkpt lat="37.7230450" lon="127.0355618"><ele>64.2</ele></trkpt>
    <trkpt lat="37.7230132" lon="127.0353307"><ele>65.0</ele></trkpt>
    <trkpt lat="37.7229741" lon="127.0350890"><ele>66.0</ele></trkpt>
    <trkpt lat="37.7229729" lon="127.0350817"><ele>66.0</ele></trkpt>
    <trkpt lat="37.7229474" lon="127.0349838"><ele>65.1</ele></trkpt>
    <trkpt lat="37.7229105" lon="127.0348910"><ele>65.4</ele></trkpt>
    <trkpt lat="37.7227645" lon="127.0345826"><ele>67.5</ele></trkpt>
    <trkpt lat="37.7227047" lon="127.0344394"><ele>69.7</ele></trkpt>
    <trkpt lat="37.7226133" lon="127.0341712"><ele>74.7</ele></trkpt>
    <trkpt lat="37.7225634" lon="127.0339667"><ele>77.6</ele></trkpt>
    <trkpt lat="37.7225437" lon="127.0339072"><ele>78.4</ele></trkpt>
    <trkpt lat="37.7224729" lon="127.0337653"><ele>79.1</ele></trkpt>
    <trkpt lat="37.7224697" lon="127.0337577"><ele>79.1</ele></trkpt>
    <trkpt lat="37.7223743" lon="127.0335362"><ele>80.2</ele></trkpt>
    <trkpt lat="37.7222480" lon="127.0333416"><ele>82.1</ele></trkpt>
    <trkpt lat="37.7222199" lon="127.0332910"><ele>83.9</ele></trkpt>
    <trkpt lat="37.7221402" lon="127.0331133"><ele>86.0</ele></trkpt>
    <trkpt lat="37.7220910" lon="127.0329835"><ele>87.4</ele></trkpt>
    <trkpt lat="37.7220091" lon="127.0328033"><ele>90.1</ele></trkpt>
    <trkpt lat="37.7219600" lon="127.0326506"><ele>91.0</ele></trkpt>
    <trkpt lat="37.7219288" lon="127.0325091"><ele>91.0</ele></trkpt>
    <trkpt lat="37.7218484" lon="127.0319233"><ele>93.5</ele></trkpt>
    <trkpt lat="37.7217989" lon="127.0317725"><ele>95.5</ele></trkpt>
    <trkpt lat="37.7217806" lon="127.0317365"><ele>95.8</ele></trkpt>
    <trkpt lat="37.7217436" lon="127.0316811"><ele>95.0</ele></trkpt>
    <trkpt lat="37.7217315" lon="127.0316458"><ele>95.0</ele></trkpt>
    <trkpt lat="37.7217266" lon="127.0316062"><ele>95.0</ele></trkpt>
    <trkpt lat="37.7217222" lon="127.0314679"><ele>95.0</ele></trkpt>
    <trkpt lat="37.7216785" lon="127.0312331"><ele>95.3</ele></trkpt>
    <trkpt lat="37.7216498" lon="127.0311448"><ele>94.7</ele></trkpt>
    <trkpt lat="37.7214832" lon="127.0307572"><ele>96.5</ele></trkpt>
    <trkpt lat="37.7214470" lon="127.0306845"><ele>98.9</ele></trkpt>
    <trkpt lat="37.7214116" lon="127.0306300"><ele>99.7</ele></trkpt>
    <trkpt lat="37.7213462" lon="127.0306437"><ele>100.1</ele></trkpt>
    <trkpt lat="37.7209527" lon="127.0306595"><ele>101.0</ele></trkpt>
    <trkpt lat="37.7208662" lon="127.0306551"><ele>102.5</ele></trkpt>
    <trkpt lat="37.7206934" lon="127.0306310"><ele>106.0</ele></trkpt>
    <trkpt lat="37.7206523" lon="127.0306295"><ele>105.1</ele></trkpt>
    <trkpt lat="37.7206076" lon="127.0306396"><ele>105.0</ele></trkpt>
    <trkpt lat="37.7205263" lon="127.0306843"><ele>106.0</ele></trkpt>
    <trkpt lat="37.7204927" lon="127.0306970"><ele>106.8</ele></trkpt>
    <trkpt lat="37.7204415" lon="127.0307019"><ele>107.8</ele></trkpt>
    <trkpt lat="37.7203884" lon="127.0306921"><ele>108.0</ele></trkpt>
    <trkpt lat="37.7203387" lon="127.0306744"><ele>108.0</ele></trkpt>
    <trkpt lat="37.7203080" lon="127.0306561"><ele>108.6</ele></trkpt>
    <trkpt lat="37.7201431" lon="127.0305067"><ele>113.8</ele></trkpt>
    <trkpt lat="37.7201112" lon="127.0304665"><ele>114.1</ele></trkpt>
    <trkpt lat="37.7200436" lon="127.0303485"><ele>115.9</ele></trkpt>
    <trkpt lat="37.7200157" lon="127.0303164"><ele>116.8</ele></trkpt>
    <trkpt lat="37.7198510" lon="127.0302190"><ele>120.0</ele></trkpt>
    <trkpt lat="37.7198151" lon="127.0301881"><ele>120.6</ele></trkpt>
    <trkpt lat="37.7197843" lon="127.0301496"><ele>121.0</ele></trkpt>
    <trkpt lat="37.7197497" lon="127.0300888"><ele>123.7</ele></trkpt>
    <trkpt lat="37.7197149" lon="127.0300058"><ele>125.5</ele></trkpt>
    <trkpt lat="37.7196960" lon="127.0299407"><ele>127.0</ele></trkpt>
    <trkpt lat="37.7196893" lon="127.0298805"><ele>128.6</ele></trkpt>
    <trkpt lat="37.7196911" lon="127.0298332"><ele>129.2</ele></trkpt>
    <trkpt lat="37.7197150" lon="127.0296183"><ele>131.1</ele></trkpt>
    <trkpt lat="37.7197119" lon="127.0293787"><ele>132.0</ele></trkpt>
    <trkpt lat="37.7197149" lon="127.0293191"><ele>132.6</ele></trkpt>
    <trkpt lat="37.7197312" lon="127.0292525"><ele>134.1</ele></trkpt>
    <trkpt lat="37.7197822" lon="127.0291452"><ele>135.2</ele></trkpt>
    <trkpt lat="37.7197959" lon="127.0290606"><ele>136.3</ele></trkpt>
    <trkpt lat="37.7197700" lon="127.0285659"><ele>145.1</ele></trkpt>
    <trkpt lat="37.7197572" lon="127.0282012"><ele>151.0</ele></trkpt>
    <trkpt lat="37.7197624" lon="127.0281205"><ele>151.0</ele></trkpt>
    <trkpt lat="37.7197594" lon="127.0280842"><ele>151.0</ele></trkpt>
    <trkpt lat="37.7197439" lon="127.0279282"><ele>151.0</ele></trkpt>
    <trkpt lat="37.7197256" lon="127.0278382"><ele>153.0</ele></trkpt>
    <trkpt lat="37.7196816" lon="127.0276768"><ele>155.0</ele></trkpt>
    <trkpt lat="37.7196816" lon="127.0276768"><ele>155.0</ele></trkpt>
    <trkpt lat="37.7196614" lon="127.0274592"><ele>156.0</ele></trkpt>
    <trkpt lat="37.7196576" lon="127.0272721"><ele>157.0</ele></trkpt>
    <trkpt lat="37.7195536" lon="127.0268572"><ele>160.9</ele></trkpt>
    <trkpt lat="37.7195203" lon="127.0267955"><ele>162.0</ele></trkpt>
    <trkpt lat="37.7193554" lon="127.0266012"><ele>170.9</ele></trkpt>
    <trkpt lat="37.7192016" lon="127.0263068"><ele>174.0</ele></trkpt>
    <trkpt lat="37.7190219" lon="127.0260093"><ele>180.0</ele></trkpt>
    <trkpt lat="37.7189818" lon="127.0258205"><ele>180.9</ele></trkpt>
    <trkpt lat="37.7190004" lon="127.0255863"><ele>178.0</ele></trkpt>
    <trkpt lat="37.7189917" lon="127.0255228"><ele>178.9</ele></trkpt>
    <trkpt lat="37.7188836" lon="127.0252529"><ele>180.9</ele></trkpt>
    <trkpt lat="37.7187766" lon="127.0250510"><ele>184.9</ele></trkpt>
    <trkpt lat="37.7186963" lon="127.0248246"><ele>186.9</ele></trkpt>
    <trkpt lat="37.7186311" lon="127.0245722"><ele>189.0</ele></trkpt>
    <trkpt lat="37.7184751" lon="127.0242777"><ele>200.0</ele></trkpt>
    <trkpt lat="37.7184256" lon="127.0240971"><ele>200.0</ele></trkpt>
    <trkpt lat="37.7183482" lon="127.0237434"><ele>197.3</ele></trkpt>
    <trkpt lat="37.7181875" lon="127.0229492"><ele>205.6</ele></trkpt>
    <trkpt lat="37.7180622" lon="127.0227248"><ele>208.0</ele></trkpt>
    <trkpt lat="37.7179970" lon="127.0225416"><ele>209.9</ele></trkpt>
    <trkpt lat="37.7178432" lon="127.0221326"><ele>212.9</ele></trkpt>
    <trkpt lat="37.7174834" lon="127.0218055"><ele>221.7</ele></trkpt>
    <trkpt lat="37.7173745" lon="127.0214994"><ele>224.0</ele></trkpt>
    <trkpt lat="37.7173478" lon="127.0211781"><ele>228.8</ele></trkpt>
    <trkpt lat="37.7170953" lon="127.0207323"><ele>245.0</ele></trkpt>
    <trkpt lat="37.7170504" lon="127.0207090"><ele>243.9</ele></trkpt>
    <trkpt lat="37.7168189" lon="127.0206921"><ele>240.1</ele></trkpt>
    <trkpt lat="37.7166016" lon="127.0206391"><ele>259.8</ele></trkpt>
    <trkpt lat="37.7165494" lon="127.0205605"><ele>261.0</ele></trkpt>
    <trkpt lat="37.7163790" lon="127.0201833"><ele>266.0</ele></trkpt>
    <trkpt lat="37.7163452" lon="127.0201641"><ele>267.1</ele></trkpt>
    <trkpt lat="37.7162263" lon="127.0201712"><ele>274.2</ele></trkpt>
    <trkpt lat="37.7161996" lon="127.0201563"><ele>275.9</ele></trkpt>
    <trkpt lat="37.7162340" lon="127.0198994"><ele>270.1</ele></trkpt>
    <trkpt lat="37.7163193" lon="127.0196767"><ele>263.9</ele></trkpt>
    <trkpt lat="37.7162997" lon="127.0195875"><ele>262.1</ele></trkpt>
    <trkpt lat="37.7161031" lon="127.0190872"><ele>275.0</ele></trkpt>
    <trkpt lat="37.7160659" lon="127.0190135"><ele>277.0</ele></trkpt>
    <trkpt lat="37.7159912" lon="127.0188124"><ele>281.0</ele></trkpt>
    <trkpt lat="37.7158917" lon="127.0185432"><ele>283.0</ele></trkpt>
    <trkpt lat="37.7156907" lon="127.0181889"><ele>289.9</ele></trkpt>
    <trkpt lat="37.7155745" lon="127.0179182"><ele>295.0</ele></trkpt>
    <trkpt lat="37.7154783" lon="127.0176158"><ele>300.1</ele></trkpt>
    <trkpt lat="37.7153799" lon="127.0172425"><ele>309.1</ele></trkpt>
    <trkpt lat="37.7153204" lon="127.0170038"><ele>314.1</ele></trkpt>
    <trkpt lat="37.7152802" lon="127.0167717"><ele>319.1</ele></trkpt>
    <trkpt lat="37.7151471" lon="127.0165099"><ele>325.3</ele></trkpt>
    <trkpt lat="37.7151440" lon="127.0163482"><ele>331.0</ele></trkpt>
    <trkpt lat="37.7151977" lon="127.0161482"><ele>343.2</ele></trkpt>
    <trkpt lat="37.7152139" lon="127.0160058"><ele>347.1</ele></trkpt>
    <trkpt lat="37.7152115" lon="127.0159442"><ele>348.8</ele></trkpt>
    <trkpt lat="37.7150828" lon="127.0157778"><ele>345.0</ele></trkpt>
    <trkpt lat="37.7149268" lon="127.0154233"><ele>363.9</ele></trkpt>
    <trkpt lat="37.7148267" lon="127.0153307"><ele>372.3</ele></trkpt>
    <trkpt lat="37.7147733" lon="127.0152583"><ele>376.1</ele></trkpt>
    <trkpt lat="37.7147141" lon="127.0151022"><ele>381.9</ele></trkpt>
    <trkpt lat="37.7146216" lon="127.0149186"><ele>387.9</ele></trkpt>
    <trkpt lat="37.7145614" lon="127.0145098"><ele>398.2</ele></trkpt>
    <trkpt lat="37.7144761" lon="127.0143356"><ele>406.2</ele></trkpt>
    <trkpt lat="37.7144186" lon="127.0141436"><ele>413.8</ele></trkpt>
    <trkpt lat="37.7143428" lon="127.0139727"><ele>421.9</ele></trkpt>
    <trkpt lat="37.7143245" lon="127.0138261"><ele>429.0</ele></trkpt>
    <trkpt lat="37.7143441" lon="127.0136376"><ele>437.8</ele></trkpt>
    <trkpt lat="37.7142976" lon="127.0133563"><ele>449.0</ele></trkpt>
    <trkpt lat="37.7143684" lon="127.0133189"><ele>453.1</ele></trkpt>
    <trkpt lat="37.7145799" lon="127.0132683"><ele>458.6</ele></trkpt>
    <trkpt lat="37.7147599" lon="127.0132647"><ele>462.6</ele></trkpt>
    <trkpt lat="37.7149324" lon="127.0132334"><ele>468.7</ele></trkpt>
    <trkpt lat="37.7151470" lon="127.0131150"><ele>474.9</ele></trkpt>
    <trkpt lat="37.7153894" lon="127.0131220"><ele>479.7</ele></trkpt>
    <trkpt lat="37.7156669" lon="127.0130232"><ele>486.5</ele></trkpt>
    <trkpt lat="37.7159008" lon="127.0129133"><ele>494.0</ele></trkpt>
    <trkpt lat="37.7160060" lon="127.0128978"><ele>494.5</ele></trkpt>
    <trkpt lat="37.7161455" lon="127.0129032"><ele>495.0</ele></trkpt>
    <trkpt lat="37.7163606" lon="127.0128547"><ele>499.0</ele></trkpt>
    <trkpt lat="37.7164365" lon="127.0128730"><ele>499.3</ele></trkpt>
    <trkpt lat="37.7165146" lon="127.0129136"><ele>498.3</ele></trkpt>
    <trkpt lat="37.7167917" lon="127.0130848"><ele>494.8</ele></trkpt>
    <trkpt lat="37.7170275" lon="127.0132566"><ele>494.0</ele></trkpt>
    <trkpt lat="37.7170829" lon="127.0133378"><ele>493.5</ele></trkpt>
    <trkpt lat="37.7171522" lon="127.0134997"><ele>493.2</ele></trkpt>
    <trkpt lat="37.7174135" lon="127.0137287"><ele>495.0</ele></trkpt>
    <trkpt lat="37.7174678" lon="127.0137939"><ele>495.0</ele></trkpt>
    <trkpt lat="37.7175261" lon="127.0139034"><ele>495.0</ele></trkpt>
    <trkpt lat="37.7175501" lon="127.0140853"><ele>495.0</ele></trkpt>
    <trkpt lat="37.7175866" lon="127.0142058"><ele>494.0</ele></trkpt>
    <trkpt lat="37.7176258" lon="127.0142435"><ele>492.7</ele></trkpt>
    <trkpt lat="37.7177222" lon="127.0142963"><ele>490.0</ele></trkpt>
    <trkpt lat="37.7178542" lon="127.0143275"><ele>490.0</ele></trkpt>
    <trkpt lat="37.7179143" lon="127.0143281"><ele>489.6</ele></trkpt>
    <trkpt lat="37.7181087" lon="127.0142202"><ele>485.1</ele></trkpt>
    <trkpt lat="37.7182517" lon="127.0141994"><ele>481.8</ele></trkpt>
    <trkpt lat="37.7182852" lon="127.0142042"><ele>481.0</ele></trkpt>
    <trkpt lat="37.7183633" lon="127.0142484"><ele>478.9</ele></trkpt>
    <trkpt lat="37.7184735" lon="127.0142887"><ele>475.5</ele></trkpt>
    <trkpt lat="37.7185860" lon="127.0142785"><ele>474.2</ele></trkpt>
    <trkpt lat="37.7188490" lon="127.0141636"><ele>470.0</ele></trkpt>
    <trkpt lat="37.7191655" lon="127.0139981"><ele>469.5</ele></trkpt>
    <trkpt lat="37.7192336" lon="127.0139417"><ele>469.9</ele></trkpt>
    <trkpt lat="37.7195586" lon="127.0136380"><ele>468.3</ele></trkpt>
    <trkpt lat="37.7196997" lon="127.0134464"><ele>470.0</ele></trkpt>
    <trkpt lat="37.7202289" lon="127.0130569"><ele>482.8</ele></trkpt>
    <trkpt lat="37.7203664" lon="127.0128174"><ele>485.2</ele></trkpt>
    <trkpt lat="37.7204819" lon="127.0127069"><ele>486.0</ele></trkpt>
    <trkpt lat="37.7207166" lon="127.0125544"><ele>492.2</ele></trkpt>
    <trkpt lat="37.7210703" lon="127.0124494"><ele>488.8</ele></trkpt>
    <trkpt lat="37.7214150" lon="127.0122297"><ele>481.7</ele></trkpt>
    <trkpt lat="37.7215682" lon="127.0121200"><ele>488.6</ele></trkpt>
    <trkpt lat="37.7217180" lon="127.0119789"><ele>496.8</ele></trkpt>
    <trkpt lat="37.7220074" lon="127.0117467"><ele>513.2</ele></trkpt>
    <trkpt lat="37.7221458" lon="127.0115556"><ele>520.2</ele></trkpt>
    <trkpt lat="37.7222756" lon="127.0111829"><ele>526.2</ele></trkpt>
    <trkpt lat="37.7223684" lon="127.0108409"><ele>533.3</ele></trkpt>
    <trkpt lat="37.7223948" lon="127.0105094"><ele>548.0</ele></trkpt>
    <trkpt lat="37.7224673" lon="127.0102089"><ele>547.0</ele></trkpt>
  </trkseg></trk>
</gpx>