<?xml version="1.0" encoding="UTF-8"?>
<gpx creator="Ramblr - http://www.ramblr.com" version="1.1" xmlns="http://www.topografix.com/GPX/1/1">
<metadata>
<name>20250104 계양산 트레킹 </name>
<desc>Bientus, Inc. - www.ramblr.com - Share your outdoor stories on a map!</desc>
<author>
<name></name>
</author>
<link href="https://www.ramblr.com/web/mymap/trip/175219/7980132"></link>
<time>2025-01-04T03:55:46Z</time>
</metadata>
<trk>
<name>20250104 계양산 트레킹 </name>
<trkseg>
<trkpt lat="37.54568544" lon="126.7285844"><ele>72.9161376953125</ele><time>2025-01-04T03:55:47Z</time></trkpt>
<trkpt lat="37.54570245" lon="126.7285913"><ele>70.93121337890625</ele><time>2025-01-04T03:55:48Z</time></trkpt>
<trkpt lat="37.54578573" lon="126.72863649"><ele>71.03125</ele><time>2025-01-04T03:55:59Z</time></trkpt>
<trkpt lat="37.54588013" lon="126.72863555"><ele>68.43780517578125</ele><time>2025-01-04T03:56:11Z</time></trkpt>
<trkpt lat="37.54597496" lon="126.72862048"><ele>70.60882568359375</ele><time>2025-01-04T03:56:21Z</time></trkpt>
<trkpt lat="37.54606511" lon="126.7286167"><ele>73.70989990234375</ele><time>2025-01-04T03:56:31Z</time></trkpt>
<trkpt lat="37.54615802" lon="126.72865048"><ele>71.140380859375</ele><time>2025-01-04T03:56:38Z</time></trkpt>
<trkpt lat="37.54624907" lon="126.72867361"><ele>72.54644775390625</ele><time>2025-01-04T03:56:48Z</time></trkpt>
<trkpt lat="37.54634286" lon="126.72867351"><ele>72.50469970703125</ele><time>2025-01-04T03:56:59Z</time></trkpt>
<trkpt lat="37.54643957" lon="126.72865911"><ele>72.6265869140625</ele><time>2025-01-04T03:57:07Z</time></trkpt>
<trkpt lat="37.54653922" lon="126.72864926"><ele>75.05670166015625</ele><time>2025-01-04T03:57:16Z</time></trkpt>
<trkpt lat="37.54663634" lon="126.72864606"><ele>75.52484130859375</ele><time>2025-01-04T03:57:25Z</time></trkpt>
<trkpt lat="37.54672839" lon="126.72865506"><ele>77.1507568359375</ele><time>2025-01-04T03:57:33Z</time></trkpt>
<trkpt lat="37.54681825" lon="126.7286667"><ele>77.19598388671875</ele><time>2025-01-04T03:57:42Z</time></trkpt>
<trkpt lat="37.54691574" lon="126.72866463"><ele>76.18896484375</ele><time>2025-01-04T03:57:52Z</time></trkpt>
<trkpt lat="37.54701122" lon="126.72863784"><ele>71.13250732421875</ele><time>2025-01-04T03:58:03Z</time></trkpt>
<trkpt lat="37.54711091" lon="126.7286543"><ele>72.19879150390625</ele><time>2025-01-04T03:58:14Z</time></trkpt>
<trkpt lat="37.54720326" lon="126.72867505"><ele>75.1600341796875</ele><time>2025-01-04T03:58:24Z</time></trkpt>
<trkpt lat="37.54729243" lon="126.72871516"><ele>74.7081298828125</ele><time>2025-01-04T03:58:56Z</time></trkpt>
<trkpt lat="37.54738678" lon="126.72871661"><ele>75.9359130859375</ele><time>2025-01-04T03:59:02Z</time></trkpt>
<trkpt lat="37.54747867" lon="126.72870148"><ele>76.29949951171875</ele><time>2025-01-04T03:59:10Z</time></trkpt>
<trkpt lat="37.54757929" lon="126.72869824"><ele>76.768798828125</ele><time>2025-01-04T03:59:19Z</time></trkpt>
<trkpt lat="37.54765712" lon="126.72862935"><ele>77.617431640625</ele><time>2025-01-04T03:59:32Z</time></trkpt>
<trkpt lat="37.54761238" lon="126.72851434"><ele>79.5291748046875</ele><time>2025-01-04T03:59:46Z</time></trkpt>
<trkpt lat="37.54770605" lon="126.7284704"><ele>82.002685546875</ele><time>2025-01-04T03:59:53Z</time></trkpt>
<trkpt lat="37.54768969" lon="126.72835366"><ele>93.28857421875</ele><time>2025-01-04T04:01:09Z</time></trkpt>
<trkpt lat="37.54771297" lon="126.72824184"><ele>90.3839111328125</ele><time>2025-01-04T04:01:15Z</time></trkpt>
<trkpt lat="37.54770884" lon="126.72811997"><ele>91.82562255859375</ele><time>2025-01-04T04:01:24Z</time></trkpt>
<trkpt lat="37.54769837" lon="126.72800255"><ele>94.02398681640625</ele><time>2025-01-04T04:01:33Z</time></trkpt>
<trkpt lat="37.54770483" lon="126.72788624"><ele>95.57769775390625</ele><time>2025-01-04T04:01:42Z</time></trkpt>
<trkpt lat="37.54770051" lon="126.72776091"><ele>96.58380126953125</ele><time>2025-01-04T04:01:51Z</time></trkpt>
<trkpt lat="37.54771688" lon="126.72763534"><ele>95.4984130859375</ele><time>2025-01-04T04:02:01Z</time></trkpt>
<trkpt lat="37.54772083" lon="126.72752208"><ele>94.59368896484375</ele><time>2025-01-04T04:02:10Z</time></trkpt>
<trkpt lat="37.54778044" lon="126.72743643"><ele>96.455810546875</ele><time>2025-01-04T04:02:21Z</time></trkpt>
<trkpt lat="37.54787281" lon="126.72746297"><ele>95.82373046875</ele><time>2025-01-04T04:02:31Z</time></trkpt>
<trkpt lat="37.54796347" lon="126.7274667"><ele>97.761962890625</ele><time>2025-01-04T04:02:45Z</time></trkpt>
<trkpt lat="37.54799526" lon="126.72758137"><ele>93.25274658203125</ele><time>2025-01-04T04:02:57Z</time></trkpt>
<trkpt lat="37.54796177" lon="126.72769555"><ele>96.16351318359375</ele><time>2025-01-04T04:03:16Z</time></trkpt>
<trkpt lat="37.54791721" lon="126.72779774"><ele>94.36822509765625</ele><time>2025-01-04T04:03:25Z</time></trkpt>
<trkpt lat="37.54789777" lon="126.72791376"><ele>96.907958984375</ele><time>2025-01-04T04:03:52Z</time></trkpt>
<trkpt lat="37.54790414" lon="126.7280365"><ele>98.76361083984375</ele><time>2025-01-04T04:04:02Z</time></trkpt>
<trkpt lat="37.54792454" lon="126.72815471"><ele>98.8006591796875</ele><time>2025-01-04T04:04:14Z</time></trkpt>
<trkpt lat="37.54788613" lon="126.72827897"><ele>104.5782470703125</ele><time>2025-01-04T04:04:26Z</time></trkpt>
<trkpt lat="37.54789331" lon="126.72839787"><ele>101.2938232421875</ele><time>2025-01-04T04:04:34Z</time></trkpt>
<trkpt lat="37.54788385" lon="126.72851049"><ele>100.769287109375</ele><time>2025-01-04T04:04:43Z</time></trkpt>
<trkpt lat="37.54790661" lon="126.72862828"><ele>102.72955322265625</ele><time>2025-01-04T04:04:53Z</time></trkpt>
<trkpt lat="37.54793109" lon="126.72874218"><ele>101.7703857421875</ele><time>2025-01-04T04:05:05Z</time></trkpt>
<trkpt lat="37.54797694" lon="126.7288435"><ele>102.13372802734375</ele><time>2025-01-04T04:05:15Z</time></trkpt>
<trkpt lat="37.54798915" lon="126.7289611"><ele>100.9718017578125</ele><time>2025-01-04T04:05:26Z</time></trkpt>
<trkpt lat="37.54801834" lon="126.72907388"><ele>102.1146240234375</ele><time>2025-01-04T04:05:36Z</time></trkpt>
<trkpt lat="37.54804641" lon="126.72918267"><ele>99.152099609375</ele><time>2025-01-04T04:05:46Z</time></trkpt>
<trkpt lat="37.54808991" lon="126.72929224"><ele>101.25262451171875</ele><time>2025-01-04T04:05:54Z</time></trkpt>
<trkpt lat="37.54810433" lon="126.7294113"><ele>98.006591796875</ele><time>2025-01-04T04:06:04Z</time></trkpt>
<trkpt lat="37.54815121" lon="126.72952578"><ele>97.00048828125</ele><time>2025-01-04T04:06:14Z</time></trkpt>
<trkpt lat="37.54823045" lon="126.72960528"><ele>100.44232177734375</ele><time>2025-01-04T04:06:21Z</time></trkpt>
<trkpt lat="37.54830742" lon="126.72967956"><ele>101.1812744140625</ele><time>2025-01-04T04:06:29Z</time></trkpt>
<trkpt lat="37.54836311" lon="126.72977372"><ele>99.3056640625</ele><time>2025-01-04T04:06:39Z</time></trkpt>
<trkpt lat="37.5484472" lon="126.72983773"><ele>103.14031982421875</ele><time>2025-01-04T04:06:48Z</time></trkpt>
<trkpt lat="37.5485314" lon="126.72989749"><ele>104.97509765625</ele><time>2025-01-04T04:06:59Z</time></trkpt>
<trkpt lat="37.54862696" lon="126.72990946"><ele>101.19110107421875</ele><time>2025-01-04T04:07:15Z</time></trkpt>
<trkpt lat="37.5487077" lon="126.72996978"><ele>104.0247802734375</ele><time>2025-01-04T04:07:26Z</time></trkpt>
<trkpt lat="37.54879972" lon="126.72996724"><ele>105.49090576171875</ele><time>2025-01-04T04:07:37Z</time></trkpt>
<trkpt lat="37.5488917" lon="126.72998987"><ele>103.4779052734375</ele><time>2025-01-04T04:07:47Z</time></trkpt>
<trkpt lat="37.54897426" lon="126.72993227"><ele>101.56634521484375</ele><time>2025-01-04T04:07:57Z</time></trkpt>
<trkpt lat="37.54906384" lon="126.72988595"><ele>100.0765380859375</ele><time>2025-01-04T04:08:07Z</time></trkpt>
<trkpt lat="37.54913997" lon="126.72981337"><ele>100.01568603515625</ele><time>2025-01-04T04:08:17Z</time></trkpt>
<trkpt lat="37.54918043" lon="126.72970004"><ele>98.29327392578125</ele><time>2025-01-04T04:08:28Z</time></trkpt>
<trkpt lat="37.54927606" lon="126.72970157"><ele>103.82891845703125</ele><time>2025-01-04T04:08:43Z</time></trkpt>
<trkpt lat="37.54935979" lon="126.72976058"><ele>111.4149169921875</ele><time>2025-01-04T04:08:54Z</time></trkpt>
<trkpt lat="37.5494233" lon="126.72984598"><ele>114.16802978515625</ele><time>2025-01-04T04:09:11Z</time></trkpt>
<trkpt lat="37.54951094" lon="126.7298899"><ele>117.235595703125</ele><time>2025-01-04T04:09:29Z</time></trkpt>
<trkpt lat="37.5496018" lon="126.7299212"><ele>120.56658935546875</ele><time>2025-01-04T04:09:45Z</time></trkpt>
<trkpt lat="37.54967866" lon="126.72998674"><ele>123.36944580078125</ele><time>2025-01-04T04:10:02Z</time></trkpt>
<trkpt lat="37.54973528" lon="126.73008124"><ele>125.32623291015625</ele><time>2025-01-04T04:10:18Z</time></trkpt>
<trkpt lat="37.54981472" lon="126.73013864"><ele>128.54119873046875</ele><time>2025-01-04T04:10:33Z</time></trkpt>
<trkpt lat="37.54989424" lon="126.73020158"><ele>127.36358642578125</ele><time>2025-01-04T04:10:48Z</time></trkpt>
<trkpt lat="37.54995723" lon="126.7302856"><ele>128.4305419921875</ele><time>2025-01-04T04:11:02Z</time></trkpt>
<trkpt lat="37.55003171" lon="126.73035268"><ele>129.85406494140625</ele><time>2025-01-04T04:11:17Z</time></trkpt>
<trkpt lat="37.55013576" lon="126.73037292"><ele>134.177978515625</ele><time>2025-01-04T04:11:41Z</time></trkpt>
<trkpt lat="37.55021754" lon="126.73042473"><ele>134.4488525390625</ele><time>2025-01-04T04:11:56Z</time></trkpt>
<trkpt lat="37.55029403" lon="126.73049197"><ele>135.81317138671875</ele><time>2025-01-04T04:12:12Z</time></trkpt>
<trkpt lat="37.55038727" lon="126.73051747"><ele>136.282958984375</ele><time>2025-01-04T04:12:26Z</time></trkpt>
<trkpt lat="37.55047322" lon="126.7304704"><ele>133.5635986328125</ele><time>2025-01-04T04:12:56Z</time></trkpt>
<trkpt lat="37.55044793" lon="126.73035894"><ele>135.4554443359375</ele><time>2025-01-04T04:13:03Z</time></trkpt>
<trkpt lat="37.55041047" lon="126.73024639"><ele>137.671142578125</ele><time>2025-01-04T04:13:12Z</time></trkpt>
<trkpt lat="37.55040461" lon="126.73013222"><ele>137.67010498046875</ele><time>2025-01-04T04:13:24Z</time></trkpt>
<trkpt lat="37.5503785" lon="126.73001565"><ele>139.270263671875</ele><time>2025-01-04T04:13:35Z</time></trkpt>
<trkpt lat="37.55037376" lon="126.72989905"><ele>140.33447265625</ele><time>2025-01-04T04:13:46Z</time></trkpt>
<trkpt lat="37.55036657" lon="126.72977621"><ele>141.00946044921875</ele><time>2025-01-04T04:13:58Z</time></trkpt>
<trkpt lat="37.55037576" lon="126.7296543"><ele>145.066162109375</ele><time>2025-01-04T04:14:08Z</time></trkpt>
<trkpt lat="37.55039168" lon="126.72953438"><ele>146.3795166015625</ele><time>2025-01-04T04:14:18Z</time></trkpt>
<trkpt lat="37.55044576" lon="126.72943924"><ele>140.967529296875</ele><time>2025-01-04T04:14:30Z</time></trkpt>
<trkpt lat="37.55044294" lon="126.72931333"><ele>137.71429443359375</ele><time>2025-01-04T04:14:39Z</time></trkpt>
<trkpt lat="37.55047087" lon="126.72920049"><ele>139.542724609375</ele><time>2025-01-04T04:14:49Z</time></trkpt>
<trkpt lat="37.55050497" lon="126.72909513"><ele>141.00115966796875</ele><time>2025-01-04T04:15:00Z</time></trkpt>
<trkpt lat="37.55055923" lon="126.72900417"><ele>142.2086181640625</ele><time>2025-01-04T04:15:12Z</time></trkpt>
<trkpt lat="37.55062054" lon="126.72891188"><ele>144.28619384765625</ele><time>2025-01-04T04:15:30Z</time></trkpt>
<trkpt lat="37.55065516" lon="126.72879591"><ele>144.95526123046875</ele><time>2025-01-04T04:15:42Z</time></trkpt>
<trkpt lat="37.55069691" lon="126.72868284"><ele>145.06060791015625</ele><time>2025-01-04T04:15:53Z</time></trkpt>
<trkpt lat="37.55071801" lon="126.72856053"><ele>146.40643310546875</ele><time>2025-01-04T04:16:03Z</time></trkpt>
<trkpt lat="37.5507419" lon="126.72844857"><ele>149.18359375</ele><time>2025-01-04T04:16:14Z</time></trkpt>
<trkpt lat="37.55070828" lon="126.72833644"><ele>152.3212890625</ele><time>2025-01-04T04:16:29Z</time></trkpt>
<trkpt lat="37.55061317" lon="126.72832095"><ele>157.704345703125</ele><time>2025-01-04T04:16:43Z</time></trkpt>
<trkpt lat="37.55053179" lon="126.72826267"><ele>160.31134033203125</ele><time>2025-01-04T04:16:56Z</time></trkpt>
<trkpt lat="37.55044608" lon="126.72821922"><ele>160.53472900390625</ele><time>2025-01-04T04:17:37Z</time></trkpt>
<trkpt lat="37.55037096" lon="126.72815598"><ele>160.829833984375</ele><time>2025-01-04T04:17:57Z</time></trkpt>
<trkpt lat="37.55027986" lon="126.72811757"><ele>162.88775634765625</ele><time>2025-01-04T04:18:10Z</time></trkpt>
<trkpt lat="37.55037051" lon="126.72814121"><ele>161.04388427734375</ele><time>2025-01-04T04:18:48Z</time></trkpt>
<trkpt lat="37.55046135" lon="126.72811258"><ele>160.79583740234375</ele><time>2025-01-04T04:19:00Z</time></trkpt>
<trkpt lat="37.55052039" lon="126.72820611"><ele>160.199462890625</ele><time>2025-01-04T04:19:17Z</time></trkpt>
<trkpt lat="37.55057452" lon="126.72829698"><ele>159.3221435546875</ele><time>2025-01-04T04:19:29Z</time></trkpt>
<trkpt lat="37.55066672" lon="126.72830483"><ele>157.2099609375</ele><time>2025-01-04T04:19:43Z</time></trkpt>
<trkpt lat="37.55075994" lon="126.72830019"><ele>155.00439453125</ele><time>2025-01-04T04:19:57Z</time></trkpt>
<trkpt lat="37.55076135" lon="126.72818012"><ele>152.5250244140625</ele><time>2025-01-04T04:20:18Z</time></trkpt>
<trkpt lat="37.55079132" lon="126.72829117"><ele>150.35009765625</ele><time>2025-01-04T04:20:39Z</time></trkpt>
<trkpt lat="37.55081361" lon="126.72841148"><ele>148.5447998046875</ele><time>2025-01-04T04:20:49Z</time></trkpt>
<trkpt lat="37.55080443" lon="126.72853549"><ele>148.8199462890625</ele><time>2025-01-04T04:21:00Z</time></trkpt>
<trkpt lat="37.55075197" lon="126.72863599"><ele>149.203369140625</ele><time>2025-01-04T04:21:09Z</time></trkpt>
<trkpt lat="37.55075514" lon="126.72876035"><ele>150.5157470703125</ele><time>2025-01-04T04:21:16Z</time></trkpt>
<trkpt lat="37.55072581" lon="126.72886879"><ele>149.79925537109375</ele><time>2025-01-04T04:21:29Z</time></trkpt>
<trkpt lat="37.5506932" lon="126.72898173"><ele>150.88360595703125</ele><time>2025-01-04T04:21:39Z</time></trkpt>
<trkpt lat="37.55063683" lon="126.72907717"><ele>150.709716796875</ele><time>2025-01-04T04:21:48Z</time></trkpt>
<trkpt lat="37.55057596" lon="126.7291722"><ele>148.795166015625</ele><time>2025-01-04T04:21:58Z</time></trkpt>
<trkpt lat="37.5505041" lon="126.72926098"><ele>146.54248046875</ele><time>2025-01-04T04:22:10Z</time></trkpt>
<trkpt lat="37.55050351" lon="126.72937813"><ele>145.1907958984375</ele><time>2025-01-04T04:22:26Z</time></trkpt>
<trkpt lat="37.55045953" lon="126.72947971"><ele>144.12298583984375</ele><time>2025-01-04T04:22:35Z</time></trkpt>
<trkpt lat="37.55043362" lon="126.72959541"><ele>143.82452392578125</ele><time>2025-01-04T04:22:44Z</time></trkpt>
<trkpt lat="37.55040984" lon="126.72970741"><ele>142.3070068359375</ele><time>2025-01-04T04:22:53Z</time></trkpt>
<trkpt lat="37.5503899" lon="126.72982014"><ele>140.7608642578125</ele><time>2025-01-04T04:23:02Z</time></trkpt>
<trkpt lat="37.55046476" lon="126.72989597"><ele>140.6484375</ele><time>2025-01-04T04:23:22Z</time></trkpt>
<trkpt lat="37.55040692" lon="126.72980853"><ele>137.67889404296875</ele><time>2025-01-04T04:23:33Z</time></trkpt>
<trkpt lat="37.55038119" lon="126.72969865"><ele>131.5732421875</ele><time>2025-01-04T04:23:43Z</time></trkpt>
<trkpt lat="37.55044855" lon="126.72960424"><ele>130.44091796875</ele><time>2025-01-04T04:23:51Z</time></trkpt>
<trkpt lat="37.55052455" lon="126.72952239"><ele>132.4853515625</ele><time>2025-01-04T04:23:59Z</time></trkpt>
<trkpt lat="37.55058283" lon="126.72942269"><ele>134.7109375</ele><time>2025-01-04T04:24:08Z</time></trkpt>
<trkpt lat="37.55064223" lon="126.72933552"><ele>135.939697265625</ele><time>2025-01-04T04:24:16Z</time></trkpt>
<trkpt lat="37.55071204" lon="126.72925225"><ele>133.7249755859375</ele><time>2025-01-04T04:24:23Z</time></trkpt>
<trkpt lat="37.55077321" lon="126.72916254"><ele>132.8992919921875</ele><time>2025-01-04T04:24:31Z</time></trkpt>
<trkpt lat="37.55083268" lon="126.72906927"><ele>134.05206298828125</ele><time>2025-01-04T04:24:39Z</time></trkpt>
<trkpt lat="37.55088366" lon="126.72896959"><ele>138.5416259765625</ele><time>2025-01-04T04:24:48Z</time></trkpt>
<trkpt lat="37.55095215" lon="126.72888591"><ele>138.5013427734375</ele><time>2025-01-04T04:24:57Z</time></trkpt>
<trkpt lat="37.5510049" lon="126.72878041"><ele>139.0052490234375</ele><time>2025-01-04T04:25:06Z</time></trkpt>
<trkpt lat="37.55106275" lon="126.72869281"><ele>133.23699951171875</ele><time>2025-01-04T04:25:14Z</time></trkpt>
<trkpt lat="37.55111046" lon="126.72859082"><ele>133.2823486328125</ele><time>2025-01-04T04:25:22Z</time></trkpt>
<trkpt lat="37.5511423" lon="126.72847908"><ele>134.45806884765625</ele><time>2025-01-04T04:25:30Z</time></trkpt>
<trkpt lat="37.55116218" lon="126.72835766"><ele>132.1202392578125</ele><time>2025-01-04T04:25:39Z</time></trkpt>
<trkpt lat="37.55114867" lon="126.72824219"><ele>135.94293212890625</ele><time>2025-01-04T04:25:49Z</time></trkpt>
<trkpt lat="37.55119296" lon="126.72814083"><ele>138.20196533203125</ele><time>2025-01-04T04:25:57Z</time></trkpt>
<trkpt lat="37.55120337" lon="126.72802833"><ele>137.8961181640625</ele><time>2025-01-04T04:26:06Z</time></trkpt>
<trkpt lat="37.55124104" lon="126.72791679"><ele>136.41436767578125</ele><time>2025-01-04T04:26:17Z</time></trkpt>
<trkpt lat="37.55129915" lon="126.72782082"><ele>135.39617919921875</ele><time>2025-01-04T04:26:51Z</time></trkpt>
<trkpt lat="37.55137616" lon="126.72775883"><ele>139.0152587890625</ele><time>2025-01-04T04:27:01Z</time></trkpt>
<trkpt lat="37.55141358" lon="126.72764175"><ele>135.89617919921875</ele><time>2025-01-04T04:27:11Z</time></trkpt>
<trkpt lat="37.55143985" lon="126.72752931"><ele>140.39129638671875</ele><time>2025-01-04T04:27:18Z</time></trkpt>
<trkpt lat="37.55152758" lon="126.72757207"><ele>140.99188232421875</ele><time>2025-01-04T04:27:26Z</time></trkpt>
<trkpt lat="37.55162344" lon="126.72759925"><ele>136.9793701171875</ele><time>2025-01-04T04:27:34Z</time></trkpt>
<trkpt lat="37.55171751" lon="126.72757577"><ele>140.8924560546875</ele><time>2025-01-04T04:27:46Z</time></trkpt>
<trkpt lat="37.55180606" lon="126.72753732"><ele>146.5595703125</ele><time>2025-01-04T04:28:03Z</time></trkpt>
<trkpt lat="37.55188654" lon="126.72748281"><ele>146.7451171875</ele><time>2025-01-04T04:28:19Z</time></trkpt>
<trkpt lat="37.55198287" lon="126.72744474"><ele>144.27105712890625</ele><time>2025-01-04T04:28:36Z</time></trkpt>
<trkpt lat="37.55207597" lon="126.72740242"><ele>142.2545166015625</ele><time>2025-01-04T04:28:46Z</time></trkpt>
<trkpt lat="37.55217614" lon="126.72739276"><ele>143.0872802734375</ele><time>2025-01-04T04:28:55Z</time></trkpt>
<trkpt lat="37.55225149" lon="126.72731576"><ele>142.1915283203125</ele><time>2025-01-04T04:29:03Z</time></trkpt>
<trkpt lat="37.55234002" lon="126.72726432"><ele>142.08984375</ele><time>2025-01-04T04:29:13Z</time></trkpt>
<trkpt lat="37.5524321" lon="126.72726571"><ele>142.65350341796875</ele><time>2025-01-04T04:29:22Z</time></trkpt>
<trkpt lat="37.55252712" lon="126.72725742"><ele>140.72479248046875</ele><time>2025-01-04T04:29:31Z</time></trkpt>
<trkpt lat="37.5526052" lon="126.72718713"><ele>139.5423583984375</ele><time>2025-01-04T04:29:39Z</time></trkpt>
<trkpt lat="37.55267104" lon="126.72709636"><ele>141.0230712890625</ele><time>2025-01-04T04:29:48Z</time></trkpt>
<trkpt lat="37.55275646" lon="126.7270542"><ele>141.42889404296875</ele><time>2025-01-04T04:29:58Z</time></trkpt>
<trkpt lat="37.55278094" lon="126.72693546"><ele>142.11004638671875</ele><time>2025-01-04T04:30:07Z</time></trkpt>
<trkpt lat="37.55283279" lon="126.72683255"><ele>145.55242919921875</ele><time>2025-01-04T04:30:17Z</time></trkpt>
<trkpt lat="37.55290014" lon="126.72674231"><ele>143.310302734375</ele><time>2025-01-04T04:30:26Z</time></trkpt>
<trkpt lat="37.55298636" lon="126.72668569"><ele>144.8731689453125</ele><time>2025-01-04T04:30:37Z</time></trkpt>
<trkpt lat="37.55307793" lon="126.7266941"><ele>148.4647216796875</ele><time>2025-01-04T04:30:44Z</time></trkpt>
<trkpt lat="37.55316952" lon="126.72669523"><ele>149.388427734375</ele><time>2025-01-04T04:30:55Z</time></trkpt>
<trkpt lat="37.55324754" lon="126.72662344"><ele>146.3199462890625</ele><time>2025-01-04T04:31:03Z</time></trkpt>
<trkpt lat="37.55328262" lon="126.72650956"><ele>147.23046875</ele><time>2025-01-04T04:31:12Z</time></trkpt>
<trkpt lat="37.55324205" lon="126.72639618"><ele>147.6773681640625</ele><time>2025-01-04T04:31:30Z</time></trkpt>
<trkpt lat="37.55319491" lon="126.72627415"><ele>148.08404541015625</ele><time>2025-01-04T04:31:38Z</time></trkpt>
<trkpt lat="37.55310063" lon="126.72625029"><ele>149.836181640625</ele><time>2025-01-04T04:31:47Z</time></trkpt>
<trkpt lat="37.55302329" lon="126.72618625"><ele>150.69775390625</ele><time>2025-01-04T04:31:57Z</time></trkpt>
<trkpt lat="37.55296049" lon="126.72609787"><ele>152.6885986328125</ele><time>2025-01-04T04:32:11Z</time></trkpt>
<trkpt lat="37.55288865" lon="126.72602165"><ele>155.7935791015625</ele><time>2025-01-04T04:32:28Z</time></trkpt>
<trkpt lat="37.55282653" lon="126.72592627"><ele>155.6541748046875</ele><time>2025-01-04T04:32:39Z</time></trkpt>
<trkpt lat="37.55275526" lon="126.72583927"><ele>155.6790771484375</ele><time>2025-01-04T04:32:50Z</time></trkpt>
<trkpt lat="37.55267136" lon="126.72577706"><ele>158.93060302734375</ele><time>2025-01-04T04:32:59Z</time></trkpt>
<trkpt lat="37.55259499" lon="126.72571076"><ele>155.25738525390625</ele><time>2025-01-04T04:33:18Z</time></trkpt>
<trkpt lat="37.55259385" lon="126.72559314"><ele>155.26068115234375</ele><time>2025-01-04T04:33:22Z</time></trkpt>
<trkpt lat="37.55259658" lon="126.72547133"><ele>159.613525390625</ele><time>2025-01-04T04:33:31Z</time></trkpt>
<trkpt lat="37.55262134" lon="126.72535255"><ele>157.4609375</ele><time>2025-01-04T04:33:40Z</time></trkpt>
<trkpt lat="37.55259357" lon="126.72523784"><ele>157.3349609375</ele><time>2025-01-04T04:33:50Z</time></trkpt>
<trkpt lat="37.55256682" lon="126.72512306"><ele>157.1390380859375</ele><time>2025-01-04T04:34:00Z</time></trkpt>
<trkpt lat="37.55254868" lon="126.72500645"><ele>159.77850341796875</ele><time>2025-01-04T04:34:10Z</time></trkpt>
<trkpt lat="37.55253657" lon="126.72489388"><ele>161.87579345703125</ele><time>2025-01-04T04:34:21Z</time></trkpt>
<trkpt lat="37.55255594" lon="126.7247809"><ele>165.5311279296875</ele><time>2025-01-04T04:34:32Z</time></trkpt>
<trkpt lat="37.55261533" lon="126.72468983"><ele>161.659423828125</ele><time>2025-01-04T04:35:10Z</time></trkpt>
<trkpt lat="37.55265097" lon="126.72458"><ele>167.1240234375</ele><time>2025-01-04T04:35:26Z</time></trkpt>
<trkpt lat="37.55272765" lon="126.72450942"><ele>170.478271484375</ele><time>2025-01-04T04:35:45Z</time></trkpt>
<trkpt lat="37.55282191" lon="126.72450417"><ele>172.579833984375</ele><time>2025-01-04T04:35:59Z</time></trkpt>
<trkpt lat="37.55291862" lon="126.72450496"><ele>172.64837646484375</ele><time>2025-01-04T04:36:14Z</time></trkpt>
<trkpt lat="37.55300541" lon="126.72446857"><ele>171.960693359375</ele><time>2025-01-04T04:36:29Z</time></trkpt>
<trkpt lat="37.55308024" lon="126.72440271"><ele>175.8856201171875</ele><time>2025-01-04T04:36:41Z</time></trkpt>
<trkpt lat="37.55313105" lon="126.72430021"><ele>179.957275390625</ele><time>2025-01-04T04:36:54Z</time></trkpt>
<trkpt lat="37.55316109" lon="126.72418666"><ele>182.81494140625</ele><time>2025-01-04T04:37:06Z</time></trkpt>
<trkpt lat="37.55320032" lon="126.72407533"><ele>182.25103759765625</ele><time>2025-01-04T04:37:16Z</time></trkpt>
<trkpt lat="37.55323929" lon="126.72396264"><ele>182.39080810546875</ele><time>2025-01-04T04:37:26Z</time></trkpt>
<trkpt lat="37.55329586" lon="126.72386311"><ele>181.966796875</ele><time>2025-01-04T04:37:38Z</time></trkpt>
<trkpt lat="37.55335095" lon="126.72377053"><ele>180.07159423828125</ele><time>2025-01-04T04:37:47Z</time></trkpt>
<trkpt lat="37.5533988" lon="126.72366766"><ele>177.1317138671875</ele><time>2025-01-04T04:38:13Z</time></trkpt>
<trkpt lat="37.55341059" lon="126.72354883"><ele>179.555908203125</ele><time>2025-01-04T04:38:22Z</time></trkpt>
<trkpt lat="37.55342535" lon="126.72342965"><ele>176.787841796875</ele><time>2025-01-04T04:38:32Z</time></trkpt>
<trkpt lat="37.5534156" lon="126.72331663"><ele>174.74658203125</ele><time>2025-01-04T04:38:43Z</time></trkpt>
<trkpt lat="37.55339017" lon="126.72320722"><ele>170.97747802734375</ele><time>2025-01-04T04:38:54Z</time></trkpt>
<trkpt lat="37.553371" lon="126.72309124"><ele>171.35205078125</ele><time>2025-01-04T04:39:05Z</time></trkpt>
<trkpt lat="37.55337272" lon="126.72296851"><ele>168.93798828125</ele><time>2025-01-04T04:39:17Z</time></trkpt>
<trkpt lat="37.55340466" lon="126.72285319"><ele>172.53125</ele><time>2025-01-04T04:39:26Z</time></trkpt>
<trkpt lat="37.55345103" lon="126.72274746"><ele>174.17572021484375</ele><time>2025-01-04T04:39:35Z</time></trkpt>
<trkpt lat="37.55348358" lon="126.72262631"><ele>168.0179443359375</ele><time>2025-01-04T04:39:52Z</time></trkpt>
<trkpt lat="37.55357391" lon="126.7226284"><ele>171.88580322265625</ele><time>2025-01-04T04:40:17Z</time></trkpt>
<trkpt lat="37.55363924" lon="126.72254891"><ele>169.314697265625</ele><time>2025-01-04T04:40:42Z</time></trkpt>
<trkpt lat="37.55372297" lon="126.72249875"><ele>168.937255859375</ele><time>2025-01-04T04:40:56Z</time></trkpt>
<trkpt lat="37.55377959" lon="126.72258719"><ele>165.86541748046875</ele><time>2025-01-04T04:41:33Z</time></trkpt>
<trkpt lat="37.55386319" lon="126.72254299"><ele>164.263671875</ele><time>2025-01-04T04:41:40Z</time></trkpt>
<trkpt lat="37.55394738" lon="126.7224867"><ele>166.10498046875</ele><time>2025-01-04T04:41:51Z</time></trkpt>
<trkpt lat="37.55403878" lon="126.72243389"><ele>165.5665283203125</ele><time>2025-01-04T04:42:00Z</time></trkpt>
<trkpt lat="37.55410358" lon="126.72234566"><ele>163.77813720703125</ele><time>2025-01-04T04:42:07Z</time></trkpt>
<trkpt lat="37.55414993" lon="126.72224051"><ele>165.3758544921875</ele><time>2025-01-04T04:42:14Z</time></trkpt>
<trkpt lat="37.5541355" lon="126.72211332"><ele>163.8392333984375</ele><time>2025-01-04T04:42:46Z</time></trkpt>
<trkpt lat="37.55413777" lon="126.72199856"><ele>167.13934326171875</ele><time>2025-01-04T04:42:52Z</time></trkpt>
<trkpt lat="37.55414535" lon="126.72187918"><ele>158.73455810546875</ele><time>2025-01-04T04:43:11Z</time></trkpt>
<trkpt lat="37.5542275" lon="126.72182658"><ele>160.36541748046875</ele><time>2025-01-04T04:43:24Z</time></trkpt>
<trkpt lat="37.55422213" lon="126.72171001"><ele>164.3062744140625</ele><time>2025-01-04T04:43:33Z</time></trkpt>
<trkpt lat="37.55423469" lon="126.72158867"><ele>167.83251953125</ele><time>2025-01-04T04:43:45Z</time></trkpt>
<trkpt lat="37.55421817" lon="126.72147504"><ele>168.917724609375</ele><time>2025-01-04T04:43:56Z</time></trkpt>
<trkpt lat="37.55425496" lon="126.72136487"><ele>169.70452880859375</ele><time>2025-01-04T04:44:06Z</time></trkpt>
<trkpt lat="37.55434831" lon="126.72137758"><ele>168.65087890625</ele><time>2025-01-04T04:44:33Z</time></trkpt>
<trkpt lat="37.55440456" lon="126.72147265"><ele>175.72784423828125</ele><time>2025-01-04T04:44:43Z</time></trkpt>
<trkpt lat="37.55447365" lon="126.72155089"><ele>175.56903076171875</ele><time>2025-01-04T04:44:52Z</time></trkpt>
<trkpt lat="37.55453969" lon="126.72162866"><ele>177.65985107421875</ele><time>2025-01-04T04:44:59Z</time></trkpt>
<trkpt lat="37.55464377" lon="126.72163907"><ele>179.8861083984375</ele><time>2025-01-04T04:45:07Z</time></trkpt>
<trkpt lat="37.55473277" lon="126.72159589"><ele>177.89642333984375</ele><time>2025-01-04T04:45:13Z</time></trkpt>
<trkpt lat="37.55482415" lon="126.72160277"><ele>177.18994140625</ele><time>2025-01-04T04:45:23Z</time></trkpt>
<trkpt lat="37.55490276" lon="126.72167728"><ele>177.267333984375</ele><time>2025-01-04T04:45:32Z</time></trkpt>
<trkpt lat="37.55499464" lon="126.72162168"><ele>174.3919677734375</ele><time>2025-01-04T04:45:41Z</time></trkpt>
<trkpt lat="37.55506804" lon="126.72154969"><ele>174.90496826171875</ele><time>2025-01-04T04:45:53Z</time></trkpt>
<trkpt lat="37.55513488" lon="126.72146405"><ele>174.734130859375</ele><time>2025-01-04T04:46:01Z</time></trkpt>
<trkpt lat="37.55521616" lon="126.72140159"><ele>173.70819091796875</ele><time>2025-01-04T04:46:11Z</time></trkpt>
<trkpt lat="37.55530275" lon="126.72135788"><ele>171.9093017578125</ele><time>2025-01-04T04:46:20Z</time></trkpt>
<trkpt lat="37.5553762" lon="126.7212878"><ele>169.07403564453125</ele><time>2025-01-04T04:46:30Z</time></trkpt>
<trkpt lat="37.55544054" lon="126.72119639"><ele>163.393310546875</ele><time>2025-01-04T04:46:38Z</time></trkpt>
<trkpt lat="37.55551047" lon="126.72111851"><ele>163.17626953125</ele><time>2025-01-04T04:46:45Z</time></trkpt>
<trkpt lat="37.55557235" lon="126.72101823"><ele>165.54010009765625</ele><time>2025-01-04T04:46:53Z</time></trkpt>
<trkpt lat="37.5556253" lon="126.72091709"><ele>165.018798828125</ele><time>2025-01-04T04:47:00Z</time></trkpt>
<trkpt lat="37.55562396" lon="126.72080235"><ele>164.92633056640625</ele><time>2025-01-04T04:47:07Z</time></trkpt>
<trkpt lat="37.55568995" lon="126.72072307"><ele>168.5450439453125</ele><time>2025-01-04T04:47:14Z</time></trkpt>
<trkpt lat="37.55576107" lon="126.72062607"><ele>168.0467529296875</ele><time>2025-01-04T04:47:22Z</time></trkpt>
<trkpt lat="37.55576131" lon="126.72050994"><ele>170.3331298828125</ele><time>2025-01-04T04:47:26Z</time></trkpt>
<trkpt lat="37.55579578" lon="126.72039491"><ele>173.678955078125</ele><time>2025-01-04T04:47:34Z</time></trkpt>
<trkpt lat="37.55583402" lon="126.72028928"><ele>173.25616455078125</ele><time>2025-01-04T04:47:43Z</time></trkpt>
<trkpt lat="37.55586628" lon="126.72017425"><ele>172.0599365234375</ele><time>2025-01-04T04:47:52Z</time></trkpt>
<trkpt lat="37.55592253" lon="126.72006689"><ele>173.98797607421875</ele><time>2025-01-04T04:48:01Z</time></trkpt>
<trkpt lat="37.55598619" lon="126.71998006"><ele>172.82415771484375</ele><time>2025-01-04T04:48:10Z</time></trkpt>
<trkpt lat="37.55603452" lon="126.71986752"><ele>173.18963623046875</ele><time>2025-01-04T04:48:18Z</time></trkpt>
<trkpt lat="37.55609947" lon="126.7197833"><ele>172.56964111328125</ele><time>2025-01-04T04:48:26Z</time></trkpt>
<trkpt lat="37.55618808" lon="126.71984023"><ele>172.0108642578125</ele><time>2025-01-04T04:48:54Z</time></trkpt>
<trkpt lat="37.55625971" lon="126.71974025"><ele>171.96331787109375</ele><time>2025-01-04T04:49:01Z</time></trkpt>
<trkpt lat="37.55632067" lon="126.71964097"><ele>171.0281982421875</ele><time>2025-01-04T04:49:09Z</time></trkpt>
<trkpt lat="37.55635216" lon="126.71952609"><ele>173.2191162109375</ele><time>2025-01-04T04:49:16Z</time></trkpt>
<trkpt lat="37.55644129" lon="126.71948971"><ele>169.057861328125</ele><time>2025-01-04T04:49:31Z</time></trkpt>
<trkpt lat="37.55650375" lon="126.71939999"><ele>168.03173828125</ele><time>2025-01-04T04:49:41Z</time></trkpt>
<trkpt lat="37.5565927" lon="126.71935384"><ele>166.304443359375</ele><time>2025-01-04T04:50:28Z</time></trkpt>
<trkpt lat="37.55668365" lon="126.71934634"><ele>159.0867919921875</ele><time>2025-01-04T04:50:39Z</time></trkpt>
<trkpt lat="37.55673815" lon="126.71924765"><ele>167.2960205078125</ele><time>2025-01-04T04:50:51Z</time></trkpt>
<trkpt lat="37.55679977" lon="126.71915367"><ele>168.33282470703125</ele><time>2025-01-04T04:51:01Z</time></trkpt>
<trkpt lat="37.55686869" lon="126.71907891"><ele>166.71405029296875</ele><time>2025-01-04T04:51:10Z</time></trkpt>
<trkpt lat="37.55693601" lon="126.71898263"><ele>169.49267578125</ele><time>2025-01-04T04:51:19Z</time></trkpt>
<trkpt lat="37.55699002" lon="126.71888895"><ele>170.07147216796875</ele><time>2025-01-04T04:51:27Z</time></trkpt>
<trkpt lat="37.55702597" lon="126.71877572"><ele>170.9967041015625</ele><time>2025-01-04T04:51:36Z</time></trkpt>
<trkpt lat="37.55706662" lon="126.71866585"><ele>170.91314697265625</ele><time>2025-01-04T04:51:45Z</time></trkpt>
<trkpt lat="37.55712961" lon="126.71857908"><ele>168.5516357421875</ele><time>2025-01-04T04:51:55Z</time></trkpt>
<trkpt lat="37.55720913" lon="126.71850294"><ele>170.127685546875</ele><time>2025-01-04T04:52:05Z</time></trkpt>
<trkpt lat="37.55727179" lon="126.71841648"><ele>169.4925537109375</ele><time>2025-01-04T04:52:14Z</time></trkpt>
<trkpt lat="37.55734468" lon="126.71833309"><ele>168.19482421875</ele><time>2025-01-04T04:52:24Z</time></trkpt>
<trkpt lat="37.55743312" lon="126.71828554"><ele>164.58062744140625</ele><time>2025-01-04T04:52:36Z</time></trkpt>
<trkpt lat="37.55751288" lon="126.7182313"><ele>165.84149169921875</ele><time>2025-01-04T04:52:46Z</time></trkpt>
<trkpt lat="37.5576048" lon="126.7182144"><ele>160.14678955078125</ele><time>2025-01-04T04:52:58Z</time></trkpt>
<trkpt lat="37.55765209" lon="126.71810474"><ele>156.24908447265625</ele><time>2025-01-04T04:53:10Z</time></trkpt>
<trkpt lat="37.55774789" lon="126.71808278"><ele>159.431396484375</ele><time>2025-01-04T04:53:38Z</time></trkpt>
<trkpt lat="37.55781942" lon="126.71800642"><ele>158.4505615234375</ele><time>2025-01-04T04:53:50Z</time></trkpt>
<trkpt lat="37.55778935" lon="126.71788959"><ele>159.3134765625</ele><time>2025-01-04T04:53:58Z</time></trkpt>
<trkpt lat="37.55785159" lon="126.7178"><ele>159.8643798828125</ele><time>2025-01-04T04:54:09Z</time></trkpt>
<trkpt lat="37.55794897" lon="126.71777869"><ele>159.6661376953125</ele><time>2025-01-04T04:54:17Z</time></trkpt>
<trkpt lat="37.55803111" lon="126.71771888"><ele>159.73211669921875</ele><time>2025-01-04T04:54:27Z</time></trkpt>
<trkpt lat="37.5580665" lon="126.71760067"><ele>158.984130859375</ele><time>2025-01-04T04:54:36Z</time></trkpt>
<trkpt lat="37.55812758" lon="126.71751179"><ele>157.37225341796875</ele><time>2025-01-04T04:54:44Z</time></trkpt>
<trkpt lat="37.55818734" lon="126.71741853"><ele>159.9844970703125</ele><time>2025-01-04T04:54:54Z</time></trkpt>
<trkpt lat="37.5582543" lon="126.71732256"><ele>160.11773681640625</ele><time>2025-01-04T04:55:04Z</time></trkpt>
<trkpt lat="37.55833101" lon="126.71726016"><ele>162.7449951171875</ele><time>2025-01-04T04:55:13Z</time></trkpt>
<trkpt lat="37.55838535" lon="126.71715778"><ele>162.7469482421875</ele><time>2025-01-04T04:55:23Z</time></trkpt>
<trkpt lat="37.55842219" lon="126.71704871"><ele>161.3648681640625</ele><time>2025-01-04T04:55:33Z</time></trkpt>
<trkpt lat="37.55847392" lon="126.71695324"><ele>162.83795166015625</ele><time>2025-01-04T04:55:42Z</time></trkpt>
<trkpt lat="37.55849167" lon="126.71683005"><ele>161.2864990234375</ele><time>2025-01-04T04:55:53Z</time></trkpt>
<trkpt lat="37.55854164" lon="126.7167232"><ele>160.8482666015625</ele><time>2025-01-04T04:56:02Z</time></trkpt>
<trkpt lat="37.55857879" lon="126.716616"><ele>161.702880859375</ele><time>2025-01-04T04:56:11Z</time></trkpt>
<trkpt lat="37.55865276" lon="126.71653842"><ele>159.60980224609375</ele><time>2025-01-04T04:56:20Z</time></trkpt>
<trkpt lat="37.55871264" lon="126.71644392"><ele>160.44964599609375</ele><time>2025-01-04T04:56:31Z</time></trkpt>
<trkpt lat="37.55879826" lon="126.71640772"><ele>160.1417236328125</ele><time>2025-01-04T04:57:04Z</time></trkpt>
<trkpt lat="37.55878487" lon="126.71628339"><ele>163.576171875</ele><time>2025-01-04T04:57:29Z</time></trkpt>
<trkpt lat="37.55886591" lon="126.71622604"><ele>168.82464599609375</ele><time>2025-01-04T04:57:44Z</time></trkpt>
<trkpt lat="37.55892634" lon="126.71613392"><ele>166.9820556640625</ele><time>2025-01-04T04:57:57Z</time></trkpt>
<trkpt lat="37.55898775" lon="126.71604149"><ele>166.864990234375</ele><time>2025-01-04T04:58:09Z</time></trkpt>
<trkpt lat="37.55895742" lon="126.71593415"><ele>167.5421142578125</ele><time>2025-01-04T04:58:16Z</time></trkpt>
<trkpt lat="37.55890154" lon="126.71584492"><ele>169.1751708984375</ele><time>2025-01-04T04:58:55Z</time></trkpt>
<trkpt lat="37.55885975" lon="126.71573895"><ele>168.74462890625</ele><time>2025-01-04T04:59:03Z</time></trkpt>
<trkpt lat="37.55878483" lon="126.71566694"><ele>170.4376220703125</ele><time>2025-01-04T04:59:13Z</time></trkpt>
<trkpt lat="37.55874414" lon="126.71555983"><ele>173.01171875</ele><time>2025-01-04T04:59:23Z</time></trkpt>
<trkpt lat="37.55876143" lon="126.71544682"><ele>175.070068359375</ele><time>2025-01-04T04:59:33Z</time></trkpt>
<trkpt lat="37.55876947" lon="126.71533175"><ele>174.04913330078125</ele><time>2025-01-04T04:59:43Z</time></trkpt>
<trkpt lat="37.55879129" lon="126.71521856"><ele>175.510986328125</ele><time>2025-01-04T04:59:54Z</time></trkpt>
<trkpt lat="37.55879506" lon="126.71510301"><ele>177.349853515625</ele><time>2025-01-04T05:00:07Z</time></trkpt>
<trkpt lat="37.5587823" lon="126.71498935"><ele>178.023193359375</ele><time>2025-01-04T05:00:18Z</time></trkpt>
<trkpt lat="37.55877627" lon="126.7148689"><ele>177.74169921875</ele><time>2025-01-04T05:00:29Z</time></trkpt>
<trkpt lat="37.55877189" lon="126.71474955"><ele>179.89459228515625</ele><time>2025-01-04T05:00:39Z</time></trkpt>
<trkpt lat="37.55873" lon="126.71464486"><ele>182.2158203125</ele><time>2025-01-04T05:00:51Z</time></trkpt>
<trkpt lat="37.55870769" lon="126.71453451"><ele>184.83050537109375</ele><time>2025-01-04T05:01:02Z</time></trkpt>
<trkpt lat="37.55871113" lon="126.71440526"><ele>183.5689697265625</ele><time>2025-01-04T05:01:30Z</time></trkpt>
<trkpt lat="37.55866588" lon="126.71429997"><ele>185.3148193359375</ele><time>2025-01-04T05:01:37Z</time></trkpt>
<trkpt lat="37.5586259" lon="126.71418237"><ele>188.848388671875</ele><time>2025-01-04T05:01:47Z</time></trkpt>
<trkpt lat="37.55860831" lon="126.71406614"><ele>192.79803466796875</ele><time>2025-01-04T05:01:57Z</time></trkpt>
<trkpt lat="37.55860722" lon="126.71394511"><ele>192.0919189453125</ele><time>2025-01-04T05:02:10Z</time></trkpt>
<trkpt lat="37.55860924" lon="126.71383133"><ele>191.7520751953125</ele><time>2025-01-04T05:02:21Z</time></trkpt>
<trkpt lat="37.5585902" lon="126.71371497"><ele>192.3424072265625</ele><time>2025-01-04T05:02:31Z</time></trkpt>
<trkpt lat="37.55856741" lon="126.71359745"><ele>193.4608154296875</ele><time>2025-01-04T05:02:41Z</time></trkpt>
<trkpt lat="37.55852829" lon="126.7134882"><ele>195.18731689453125</ele><time>2025-01-04T05:02:53Z</time></trkpt>
<trkpt lat="37.55846894" lon="126.71340007"><ele>195.2589111328125</ele><time>2025-01-04T05:03:03Z</time></trkpt>
<trkpt lat="37.55841292" lon="126.71330159"><ele>194.5509033203125</ele><time>2025-01-04T05:03:19Z</time></trkpt>
<trkpt lat="37.55832251" lon="126.71325729"><ele>193.89947509765625</ele><time>2025-01-04T05:03:28Z</time></trkpt>
<trkpt lat="37.55822851" lon="126.71324178"><ele>198.93878173828125</ele><time>2025-01-04T05:03:39Z</time></trkpt>
<trkpt lat="37.55821768" lon="126.7131179"><ele>200.9638671875</ele><time>2025-01-04T05:03:50Z</time></trkpt>
<trkpt lat="37.55829441" lon="126.71305293"><ele>197.0985107421875</ele><time>2025-01-04T05:04:01Z</time></trkpt>
<trkpt lat="37.55829627" lon="126.71293446"><ele>199.342529296875</ele><time>2025-01-04T05:04:14Z</time></trkpt>
<trkpt lat="37.55826862" lon="126.71282282"><ele>196.76434326171875</ele><time>2025-01-04T05:04:24Z</time></trkpt>
<trkpt lat="37.5582699" lon="126.71270823"><ele>197.328125</ele><time>2025-01-04T05:04:33Z</time></trkpt>
<trkpt lat="37.55816736" lon="126.71264649"><ele>196.01251220703125</ele><time>2025-01-04T05:04:45Z</time></trkpt>
<trkpt lat="37.55813609" lon="126.71251888"><ele>199.8466796875</ele><time>2025-01-04T05:04:51Z</time></trkpt>
<trkpt lat="37.55805264" lon="126.71246301"><ele>200.67425537109375</ele><time>2025-01-04T05:04:58Z</time></trkpt>
<trkpt lat="37.55796298" lon="126.71242997"><ele>202.2271728515625</ele><time>2025-01-04T05:05:07Z</time></trkpt>
<trkpt lat="37.55787636" lon="126.71236961"><ele>203.4049072265625</ele><time>2025-01-04T05:05:16Z</time></trkpt>
<trkpt lat="37.55779763" lon="126.71229274"><ele>204.0230712890625</ele><time>2025-01-04T05:05:25Z</time></trkpt>
<trkpt lat="37.55773149" lon="126.71220495"><ele>200.11065673828125</ele><time>2025-01-04T05:05:35Z</time></trkpt>
<trkpt lat="37.55766593" lon="126.71212508"><ele>199.98779296875</ele><time>2025-01-04T05:05:43Z</time></trkpt>
<trkpt lat="37.55763033" lon="126.71202082"><ele>198.939697265625</ele><time>2025-01-04T05:05:52Z</time></trkpt>
<trkpt lat="37.55762696" lon="126.71190175"><ele>196.8974609375</ele><time>2025-01-04T05:06:02Z</time></trkpt>
<trkpt lat="37.55764121" lon="126.71177882"><ele>198.8466796875</ele><time>2025-01-04T05:06:11Z</time></trkpt>
<trkpt lat="37.55766994" lon="126.71166766"><ele>201.30596923828125</ele><time>2025-01-04T05:06:19Z</time></trkpt>
<trkpt lat="37.55772532" lon="126.71157064"><ele>201.04461669921875</ele><time>2025-01-04T05:06:28Z</time></trkpt>
<trkpt lat="37.55779313" lon="126.71148929"><ele>199.6915283203125</ele><time>2025-01-04T05:06:37Z</time></trkpt>
<trkpt lat="37.55784125" lon="126.71138549"><ele>197.072998046875</ele><time>2025-01-04T05:06:46Z</time></trkpt>
<trkpt lat="37.55787563" lon="126.7112697"><ele>197.75152587890625</ele><time>2025-01-04T05:06:55Z</time></trkpt>
<trkpt lat="37.55790129" lon="126.71115851"><ele>199.42132568359375</ele><time>2025-01-04T05:07:03Z</time></trkpt>
<trkpt lat="37.55792176" lon="126.71104632"><ele>201.498046875</ele><time>2025-01-04T05:07:13Z</time></trkpt>
<trkpt lat="37.5579135" lon="126.71092503"><ele>203.674072265625</ele><time>2025-01-04T05:07:25Z</time></trkpt>
<trkpt lat="37.55786785" lon="126.7108165"><ele>202.6973876953125</ele><time>2025-01-04T05:07:37Z</time></trkpt>
<trkpt lat="37.5577721" lon="126.71079445"><ele>204.14569091796875</ele><time>2025-01-04T05:07:46Z</time></trkpt>
<trkpt lat="37.55768019" lon="126.71079857"><ele>203.82379150390625</ele><time>2025-01-04T05:07:55Z</time></trkpt>
<trkpt lat="37.5575891" lon="126.71080166"><ele>203.96002197265625</ele><time>2025-01-04T05:08:03Z</time></trkpt>
<trkpt lat="37.55749099" lon="126.71078661"><ele>205.46795654296875</ele><time>2025-01-04T05:08:11Z</time></trkpt>
<trkpt lat="37.55740115" lon="126.71077273"><ele>205.00592041015625</ele><time>2025-01-04T05:08:21Z</time></trkpt>
<trkpt lat="37.55731049" lon="126.7107694"><ele>201.132568359375</ele><time>2025-01-04T05:08:32Z</time></trkpt>
<trkpt lat="37.5572235" lon="126.71073176"><ele>201.12158203125</ele><time>2025-01-04T05:08:41Z</time></trkpt>
<trkpt lat="37.55712904" lon="126.71071824"><ele>201.004150390625</ele><time>2025-01-04T05:08:51Z</time></trkpt>
<trkpt lat="37.55704373" lon="126.71067173"><ele>195.26123046875</ele><time>2025-01-04T05:09:01Z</time></trkpt>
<trkpt lat="37.55703136" lon="126.71055602"><ele>195.002197265625</ele><time>2025-01-04T05:09:10Z</time></trkpt>
<trkpt lat="37.55702864" lon="126.71044148"><ele>199.919677734375</ele><time>2025-01-04T05:09:47Z</time></trkpt>
<trkpt lat="37.5570461" lon="126.71032793"><ele>201.1903076171875</ele><time>2025-01-04T05:10:00Z</time></trkpt>
<trkpt lat="37.55708161" lon="126.71022016"><ele>203.27130126953125</ele><time>2025-01-04T05:10:12Z</time></trkpt>
<trkpt lat="37.55707664" lon="126.71010508"><ele>205.63861083984375</ele><time>2025-01-04T05:10:25Z</time></trkpt>
<trkpt lat="37.55710359" lon="126.70999051"><ele>204.767578125</ele><time>2025-01-04T05:10:41Z</time></trkpt>
<trkpt lat="37.55709001" lon="126.70987826"><ele>208.13525390625</ele><time>2025-01-04T05:10:52Z</time></trkpt>
<trkpt lat="37.55704132" lon="126.70977392"><ele>207.0755615234375</ele><time>2025-01-04T05:11:04Z</time></trkpt>
<trkpt lat="37.55698395" lon="126.70968461"><ele>207.43072509765625</ele><time>2025-01-04T05:11:13Z</time></trkpt>
<trkpt lat="37.5569072" lon="126.70961282"><ele>205.334228515625</ele><time>2025-01-04T05:11:26Z</time></trkpt>
<trkpt lat="37.55684319" lon="126.70953127"><ele>206.1796875</ele><time>2025-01-04T05:11:36Z</time></trkpt>
<trkpt lat="37.55676344" lon="126.70947749"><ele>206.9256591796875</ele><time>2025-01-04T05:11:46Z</time></trkpt>
<trkpt lat="37.5566874" lon="126.7094064"><ele>206.4971923828125</ele><time>2025-01-04T05:11:56Z</time></trkpt>
<trkpt lat="37.55661214" lon="126.70933512"><ele>205.1849365234375</ele><time>2025-01-04T05:12:05Z</time></trkpt>
<trkpt lat="37.55654218" lon="126.70926159"><ele>204.66204833984375</ele><time>2025-01-04T05:12:15Z</time></trkpt>
<trkpt lat="37.55648092" lon="126.70917353"><ele>205.70196533203125</ele><time>2025-01-04T05:12:25Z</time></trkpt>
<trkpt lat="37.55639744" lon="126.70910954"><ele>206.65814208984375</ele><time>2025-01-04T05:12:36Z</time></trkpt>
<trkpt lat="37.55632147" lon="126.70904107"><ele>204.86199951171875</ele><time>2025-01-04T05:12:48Z</time></trkpt>
<trkpt lat="37.55622115" lon="126.70901607"><ele>204.6544189453125</ele><time>2025-01-04T05:13:04Z</time></trkpt>
<trkpt lat="37.55616029" lon="126.70892417"><ele>200.848388671875</ele><time>2025-01-04T05:13:12Z</time></trkpt>
<trkpt lat="37.55616852" lon="126.70880163"><ele>203.38092041015625</ele><time>2025-01-04T05:13:20Z</time></trkpt>
<trkpt lat="37.55620694" lon="126.70869576"><ele>205.91162109375</ele><time>2025-01-04T05:13:30Z</time></trkpt>
<trkpt lat="37.5562551" lon="126.7085979"><ele>205.01904296875</ele><time>2025-01-04T05:13:50Z</time></trkpt>
<trkpt lat="37.55622664" lon="126.70848512"><ele>209.6751708984375</ele><time>2025-01-04T05:13:58Z</time></trkpt>
<trkpt lat="37.5562255" lon="126.70835784"><ele>210.3837890625</ele><time>2025-01-04T05:14:09Z</time></trkpt>
<trkpt lat="37.55622866" lon="126.70823703"><ele>209.57318115234375</ele><time>2025-01-04T05:14:18Z</time></trkpt>
<trkpt lat="37.55624287" lon="126.7081246"><ele>207.1610107421875</ele><time>2025-01-04T05:14:28Z</time></trkpt>
<trkpt lat="37.55626758" lon="126.70800867"><ele>208.11712646484375</ele><time>2025-01-04T05:14:36Z</time></trkpt>
<trkpt lat="37.55628262" lon="126.70788938"><ele>209.8140869140625</ele><time>2025-01-04T05:14:44Z</time></trkpt>
<trkpt lat="37.55629443" lon="126.70777662"><ele>208.9385986328125</ele><time>2025-01-04T05:14:53Z</time></trkpt>
<trkpt lat="37.55632567" lon="126.70766807"><ele>205.90740966796875</ele><time>2025-01-04T05:15:12Z</time></trkpt>
<trkpt lat="37.55628575" lon="126.70755794"><ele>205.35894775390625</ele><time>2025-01-04T05:15:56Z</time></trkpt>
<trkpt lat="37.55619316" lon="126.70754697"><ele>206.0096435546875</ele><time>2025-01-04T05:16:04Z</time></trkpt>
<trkpt lat="37.55609876" lon="126.70756848"><ele>208.14495849609375</ele><time>2025-01-04T05:16:09Z</time></trkpt>
<trkpt lat="37.5560139" lon="126.70752626"><ele>208.13641357421875</ele><time>2025-01-04T05:16:31Z</time></trkpt>
<trkpt lat="37.55594642" lon="126.70743392"><ele>209.2685546875</ele><time>2025-01-04T05:16:37Z</time></trkpt>
<trkpt lat="37.55585525" lon="126.70743835"><ele>210.61614990234375</ele><time>2025-01-04T05:16:45Z</time></trkpt>
<trkpt lat="37.55576469" lon="126.70740411"><ele>212.69189453125</ele><time>2025-01-04T05:16:54Z</time></trkpt>
<trkpt lat="37.5556731" lon="126.70744307"><ele>210.125244140625</ele><time>2025-01-04T05:17:02Z</time></trkpt>
<trkpt lat="37.55557824" lon="126.7074446"><ele>209.74468994140625</ele><time>2025-01-04T05:17:10Z</time></trkpt>
<trkpt lat="37.55548753" lon="126.70740029"><ele>209.0091552734375</ele><time>2025-01-04T05:17:19Z</time></trkpt>
<trkpt lat="37.55538568" lon="126.70741162"><ele>207.5540771484375</ele><time>2025-01-04T05:17:28Z</time></trkpt>
<trkpt lat="37.5553022" lon="126.70747277"><ele>209.70648193359375</ele><time>2025-01-04T05:17:37Z</time></trkpt>
<trkpt lat="37.55521318" lon="126.70751846"><ele>212.02838134765625</ele><time>2025-01-04T05:17:49Z</time></trkpt>
<trkpt lat="37.55512345" lon="126.70753335"><ele>213.3726806640625</ele><time>2025-01-04T05:17:58Z</time></trkpt>
<trkpt lat="37.55503423" lon="126.70756741"><ele>215.7620849609375</ele><time>2025-01-04T05:18:09Z</time></trkpt>
<trkpt lat="37.55493696" lon="126.707559"><ele>214.8956298828125</ele><time>2025-01-04T05:18:45Z</time></trkpt>
<trkpt lat="37.55484183" lon="126.70753143"><ele>215.99383544921875</ele><time>2025-01-04T05:18:55Z</time></trkpt>
<trkpt lat="37.55483698" lon="126.70764445"><ele>202.3916015625</ele><time>2025-01-04T05:19:05Z</time></trkpt>
<trkpt lat="37.55475259" lon="126.70768794"><ele>204.0279541015625</ele><time>2025-01-04T05:19:12Z</time></trkpt>
<trkpt lat="37.55466348" lon="126.70762892"><ele>197.36083984375</ele><time>2025-01-04T05:19:19Z</time></trkpt>
<trkpt lat="37.55459497" lon="126.70754287"><ele>198.79705810546875</ele><time>2025-01-04T05:19:26Z</time></trkpt>
<trkpt lat="37.5545118" lon="126.70748706"><ele>204.7520751953125</ele><time>2025-01-04T05:19:33Z</time></trkpt>
<trkpt lat="37.55443823" lon="126.70740517"><ele>205.205810546875</ele><time>2025-01-04T05:19:42Z</time></trkpt>
<trkpt lat="37.55439694" lon="126.70729851"><ele>203.09539794921875</ele><time>2025-01-04T05:19:50Z</time></trkpt>
<trkpt lat="37.55433424" lon="126.70720389"><ele>203.803466796875</ele><time>2025-01-04T05:19:59Z</time></trkpt>
<trkpt lat="37.5542412" lon="126.70716597"><ele>204.53704833984375</ele><time>2025-01-04T05:20:08Z</time></trkpt>
<trkpt lat="37.55414925" lon="126.70716105"><ele>206.88775634765625</ele><time>2025-01-04T05:20:16Z</time></trkpt>
<trkpt lat="37.55405482" lon="126.70719031"><ele>206.3988037109375</ele><time>2025-01-04T05:20:25Z</time></trkpt>
<trkpt lat="37.55396393" lon="126.70723826"><ele>205.18743896484375</ele><time>2025-01-04T05:20:34Z</time></trkpt>
<trkpt lat="37.55387744" lon="126.7072782"><ele>205.54449462890625</ele><time>2025-01-04T05:20:42Z</time></trkpt>
<trkpt lat="37.55380283" lon="126.7073441"><ele>204.488037109375</ele><time>2025-01-04T05:20:51Z</time></trkpt>
<trkpt lat="37.5537128" lon="126.70739548"><ele>204.0145263671875</ele><time>2025-01-04T05:21:00Z</time></trkpt>
<trkpt lat="37.55362892" lon="126.70743836"><ele>200.21490478515625</ele><time>2025-01-04T05:21:08Z</time></trkpt>
<trkpt lat="37.5535337" lon="126.70745185"><ele>194.71917724609375</ele><time>2025-01-04T05:21:17Z</time></trkpt>
<trkpt lat="37.55347589" lon="126.70736412"><ele>188.5418701171875</ele><time>2025-01-04T05:21:29Z</time></trkpt>
<trkpt lat="37.55337677" lon="126.70736334"><ele>188.8624267578125</ele><time>2025-01-04T05:21:56Z</time></trkpt>
<trkpt lat="37.55332734" lon="126.70725866"><ele>193.95306396484375</ele><time>2025-01-04T05:22:03Z</time></trkpt>
<trkpt lat="37.55326438" lon="126.70717299"><ele>197.20703125</ele><time>2025-01-04T05:22:11Z</time></trkpt>
<trkpt lat="37.55319292" lon="126.70709854"><ele>195.95733642578125</ele><time>2025-01-04T05:22:23Z</time></trkpt>
<trkpt lat="37.55319193" lon="126.706978"><ele>194.78173828125</ele><time>2025-01-04T05:22:37Z</time></trkpt>
<trkpt lat="37.55313026" lon="126.70688617"><ele>197.41656494140625</ele><time>2025-01-04T05:22:43Z</time></trkpt>
<trkpt lat="37.55304938" lon="126.70683035"><ele>200.08624267578125</ele><time>2025-01-04T05:22:55Z</time></trkpt>
<trkpt lat="37.55295603" lon="126.70679651"><ele>203.2406005859375</ele><time>2025-01-04T05:23:04Z</time></trkpt>
<trkpt lat="37.55287951" lon="126.70673256"><ele>200.509765625</ele><time>2025-01-04T05:23:13Z</time></trkpt>
<trkpt lat="37.55279402" lon="126.70669415"><ele>205.92041015625</ele><time>2025-01-04T05:23:22Z</time></trkpt>
<trkpt lat="37.5527168" lon="126.70661688"><ele>207.9886474609375</ele><time>2025-01-04T05:23:32Z</time></trkpt>
<trkpt lat="37.55262662" lon="126.70656582"><ele>209.68206787109375</ele><time>2025-01-04T05:23:42Z</time></trkpt>
<trkpt lat="37.55253779" lon="126.70653846"><ele>210.52203369140625</ele><time>2025-01-04T05:23:51Z</time></trkpt>
<trkpt lat="37.5524484" lon="126.70657551"><ele>211.3082275390625</ele><time>2025-01-04T05:24:00Z</time></trkpt>
<trkpt lat="37.55235608" lon="126.70661313"><ele>211.931396484375</ele><time>2025-01-04T05:24:11Z</time></trkpt>
<trkpt lat="37.55226496" lon="126.70661939"><ele>213.4820556640625</ele><time>2025-01-04T05:24:21Z</time></trkpt>
<trkpt lat="37.55217084" lon="126.70658416"><ele>214.01025390625</ele><time>2025-01-04T05:24:31Z</time></trkpt>
<trkpt lat="37.55207729" lon="126.70661606"><ele>210.36724853515625</ele><time>2025-01-04T05:25:11Z</time></trkpt>
<trkpt lat="37.55197701" lon="126.7065915"><ele>210.9525146484375</ele><time>2025-01-04T05:25:25Z</time></trkpt>
<trkpt lat="37.55188561" lon="126.70655514"><ele>212.77911376953125</ele><time>2025-01-04T05:25:33Z</time></trkpt>
<trkpt lat="37.551786" lon="126.70656267"><ele>212.6702880859375</ele><time>2025-01-04T05:26:02Z</time></trkpt>
<trkpt lat="37.55168893" lon="126.70655215"><ele>216.0987548828125</ele><time>2025-01-04T05:26:12Z</time></trkpt>
<trkpt lat="37.55159268" lon="126.70653041"><ele>218.37274169921875</ele><time>2025-01-04T05:26:20Z</time></trkpt>
<trkpt lat="37.55151185" lon="126.70646028"><ele>217.921875</ele><time>2025-01-04T05:26:29Z</time></trkpt>
<trkpt lat="37.55145375" lon="126.70636488"><ele>218.1343994140625</ele><time>2025-01-04T05:26:37Z</time></trkpt>
<trkpt lat="37.55136852" lon="126.70630881"><ele>220.91607666015625</ele><time>2025-01-04T05:26:45Z</time></trkpt>
<trkpt lat="37.55127802" lon="126.70630117"><ele>222.8634033203125</ele><time>2025-01-04T05:26:55Z</time></trkpt>
<trkpt lat="37.55118692" lon="126.70630126"><ele>217.9302978515625</ele><time>2025-01-04T05:28:59Z</time></trkpt>
<trkpt lat="37.55110093" lon="126.70634426"><ele>215.944091796875</ele><time>2025-01-04T05:29:10Z</time></trkpt>
<trkpt lat="37.55103136" lon="126.70641999"><ele>213.6490478515625</ele><time>2025-01-04T05:29:20Z</time></trkpt>
<trkpt lat="37.5509429" lon="126.70646759"><ele>212.3243408203125</ele><time>2025-01-04T05:29:30Z</time></trkpt>
<trkpt lat="37.55085037" lon="126.70648001"><ele>211.7200927734375</ele><time>2025-01-04T05:29:39Z</time></trkpt>
<trkpt lat="37.55075899" lon="126.7064915"><ele>209.48785400390625</ele><time>2025-01-04T05:29:49Z</time></trkpt>
<trkpt lat="37.55066833" lon="126.70650265"><ele>206.7298583984375</ele><time>2025-01-04T05:30:00Z</time></trkpt>
<trkpt lat="37.55057728" lon="126.70646613"><ele>203.73492431640625</ele><time>2025-01-04T05:30:12Z</time></trkpt>
<trkpt lat="37.55048232" lon="126.70648579"><ele>204.4942626953125</ele><time>2025-01-04T05:30:24Z</time></trkpt>
<trkpt lat="37.55040383" lon="126.7064255"><ele>202.133056640625</ele><time>2025-01-04T05:30:38Z</time></trkpt>
<trkpt lat="37.55033166" lon="126.70650376"><ele>199.73724365234375</ele><time>2025-01-04T05:30:50Z</time></trkpt>
<trkpt lat="37.5503023" lon="126.70661116"><ele>193.83856201171875</ele><time>2025-01-04T05:31:26Z</time></trkpt>
<trkpt lat="37.55020637" lon="126.70664478"><ele>195.7789306640625</ele><time>2025-01-04T05:31:34Z</time></trkpt>
<trkpt lat="37.55018582" lon="126.70676289"><ele>183.8309326171875</ele><time>2025-01-04T05:32:31Z</time></trkpt>
<trkpt lat="37.55015313" lon="126.70687523"><ele>183.73028564453125</ele><time>2025-01-04T05:32:41Z</time></trkpt>
<trkpt lat="37.55005841" lon="126.70689492"><ele>180.3121337890625</ele><time>2025-01-04T05:32:54Z</time></trkpt>
<trkpt lat="37.54996991" lon="126.706869"><ele>180.293212890625</ele><time>2025-01-04T05:33:03Z</time></trkpt>
<trkpt lat="37.54988393" lon="126.70682018"><ele>177.00335693359375</ele><time>2025-01-04T05:33:29Z</time></trkpt>
<trkpt lat="37.54979057" lon="126.70681698"><ele>174.62542724609375</ele><time>2025-01-04T05:33:39Z</time></trkpt>
<trkpt lat="37.54969214" lon="126.70680345"><ele>173.133544921875</ele><time>2025-01-04T05:33:50Z</time></trkpt>
<trkpt lat="37.54959557" lon="126.70680652"><ele>174.10302734375</ele><time>2025-01-04T05:34:00Z</time></trkpt>
<trkpt lat="37.54950056" lon="126.70679045"><ele>172.228515625</ele><time>2025-01-04T05:34:10Z</time></trkpt>
<trkpt lat="37.54940154" lon="126.70676027"><ele>170.39617919921875</ele><time>2025-01-04T05:34:19Z</time></trkpt>
<trkpt lat="37.54930048" lon="126.70676855"><ele>168.8372802734375</ele><time>2025-01-04T05:34:28Z</time></trkpt>
<trkpt lat="37.54920303" lon="126.70680331"><ele>168.7962646484375</ele><time>2025-01-04T05:34:36Z</time></trkpt>
<trkpt lat="37.5491105" lon="126.70683348"><ele>170.28680419921875</ele><time>2025-01-04T05:34:44Z</time></trkpt>
<trkpt lat="37.54901641" lon="126.70684556"><ele>169.6812744140625</ele><time>2025-01-04T05:34:52Z</time></trkpt>
<trkpt lat="37.54892532" lon="126.70684789"><ele>168.3446044921875</ele><time>2025-01-04T05:35:00Z</time></trkpt>
<trkpt lat="37.54883104" lon="126.70684381"><ele>169.12359619140625</ele><time>2025-01-04T05:35:09Z</time></trkpt>
<trkpt lat="37.54874111" lon="126.70688766"><ele>167.4647216796875</ele><time>2025-01-04T05:35:19Z</time></trkpt>
<trkpt lat="37.54867936" lon="126.70697246"><ele>162.47674560546875</ele><time>2025-01-04T05:35:49Z</time></trkpt>
<trkpt lat="37.54861677" lon="126.70706252"><ele>162.91229248046875</ele><time>2025-01-04T05:36:00Z</time></trkpt>
<trkpt lat="37.54854561" lon="126.70713666"><ele>156.717041015625</ele><time>2025-01-04T05:36:09Z</time></trkpt>
<trkpt lat="37.54848126" lon="126.70722222"><ele>157.0762939453125</ele><time>2025-01-04T05:36:18Z</time></trkpt>
<trkpt lat="37.54844698" lon="126.70733782"><ele>156.23291015625</ele><time>2025-01-04T05:36:28Z</time></trkpt>
<trkpt lat="37.54838887" lon="126.70743288"><ele>156.11322021484375</ele><time>2025-01-04T05:36:38Z</time></trkpt>
<trkpt lat="37.5483168" lon="126.70752051"><ele>156.0113525390625</ele><time>2025-01-04T05:36:48Z</time></trkpt>
<trkpt lat="37.54823883" lon="126.70758915"><ele>155.84954833984375</ele><time>2025-01-04T05:36:57Z</time></trkpt>
<trkpt lat="37.54819031" lon="126.70769411"><ele>155.68609619140625</ele><time>2025-01-04T05:37:06Z</time></trkpt>
<trkpt lat="37.54814715" lon="126.70779633"><ele>161.5606689453125</ele><time>2025-01-04T05:37:14Z</time></trkpt>
<trkpt lat="37.54806868" lon="126.70786916"><ele>160.902099609375</ele><time>2025-01-04T05:37:23Z</time></trkpt>
<trkpt lat="37.5479965" lon="126.70793778"><ele>160.863525390625</ele><time>2025-01-04T05:37:32Z</time></trkpt>
<trkpt lat="37.5479332" lon="126.70802625"><ele>160.600830078125</ele><time>2025-01-04T05:37:42Z</time></trkpt>
<trkpt lat="37.54788564" lon="126.70813597"><ele>162.07940673828125</ele><time>2025-01-04T05:37:53Z</time></trkpt>
<trkpt lat="37.54787835" lon="126.70825742"><ele>158.29266357421875</ele><time>2025-01-04T05:38:06Z</time></trkpt>
<trkpt lat="37.5478832" lon="126.70837754"><ele>151.30487060546875</ele><time>2025-01-04T05:39:01Z</time></trkpt>
<trkpt lat="37.54786276" lon="126.70849987"><ele>149.11474609375</ele><time>2025-01-04T05:39:34Z</time></trkpt>
<trkpt lat="37.5477995" lon="126.70859454"><ele>149.2718505859375</ele><time>2025-01-04T05:39:42Z</time></trkpt>
<trkpt lat="37.547715" lon="126.70864841"><ele>146.76513671875</ele><time>2025-01-04T05:39:50Z</time></trkpt>
<trkpt lat="37.54764914" lon="126.70873841"><ele>145.19879150390625</ele><time>2025-01-04T05:39:59Z</time></trkpt>
<trkpt lat="37.54763635" lon="126.70885118"><ele>142.857177734375</ele><time>2025-01-04T05:40:07Z</time></trkpt>
<trkpt lat="37.54763074" lon="126.70897969"><ele>141.596923828125</ele><time>2025-01-04T05:40:16Z</time></trkpt>
<trkpt lat="37.54757811" lon="126.70908928"><ele>141.6495361328125</ele><time>2025-01-04T05:40:24Z</time></trkpt>
<trkpt lat="37.54752129" lon="126.70919296"><ele>140.154296875</ele><time>2025-01-04T05:40:32Z</time></trkpt>
<trkpt lat="37.54749302" lon="126.70930246"><ele>139.14788818359375</ele><time>2025-01-04T05:40:40Z</time></trkpt>
<trkpt lat="37.54748442" lon="126.70942299"><ele>137.754150390625</ele><time>2025-01-04T05:40:49Z</time></trkpt>
<trkpt lat="37.54748491" lon="126.70954431"><ele>137.6534423828125</ele><time>2025-01-04T05:40:58Z</time></trkpt>
<trkpt lat="37.5474494" lon="126.7096618"><ele>136.38873291015625</ele><time>2025-01-04T05:41:07Z</time></trkpt>
<trkpt lat="37.54741271" lon="126.70976798"><ele>134.81976318359375</ele><time>2025-01-04T05:41:16Z</time></trkpt>
<trkpt lat="37.54736858" lon="126.70987728"><ele>134.4014892578125</ele><time>2025-01-04T05:41:25Z</time></trkpt>
<trkpt lat="37.54733083" lon="126.70998138"><ele>133.3123779296875</ele><time>2025-01-04T05:41:34Z</time></trkpt>
<trkpt lat="37.54729751" lon="126.710091"><ele>132.4481201171875</ele><time>2025-01-04T05:41:43Z</time></trkpt>
<trkpt lat="37.54724466" lon="126.71018664"><ele>131.2581787109375</ele><time>2025-01-04T05:41:53Z</time></trkpt>
<trkpt lat="37.54719333" lon="126.71028045"><ele>128.43402099609375</ele><time>2025-01-04T05:42:04Z</time></trkpt>
<trkpt lat="37.54717614" lon="126.71039983"><ele>130.3358154296875</ele><time>2025-01-04T05:42:13Z</time></trkpt>
<trkpt lat="37.54711833" lon="126.71049819"><ele>124.1199951171875</ele><time>2025-01-04T05:42:36Z</time></trkpt>
<trkpt lat="37.54709091" lon="126.71061571"><ele>122.070556640625</ele><time>2025-01-04T05:42:47Z</time></trkpt>
<trkpt lat="37.54702466" lon="126.71069588"><ele>120.5726318359375</ele><time>2025-01-04T05:42:57Z</time></trkpt>
<trkpt lat="37.54698841" lon="126.71080582"><ele>117.5880126953125</ele><time>2025-01-04T05:43:09Z</time></trkpt>
<trkpt lat="37.54694076" lon="126.7109051"><ele>114.29937744140625</ele><time>2025-01-04T05:43:19Z</time></trkpt>
<trkpt lat="37.54693106" lon="126.7110193"><ele>110.2005615234375</ele><time>2025-01-04T05:43:30Z</time></trkpt>
<trkpt lat="37.54696717" lon="126.71112792"><ele>111.06866455078125</ele><time>2025-01-04T05:43:41Z</time></trkpt>
<trkpt lat="37.54696478" lon="126.71124228"><ele>110.013427734375</ele><time>2025-01-04T05:43:52Z</time></trkpt>
<trkpt lat="37.54687907" lon="126.71129623"><ele>107.7564697265625</ele><time>2025-01-04T05:44:02Z</time></trkpt>
<trkpt lat="37.54681215" lon="126.71137254"><ele>109.1060791015625</ele><time>2025-01-04T05:44:12Z</time></trkpt>
<trkpt lat="37.54677218" lon="126.71147801"><ele>109.21484375</ele><time>2025-01-04T05:44:31Z</time></trkpt>
<trkpt lat="37.54671902" lon="126.71157819"><ele>107.39935302734375</ele><time>2025-01-04T05:44:44Z</time></trkpt>
<trkpt lat="37.54668236" lon="126.71168765"><ele>112.0791015625</ele><time>2025-01-04T05:45:26Z</time></trkpt>
<trkpt lat="37.54667504" lon="126.7118061"><ele>108.3466796875</ele><time>2025-01-04T05:45:40Z</time></trkpt>
<trkpt lat="37.54676508" lon="126.71181269"><ele>107.5791015625</ele><time>2025-01-04T05:46:08Z</time></trkpt>
<trkpt lat="37.54679008" lon="126.71192314"><ele>113.0985107421875</ele><time>2025-01-04T05:46:55Z</time></trkpt>
<trkpt lat="37.54681741" lon="126.71203301"><ele>108.4373779296875</ele><time>2025-01-04T05:47:07Z</time></trkpt>
<trkpt lat="37.54679855" lon="126.71214647"><ele>111.5921630859375</ele><time>2025-01-04T05:47:16Z</time></trkpt>
<trkpt lat="37.54682406" lon="126.71225637"><ele>110.8521728515625</ele><time>2025-01-04T05:47:26Z</time></trkpt>
<trkpt lat="37.54683392" lon="126.71238356"><ele>111.06976318359375</ele><time>2025-01-04T05:50:30Z</time></trkpt>
<trkpt lat="37.54683807" lon="126.7124993"><ele>111.98046875</ele><time>2025-01-04T05:50:39Z</time></trkpt>
<trkpt lat="37.54689007" lon="126.71259883"><ele>111.50091552734375</ele><time>2025-01-04T05:50:49Z</time></trkpt>
<trkpt lat="37.54690688" lon="126.71271315"><ele>113.0052490234375</ele><time>2025-01-04T05:51:01Z</time></trkpt>
<trkpt lat="37.54687862" lon="126.71282359"><ele>110.56085205078125</ele><time>2025-01-04T05:51:11Z</time></trkpt>
<trkpt lat="37.54687183" lon="126.71293883"><ele>111.395751953125</ele><time>2025-01-04T05:51:20Z</time></trkpt>
<trkpt lat="37.54689076" lon="126.71305873"><ele>114.1439208984375</ele><time>2025-01-04T05:51:29Z</time></trkpt>
<trkpt lat="37.54687384" lon="126.71317819"><ele>117.0106201171875</ele><time>2025-01-04T05:51:36Z</time></trkpt>
<trkpt lat="37.54691916" lon="126.71328475"><ele>116.61810302734375</ele><time>2025-01-04T05:51:47Z</time></trkpt>
<trkpt lat="37.54692454" lon="126.71340997"><ele>115.5887451171875</ele><time>2025-01-04T05:51:58Z</time></trkpt>
<trkpt lat="37.54696015" lon="126.71351761"><ele>112.1923828125</ele><time>2025-01-04T05:52:07Z</time></trkpt>
<trkpt lat="37.54697136" lon="126.71363963"><ele>113.4766845703125</ele><time>2025-01-04T05:52:15Z</time></trkpt>
<trkpt lat="37.54702565" lon="126.71373323"><ele>116.32470703125</ele><time>2025-01-04T05:52:25Z</time></trkpt>
<trkpt lat="37.54704336" lon="126.71384758"><ele>115.52947998046875</ele><time>2025-01-04T05:52:41Z</time></trkpt>
<trkpt lat="37.5470036" lon="126.71396047"><ele>114.760498046875</ele><time>2025-01-04T05:52:47Z</time></trkpt>
<trkpt lat="37.54702136" lon="126.71407265"><ele>115.525390625</ele><time>2025-01-04T05:52:57Z</time></trkpt>
<trkpt lat="37.54708215" lon="126.71415852"><ele>118.8712158203125</ele><time>2025-01-04T05:53:09Z</time></trkpt>
<trkpt lat="37.54714379" lon="126.71424544"><ele>119.9444580078125</ele><time>2025-01-04T05:53:21Z</time></trkpt>
<trkpt lat="37.5471986" lon="126.71433994"><ele>121.77569580078125</ele><time>2025-01-04T05:53:36Z</time></trkpt>
<trkpt lat="37.54728098" lon="126.71439914"><ele>121.95556640625</ele><time>2025-01-04T05:53:45Z</time></trkpt>
<trkpt lat="37.54735286" lon="126.71447075"><ele>119.57501220703125</ele><time>2025-01-04T05:53:54Z</time></trkpt>
<trkpt lat="37.54741721" lon="126.71455211"><ele>121.52398681640625</ele><time>2025-01-04T05:54:06Z</time></trkpt>
<trkpt lat="37.54750791" lon="126.71459369"><ele>121.1539306640625</ele><time>2025-01-04T05:54:16Z</time></trkpt>
<trkpt lat="37.54756804" lon="126.71468098"><ele>123.5267333984375</ele><time>2025-01-04T05:54:27Z</time></trkpt>
<trkpt lat="37.5476369" lon="126.7147689"><ele>123.86968994140625</ele><time>2025-01-04T05:54:40Z</time></trkpt>
<trkpt lat="37.54769899" lon="126.71485852"><ele>125.08837890625</ele><time>2025-01-04T05:54:50Z</time></trkpt>
<trkpt lat="37.54774683" lon="126.71495638"><ele>127.14434814453125</ele><time>2025-01-04T05:55:00Z</time></trkpt>
<trkpt lat="37.54780229" lon="126.71505452"><ele>130.97344970703125</ele><time>2025-01-04T05:55:09Z</time></trkpt>
<trkpt lat="37.5478056" lon="126.71518587"><ele>133.914306640625</ele><time>2025-01-04T05:55:18Z</time></trkpt>
<trkpt lat="37.54783031" lon="126.71529856"><ele>131.876220703125</ele><time>2025-01-04T05:55:28Z</time></trkpt>
<trkpt lat="37.54784598" lon="126.7154156"><ele>130.73193359375</ele><time>2025-01-04T05:55:37Z</time></trkpt>
<trkpt lat="37.54786598" lon="126.71553038"><ele>133.4503173828125</ele><time>2025-01-04T05:55:50Z</time></trkpt>
<trkpt lat="37.54785656" lon="126.71565444"><ele>133.4976806640625</ele><time>2025-01-04T05:56:01Z</time></trkpt>
<trkpt lat="37.54786701" lon="126.71577516"><ele>130.6776123046875</ele><time>2025-01-04T05:56:13Z</time></trkpt>
<trkpt lat="37.54779129" lon="126.71583921"><ele>132.9141845703125</ele><time>2025-01-04T05:56:19Z</time></trkpt>
<trkpt lat="37.54781612" lon="126.71595868"><ele>126.93780517578125</ele><time>2025-01-04T05:56:28Z</time></trkpt>
<trkpt lat="37.54781184" lon="126.71607692"><ele>122.977294921875</ele><time>2025-01-04T05:56:38Z</time></trkpt>
<trkpt lat="37.5477979" lon="126.71619996"><ele>121.5552978515625</ele><time>2025-01-04T05:56:48Z</time></trkpt>
<trkpt lat="37.54778233" lon="126.71632042"><ele>118.8277587890625</ele><time>2025-01-04T05:56:57Z</time></trkpt>
<trkpt lat="37.54776934" lon="126.71643377"><ele>120.6314697265625</ele><time>2025-01-04T05:57:05Z</time></trkpt>
<trkpt lat="37.54776352" lon="126.71654988"><ele>121.20440673828125</ele><time>2025-01-04T05:57:14Z</time></trkpt>
<trkpt lat="37.54779426" lon="126.71666182"><ele>123.517578125</ele><time>2025-01-04T05:58:18Z</time></trkpt>
<trkpt lat="37.54776438" lon="126.716551"><ele>121.9010009765625</ele><time>2025-01-04T05:58:42Z</time></trkpt>
<trkpt lat="37.54767003" lon="126.71651637"><ele>122.28814697265625</ele><time>2025-01-04T05:58:52Z</time></trkpt>
<trkpt lat="37.54764026" lon="126.7166338"><ele>121.50396728515625</ele><time>2025-01-04T05:59:01Z</time></trkpt>
<trkpt lat="37.54756245" lon="126.71670759"><ele>117.6259765625</ele><time>2025-01-04T05:59:12Z</time></trkpt>
<trkpt lat="37.54749367" lon="126.716785"><ele>114.411376953125</ele><time>2025-01-04T05:59:21Z</time></trkpt>
<trkpt lat="37.54744" lon="126.71688452"><ele>113.8240966796875</ele><time>2025-01-04T05:59:30Z</time></trkpt>
<trkpt lat="37.54738538" lon="126.71698505"><ele>113.81610107421875</ele><time>2025-01-04T05:59:41Z</time></trkpt>
<trkpt lat="37.54729195" lon="126.7170129"><ele>114.45770263671875</ele><time>2025-01-04T05:59:51Z</time></trkpt>
<trkpt lat="37.5471954" lon="126.71702803"><ele>114.11224365234375</ele><time>2025-01-04T06:00:00Z</time></trkpt>
<trkpt lat="37.54710287" lon="126.7170716"><ele>111.8280029296875</ele><time>2025-01-04T06:00:10Z</time></trkpt>
<trkpt lat="37.54703522" lon="126.71714644"><ele>109.6768798828125</ele><time>2025-01-04T06:00:27Z</time></trkpt>
<trkpt lat="37.54695955" lon="126.71720825"><ele>107.9599609375</ele><time>2025-01-04T06:00:38Z</time></trkpt>
<trkpt lat="37.54686312" lon="126.71720592"><ele>106.0150146484375</ele><time>2025-01-04T06:00:48Z</time></trkpt>
<trkpt lat="37.54677239" lon="126.71720605"><ele>108.28948974609375</ele><time>2025-01-04T06:00:55Z</time></trkpt>
<trkpt lat="37.5466816" lon="126.71724248"><ele>107.87933349609375</ele><time>2025-01-04T06:01:04Z</time></trkpt>
<trkpt lat="37.54659527" lon="126.71728437"><ele>107.2747802734375</ele><time>2025-01-04T06:01:13Z</time></trkpt>
<trkpt lat="37.54652123" lon="126.71736089"><ele>103.346923828125</ele><time>2025-01-04T06:01:23Z</time></trkpt>
<trkpt lat="37.54645156" lon="126.71743397"><ele>103.4058837890625</ele><time>2025-01-04T06:01:33Z</time></trkpt>
<trkpt lat="37.54640465" lon="126.71753259"><ele>99.66357421875</ele><time>2025-01-04T06:01:45Z</time></trkpt>
<trkpt lat="37.54642272" lon="126.71764354"><ele>97.07470703125</ele><time>2025-01-04T06:01:55Z</time></trkpt>
<trkpt lat="37.54646751" lon="126.71775398"><ele>95.9039306640625</ele><time>2025-01-04T06:02:05Z</time></trkpt>
<trkpt lat="37.5465005" lon="126.71786741"><ele>94.66387939453125</ele><time>2025-01-04T06:02:17Z</time></trkpt>
<trkpt lat="37.54654872" lon="126.71797531"><ele>92.5189208984375</ele><time>2025-01-04T06:02:29Z</time></trkpt>
<trkpt lat="37.54656928" lon="126.71809319"><ele>93.1837158203125</ele><time>2025-01-04T06:02:39Z</time></trkpt>
<trkpt lat="37.5465834" lon="126.7182128"><ele>92.7896728515625</ele><time>2025-01-04T06:02:49Z</time></trkpt>
<trkpt lat="37.54657905" lon="126.71833646"><ele>92.98321533203125</ele><time>2025-01-04T06:02:59Z</time></trkpt>
<trkpt lat="37.54661021" lon="126.71844985"><ele>93.444091796875</ele><time>2025-01-04T06:03:09Z</time></trkpt>
<trkpt lat="37.54665091" lon="126.71856012"><ele>92.5526123046875</ele><time>2025-01-04T06:03:20Z</time></trkpt>
<trkpt lat="37.54668123" lon="126.71868011"><ele>92.15826416015625</ele><time>2025-01-04T06:03:30Z</time></trkpt>
<trkpt lat="37.54671155" lon="126.71880195"><ele>91.9404296875</ele><time>2025-01-04T06:03:39Z</time></trkpt>
<trkpt lat="37.54674214" lon="126.7189206"><ele>91.41973876953125</ele><time>2025-01-04T06:03:48Z</time></trkpt>
<trkpt lat="37.54678675" lon="126.71902221"><ele>91.61083984375</ele><time>2025-01-04T06:03:56Z</time></trkpt>
<trkpt lat="37.54681064" lon="126.71914391"><ele>91.78363037109375</ele><time>2025-01-04T06:04:05Z</time></trkpt>
<trkpt lat="37.54683168" lon="126.71926251"><ele>91.62371826171875</ele><time>2025-01-04T06:04:15Z</time></trkpt>
<trkpt lat="37.54686857" lon="126.71936656"><ele>93.23699951171875</ele><time>2025-01-04T06:04:23Z</time></trkpt>
<trkpt lat="37.54690589" lon="126.71947367"><ele>91.68939208984375</ele><time>2025-01-04T06:04:32Z</time></trkpt>
<trkpt lat="37.54698223" lon="126.71954501"><ele>91.6055908203125</ele><time>2025-01-04T06:04:58Z</time></trkpt>
<trkpt lat="37.5469644" lon="126.71965775"><ele>93.961669921875</ele><time>2025-01-04T06:05:04Z</time></trkpt>
<trkpt lat="37.54697998" lon="126.71977521"><ele>93.4097900390625</ele><time>2025-01-04T06:05:12Z</time></trkpt>
<trkpt lat="37.54700359" lon="126.71989946"><ele>94.4951171875</ele><time>2025-01-04T06:05:20Z</time></trkpt>
<trkpt lat="37.54703333" lon="126.72000753"><ele>94.3851318359375</ele><time>2025-01-04T06:05:28Z</time></trkpt>
<trkpt lat="37.54707121" lon="126.72011957"><ele>94.67059326171875</ele><time>2025-01-04T06:05:37Z</time></trkpt>
<trkpt lat="37.54709423" lon="126.72023908"><ele>97.17108154296875</ele><time>2025-01-04T06:05:45Z</time></trkpt>
<trkpt lat="37.54712931" lon="126.72034691"><ele>97.3709716796875</ele><time>2025-01-04T06:05:54Z</time></trkpt>
<trkpt lat="37.54715105" lon="126.72045718"><ele>100.6053466796875</ele><time>2025-01-04T06:06:02Z</time></trkpt>
<trkpt lat="37.5471832" lon="126.72056983"><ele>99.8726806640625</ele><time>2025-01-04T06:06:10Z</time></trkpt>
<trkpt lat="37.54720729" lon="126.7206888"><ele>101.06390380859375</ele><time>2025-01-04T06:06:18Z</time></trkpt>
<trkpt lat="37.54723435" lon="126.72081375"><ele>101.9078369140625</ele><time>2025-01-04T06:06:26Z</time></trkpt>
<trkpt lat="37.54726458" lon="126.72093413"><ele>102.87255859375</ele><time>2025-01-04T06:06:34Z</time></trkpt>
<trkpt lat="37.54729915" lon="126.72104704"><ele>103.30908203125</ele><time>2025-01-04T06:06:43Z</time></trkpt>
<trkpt lat="37.54734625" lon="126.72114573"><ele>99.14117431640625</ele><time>2025-01-04T06:06:51Z</time></trkpt>
<trkpt lat="37.54740063" lon="126.72124184"><ele>94.059814453125</ele><time>2025-01-04T06:07:02Z</time></trkpt>
<trkpt lat="37.54743154" lon="126.72135935"><ele>94.30419921875</ele><time>2025-01-04T06:07:11Z</time></trkpt>
<trkpt lat="37.54745146" lon="126.72148098"><ele>95.8841552734375</ele><time>2025-01-04T06:07:19Z</time></trkpt>
<trkpt lat="37.54748645" lon="126.72158547"><ele>97.31268310546875</ele><time>2025-01-04T06:07:27Z</time></trkpt>
<trkpt lat="37.54753098" lon="126.72168612"><ele>94.73028564453125</ele><time>2025-01-04T06:07:35Z</time></trkpt>
<trkpt lat="37.54757547" lon="126.72179293"><ele>93.88592529296875</ele><time>2025-01-04T06:07:44Z</time></trkpt>
<trkpt lat="37.54758526" lon="126.72191915"><ele>94.92529296875</ele><time>2025-01-04T06:07:53Z</time></trkpt>
<trkpt lat="37.54761925" lon="126.72202974"><ele>94.68218994140625</ele><time>2025-01-04T06:08:02Z</time></trkpt>
<trkpt lat="37.54767129" lon="126.72212258"><ele>92.80255126953125</ele><time>2025-01-04T06:08:10Z</time></trkpt>
<trkpt lat="37.54768398" lon="126.72224127"><ele>93.366943359375</ele><time>2025-01-04T06:08:18Z</time></trkpt>
<trkpt lat="37.54770899" lon="126.72236462"><ele>93.97784423828125</ele><time>2025-01-04T06:08:27Z</time></trkpt>
<trkpt lat="37.5477345" lon="126.72248605"><ele>94.21990966796875</ele><time>2025-01-04T06:08:36Z</time></trkpt>
<trkpt lat="37.54776237" lon="126.72260292"><ele>97.4388427734375</ele><time>2025-01-04T06:08:45Z</time></trkpt>
<trkpt lat="37.54778658" lon="126.72271664"><ele>92.84942626953125</ele><time>2025-01-04T06:08:55Z</time></trkpt>
<trkpt lat="37.54786234" lon="126.72278416"><ele>85.017822265625</ele><time>2025-01-04T06:09:12Z</time></trkpt>
<trkpt lat="37.54785415" lon="126.7228982"><ele>85.869140625</ele><time>2025-01-04T06:09:18Z</time></trkpt>
<trkpt lat="37.54789218" lon="126.72301169"><ele>88.41497802734375</ele><time>2025-01-04T06:09:26Z</time></trkpt>
<trkpt lat="37.54788004" lon="126.72313376"><ele>87.90472412109375</ele><time>2025-01-04T06:09:36Z</time></trkpt>
<trkpt lat="37.54786986" lon="126.72324909"><ele>88.79010009765625</ele><time>2025-01-04T06:09:44Z</time></trkpt>
<trkpt lat="37.54787696" lon="126.7233715"><ele>91.07147216796875</ele><time>2025-01-04T06:09:51Z</time></trkpt>
<trkpt lat="37.54788722" lon="126.72349443"><ele>90.48040771484375</ele><time>2025-01-04T06:09:59Z</time></trkpt>
<trkpt lat="37.54787799" lon="126.72360903"><ele>90.53399658203125</ele><time>2025-01-04T06:10:06Z</time></trkpt>
<trkpt lat="37.54786786" lon="126.72372297"><ele>91.5830078125</ele><time>2025-01-04T06:10:13Z</time></trkpt>
<trkpt lat="37.54785959" lon="126.72383635"><ele>90.36932373046875</ele><time>2025-01-04T06:10:21Z</time></trkpt>
<trkpt lat="37.54783355" lon="126.72395975"><ele>88.93994140625</ele><time>2025-01-04T06:10:30Z</time></trkpt>
<trkpt lat="37.54779188" lon="126.72406408"><ele>89.54437255859375</ele><time>2025-01-04T06:10:37Z</time></trkpt>
<trkpt lat="37.54783937" lon="126.72417317"><ele>89.746826171875</ele><time>2025-01-04T06:10:56Z</time></trkpt>
<trkpt lat="37.54785847" lon="126.72429277"><ele>88.99029541015625</ele><time>2025-01-04T06:11:04Z</time></trkpt>
<trkpt lat="37.54783541" lon="126.72440428"><ele>89.119140625</ele><time>2025-01-04T06:11:11Z</time></trkpt>
<trkpt lat="37.54781319" lon="126.724515"><ele>88.12713623046875</ele><time>2025-01-04T06:11:18Z</time></trkpt>
<trkpt lat="37.5478078" lon="126.72464167"><ele>86.84002685546875</ele><time>2025-01-04T06:11:26Z</time></trkpt>
<trkpt lat="37.54783561" lon="126.72475619"><ele>84.80078125</ele><time>2025-01-04T06:11:35Z</time></trkpt>
<trkpt lat="37.54783413" lon="126.72487219"><ele>83.7320556640625</ele><time>2025-01-04T06:11:43Z</time></trkpt>
<trkpt lat="37.54781956" lon="126.72498469"><ele>84.3421630859375</ele><time>2025-01-04T06:11:50Z</time></trkpt>
<trkpt lat="37.54781197" lon="126.72511241"><ele>88.37164306640625</ele><time>2025-01-04T06:11:57Z</time></trkpt>
<trkpt lat="37.5478166" lon="126.72524011"><ele>91.42291259765625</ele><time>2025-01-04T06:12:05Z</time></trkpt>
<trkpt lat="37.54782173" lon="126.72535877"><ele>90.213623046875</ele><time>2025-01-04T06:12:14Z</time></trkpt>
<trkpt lat="37.54782198" lon="126.72547327"><ele>87.4534912109375</ele><time>2025-01-04T06:12:23Z</time></trkpt>
<trkpt lat="37.54782093" lon="126.72559198"><ele>87.44488525390625</ele><time>2025-01-04T06:12:32Z</time></trkpt>
</trkseg>
</trk>
</gpx>
