<?xml version="1.0" encoding="UTF-8"?>
<gpx creator="GlobalMotionEditor" version="1.1" xmlns="http://www.topografix.com/GPX/1/1">
<metadata>
<name>2025 인천둘레길 1코스 | 계양산 (목상동 솔밭쉼터 화장실 경유)</name>
<desc>Bientus, Inc. - www.ramblr.com - Share your outdoor stories on a map!</desc>
<author>
<name>jihojang</name>
</author>
<link href="https://www.ramblr.com/web/mymap/trip/977103/8145154"></link>
<time>2025-02-20T01:12:46Z</time>
</metadata>
<trk>
<name>2025 인천둘레길 1코스 | 계양산 (목상동 솔밭쉼터 화장실 경유)</name>
<trkseg>
<trkpt lat="37.54340255" lon="126.72858429"><ele>43.2979736328125</ele><time>2025-02-20T01:12:47Z</time></trkpt>
<trkpt lat="37.54341108" lon="126.72858238"><ele>44.8175048828125</ele><time>2025-02-20T01:12:48Z</time></trkpt>
<trkpt lat="37.5435028" lon="126.72859245"><ele>53.85626220703125</ele><time>2025-02-20T01:13:19Z</time></trkpt>
<trkpt lat="37.54360518" lon="126.72859244"><ele>53.68927001953125</ele><time>2025-02-20T01:14:40Z</time></trkpt>
<trkpt lat="37.54369758" lon="126.72859989"><ele>53.93798828125</ele><time>2025-02-20T01:14:46Z</time></trkpt>
<trkpt lat="37.54379279" lon="126.72861155"><ele>55.86688232421875</ele><time>2025-02-20T01:14:52Z</time></trkpt>
<trkpt lat="37.54388672" lon="126.72861409"><ele>54.6376953125</ele><time>2025-02-20T01:14:59Z</time></trkpt>
<trkpt lat="37.54398254" lon="126.72860688"><ele>55.69207763671875</ele><time>2025-02-20T01:15:07Z</time></trkpt>
<trkpt lat="37.54407416" lon="126.72862252"><ele>56.76922607421875</ele><time>2025-02-20T01:15:14Z</time></trkpt>
<trkpt lat="37.54417768" lon="126.72863909"><ele>58.18853759765625</ele><time>2025-02-20T01:15:21Z</time></trkpt>
<trkpt lat="37.54428115" lon="126.72865036"><ele>56.0528564453125</ele><time>2025-02-20T01:15:28Z</time></trkpt>
<trkpt lat="37.54437792" lon="126.72864783"><ele>55.85833740234375</ele><time>2025-02-20T01:15:34Z</time></trkpt>
<trkpt lat="37.54447626" lon="126.72866021"><ele>56.4769287109375</ele><time>2025-02-20T01:15:41Z</time></trkpt>
<trkpt lat="37.54457037" lon="126.72867489"><ele>58.08935546875</ele><time>2025-02-20T01:15:47Z</time></trkpt>
<trkpt lat="37.54466082" lon="126.72867142"><ele>56.58453369140625</ele><time>2025-02-20T01:15:56Z</time></trkpt>
<trkpt lat="37.54475177" lon="126.72867618"><ele>58.60968017578125</ele><time>2025-02-20T01:16:02Z</time></trkpt>
<trkpt lat="37.54484957" lon="126.72867322"><ele>59.54730224609375</ele><time>2025-02-20T01:16:10Z</time></trkpt>
<trkpt lat="37.54495148" lon="126.72867117"><ele>60.00067138671875</ele><time>2025-02-20T01:16:17Z</time></trkpt>
<trkpt lat="37.54505185" lon="126.72867964"><ele>60.9896240234375</ele><time>2025-02-20T01:16:28Z</time></trkpt>
<trkpt lat="37.54515204" lon="126.72868588"><ele>61.292236328125</ele><time>2025-02-20T01:16:35Z</time></trkpt>
<trkpt lat="37.54524795" lon="126.72869459"><ele>62.21661376953125</ele><time>2025-02-20T01:16:42Z</time></trkpt>
<trkpt lat="37.54533938" lon="126.72870334"><ele>61.96142578125</ele><time>2025-02-20T01:16:48Z</time></trkpt>
<trkpt lat="37.5454341" lon="126.7287296"><ele>61.00885009765625</ele><time>2025-02-20T01:16:54Z</time></trkpt>
<trkpt lat="37.54552943" lon="126.72874573"><ele>62.74322509765625</ele><time>2025-02-20T01:17:00Z</time></trkpt>
<trkpt lat="37.54563186" lon="126.72874563"><ele>63.5078125</ele><time>2025-02-20T01:17:07Z</time></trkpt>
<trkpt lat="37.54572694" lon="126.72873499"><ele>65.7354736328125</ele><time>2025-02-20T01:17:13Z</time></trkpt>
<trkpt lat="37.54581787" lon="126.7287537"><ele>67.88421630859375</ele><time>2025-02-20T01:17:20Z</time></trkpt>
<trkpt lat="37.54591744" lon="126.72877005"><ele>69.5350341796875</ele><time>2025-02-20T01:17:28Z</time></trkpt>
<trkpt lat="37.54601267" lon="126.72878717"><ele>67.85821533203125</ele><time>2025-02-20T01:17:35Z</time></trkpt>
<trkpt lat="37.54611521" lon="126.72879532"><ele>69.2142333984375</ele><time>2025-02-20T01:17:42Z</time></trkpt>
<trkpt lat="37.54621581" lon="126.72879552"><ele>69.6390380859375</ele><time>2025-02-20T01:17:48Z</time></trkpt>
<trkpt lat="37.5463113" lon="126.72878973"><ele>69.1466064453125</ele><time>2025-02-20T01:17:54Z</time></trkpt>
<trkpt lat="37.54640771" lon="126.72879602"><ele>69.834716796875</ele><time>2025-02-20T01:18:00Z</time></trkpt>
<trkpt lat="37.54649852" lon="126.72879217"><ele>71.5242919921875</ele><time>2025-02-20T01:18:06Z</time></trkpt>
<trkpt lat="37.54659514" lon="126.72881116"><ele>72.23193359375</ele><time>2025-02-20T01:18:15Z</time></trkpt>
<trkpt lat="37.54668797" lon="126.72881692"><ele>73.23974609375</ele><time>2025-02-20T01:18:22Z</time></trkpt>
<trkpt lat="37.54678862" lon="126.72881025"><ele>73.145263671875</ele><time>2025-02-20T01:18:29Z</time></trkpt>
<trkpt lat="37.54689269" lon="126.72882827"><ele>75.0697021484375</ele><time>2025-02-20T01:18:38Z</time></trkpt>
<trkpt lat="37.54699678" lon="126.72884177"><ele>75.00567626953125</ele><time>2025-02-20T01:18:45Z</time></trkpt>
<trkpt lat="37.54709105" lon="126.72885165"><ele>75.18524169921875</ele><time>2025-02-20T01:18:52Z</time></trkpt>
<trkpt lat="37.54718729" lon="126.72886193"><ele>74.36419677734375</ele><time>2025-02-20T01:18:59Z</time></trkpt>
<trkpt lat="37.54727869" lon="126.72887031"><ele>75.14471435546875</ele><time>2025-02-20T01:19:06Z</time></trkpt>
<trkpt lat="37.54737716" lon="126.72888404"><ele>76.484375</ele><time>2025-02-20T01:19:14Z</time></trkpt>
<trkpt lat="37.54746987" lon="126.72887872"><ele>76.885498046875</ele><time>2025-02-20T01:19:21Z</time></trkpt>
<trkpt lat="37.5475637" lon="126.72889219"><ele>77.77685546875</ele><time>2025-02-20T01:19:29Z</time></trkpt>
<trkpt lat="37.54765486" lon="126.72890764"><ele>77.430908203125</ele><time>2025-02-20T01:19:36Z</time></trkpt>
<trkpt lat="37.5476987" lon="126.72879611"><ele>77.36444091796875</ele><time>2025-02-20T01:19:43Z</time></trkpt>
<trkpt lat="37.54769912" lon="126.72866936"><ele>77.59832763671875</ele><time>2025-02-20T01:19:50Z</time></trkpt>
<trkpt lat="37.54769957" lon="126.72854939"><ele>78.43133544921875</ele><time>2025-02-20T01:20:17Z</time></trkpt>
<trkpt lat="37.54769445" lon="126.72843286"><ele>79.546630859375</ele><time>2025-02-20T01:20:24Z</time></trkpt>
<trkpt lat="37.54770176" lon="126.7283148"><ele>79.84698486328125</ele><time>2025-02-20T01:20:31Z</time></trkpt>
<trkpt lat="37.54771154" lon="126.72820169"><ele>81.5914306640625</ele><time>2025-02-20T01:21:14Z</time></trkpt>
<trkpt lat="37.54770924" lon="126.72807843"><ele>83.0799560546875</ele><time>2025-02-20T01:21:21Z</time></trkpt>
<trkpt lat="37.54771383" lon="126.7279503"><ele>83.9344482421875</ele><time>2025-02-20T01:21:29Z</time></trkpt>
<trkpt lat="37.5477221" lon="126.72782216"><ele>84.4400634765625</ele><time>2025-02-20T01:21:37Z</time></trkpt>
<trkpt lat="37.54769182" lon="126.72769625"><ele>86.4351806640625</ele><time>2025-02-20T01:22:08Z</time></trkpt>
<trkpt lat="37.5477129" lon="126.72757104"><ele>85.71331787109375</ele><time>2025-02-20T01:22:17Z</time></trkpt>
<trkpt lat="37.5477321" lon="126.72745677"><ele>86.644287109375</ele><time>2025-02-20T01:22:42Z</time></trkpt>
<trkpt lat="37.54774837" lon="126.72734484"><ele>87.12811279296875</ele><time>2025-02-20T01:22:49Z</time></trkpt>
<trkpt lat="37.5477628" lon="126.72722237"><ele>86.25140380859375</ele><time>2025-02-20T01:22:56Z</time></trkpt>
<trkpt lat="37.54778208657705" lon="126.72714170755329"><ele>67.03091430664062</ele><time>2025-02-20T01:23:03Z</time></trkpt>
<trkpt lat="37.54787110328728" lon="126.7270866043586"><ele>72.54801177978516</ele><time>2025-02-20T01:23:24Z</time></trkpt>
<trkpt lat="37.54794938385347" lon="126.72709824429917"><ele>78.47206115722656</ele><time>2025-02-20T01:23:34Z</time></trkpt>
<trkpt lat="37.54798258" lon="126.72718339"><ele>88.54693603515625</ele><time>2025-02-20T01:23:42Z</time></trkpt>
<trkpt lat="37.54795925728336" lon="126.72730303331352"><ele>76.18405151367188</ele><time>2025-02-20T01:23:50Z</time></trkpt>
<trkpt lat="37.54792505" lon="126.72739809"><ele>91.021240234375</ele><time>2025-02-20T01:23:57Z</time></trkpt>
<trkpt lat="37.54791840489193" lon="126.72743386625308"><ele>70.42720794677734</ele><time>2025-02-20T01:24:07Z</time></trkpt>
<trkpt lat="37.54791925755577" lon="126.72745736840267"><ele>69.87454223632812</ele><time>2025-02-20T01:24:14Z</time></trkpt>
<trkpt lat="37.54792966296167" lon="126.72747521668647"><ele>70.07672882080078</ele><time>2025-02-20T01:25:18Z</time></trkpt>
<trkpt lat="37.54793976" lon="126.72748686"><ele>90.94073486328125</ele><time>2025-02-20T01:25:35Z</time></trkpt>
<trkpt lat="37.547948301279526" lon="126.7276002488955"><ele>70.7855453491211</ele><time>2025-02-20T01:25:43Z</time></trkpt>
<trkpt lat="37.54794067" lon="126.72771418"><ele>92.0775146484375</ele><time>2025-02-20T01:25:53Z</time></trkpt>
<trkpt lat="37.54790136454785" lon="126.72780698343239"><ele>70.1261978149414</ele><time>2025-02-20T01:26:18Z</time></trkpt>
<trkpt lat="37.54786181" lon="126.72791693"><ele>87.6656494140625</ele><time>2025-02-20T01:27:40Z</time></trkpt>
<trkpt lat="37.547886717689074" lon="126.72801984331352"><ele>71.09032440185547</ele><time>2025-02-20T01:28:03Z</time></trkpt>
<trkpt lat="37.5478854" lon="126.72814014"><ele>92.16973876953125</ele><time>2025-02-20T01:28:22Z</time></trkpt>
<trkpt lat="37.54787023" lon="126.7282617"><ele>92.540771484375</ele><time>2025-02-20T01:28:29Z</time></trkpt>
<trkpt lat="37.54784843" lon="126.72838729"><ele>91.33819580078125</ele><time>2025-02-20T01:28:37Z</time></trkpt>
<trkpt lat="37.54784671" lon="126.72851854"><ele>91.543701171875</ele><time>2025-02-20T01:28:44Z</time></trkpt>
<trkpt lat="37.54786801" lon="126.72863688"><ele>93.28558349609375</ele><time>2025-02-20T01:28:51Z</time></trkpt>
<trkpt lat="37.54789952" lon="126.72874456"><ele>95.1722412109375</ele><time>2025-02-20T01:28:58Z</time></trkpt>
<trkpt lat="37.54794595" lon="126.72884712"><ele>95.92022705078125</ele><time>2025-02-20T01:29:12Z</time></trkpt>
<trkpt lat="37.54797126" lon="126.72897072"><ele>95.1761474609375</ele><time>2025-02-20T01:29:22Z</time></trkpt>
<trkpt lat="37.54800659" lon="126.72907654"><ele>95.33203125</ele><time>2025-02-20T01:29:29Z</time></trkpt>
<trkpt lat="37.54806223" lon="126.72917977"><ele>97.9140625</ele><time>2025-02-20T01:29:36Z</time></trkpt>
<trkpt lat="37.5480697" lon="126.72929644"><ele>100.0487060546875</ele><time>2025-02-20T01:29:43Z</time></trkpt>
<trkpt lat="37.54809006" lon="126.7294214"><ele>100.3350830078125</ele><time>2025-02-20T01:29:51Z</time></trkpt>
<trkpt lat="37.54811615" lon="126.72954234"><ele>99.76715087890625</ele><time>2025-02-20T01:29:58Z</time></trkpt>
<trkpt lat="37.54818371" lon="126.7296233"><ele>101.14923095703125</ele><time>2025-02-20T01:30:05Z</time></trkpt>
<trkpt lat="37.54825404" lon="126.72969967"><ele>102.00726318359375</ele><time>2025-02-20T01:30:12Z</time></trkpt>
<trkpt lat="37.54831702" lon="126.72980035"><ele>100.947021484375</ele><time>2025-02-20T01:30:20Z</time></trkpt>
<trkpt lat="37.54839556" lon="126.72987384"><ele>101.35552978515625</ele><time>2025-02-20T01:30:27Z</time></trkpt>
<trkpt lat="37.54848596" lon="126.72992222"><ele>103.05560302734375</ele><time>2025-02-20T01:30:34Z</time></trkpt>
<trkpt lat="37.54857341" lon="126.72996604"><ele>105.104736328125</ele><time>2025-02-20T01:30:42Z</time></trkpt>
<trkpt lat="37.54866394" lon="126.72998065"><ele>106.23297119140625</ele><time>2025-02-20T01:30:54Z</time></trkpt>
<trkpt lat="37.54876215" lon="126.73001095"><ele>104.7130126953125</ele><time>2025-02-20T01:31:04Z</time></trkpt>
<trkpt lat="37.54885629" lon="126.72999805"><ele>103.828857421875</ele><time>2025-02-20T01:31:11Z</time></trkpt>
<trkpt lat="37.54894447" lon="126.72994718"><ele>104.501953125</ele><time>2025-02-20T01:31:18Z</time></trkpt>
<trkpt lat="37.54903732" lon="126.72990337"><ele>104.501220703125</ele><time>2025-02-20T01:31:25Z</time></trkpt>
<trkpt lat="37.54910189" lon="126.72982192"><ele>105.52655029296875</ele><time>2025-02-20T01:31:32Z</time></trkpt>
<trkpt lat="37.54914796" lon="126.72971798"><ele>107.7515869140625</ele><time>2025-02-20T01:31:39Z</time></trkpt>
<trkpt lat="37.54923907" lon="126.72970313"><ele>108.988525390625</ele><time>2025-02-20T01:31:50Z</time></trkpt>
<trkpt lat="37.54930279" lon="126.7297883"><ele>110.98223876953125</ele><time>2025-02-20T01:32:03Z</time></trkpt>
<trkpt lat="37.54936057" lon="126.72988278"><ele>111.4058837890625</ele><time>2025-02-20T01:32:16Z</time></trkpt>
<trkpt lat="37.54945571" lon="126.72990492"><ele>113.2215576171875</ele><time>2025-02-20T01:32:27Z</time></trkpt>
<trkpt lat="37.54955528" lon="126.72992044"><ele>115.0794677734375</ele><time>2025-02-20T01:32:37Z</time></trkpt>
<trkpt lat="37.54963412" lon="126.72997702"><ele>117.31842041015625</ele><time>2025-02-20T01:32:45Z</time></trkpt>
<trkpt lat="37.54970341" lon="126.73006254"><ele>119.83782958984375</ele><time>2025-02-20T01:32:54Z</time></trkpt>
<trkpt lat="37.54978445" lon="126.73013201"><ele>121.32562255859375</ele><time>2025-02-20T01:33:04Z</time></trkpt>
<trkpt lat="37.54986815" lon="126.73018381"><ele>121.39996337890625</ele><time>2025-02-20T01:33:15Z</time></trkpt>
<trkpt lat="37.54994827" lon="126.73026288"><ele>121.96221923828125</ele><time>2025-02-20T01:33:25Z</time></trkpt>
<trkpt lat="37.55002043" lon="126.73033769"><ele>124.6278076171875</ele><time>2025-02-20T01:33:34Z</time></trkpt>
<trkpt lat="37.55009558" lon="126.73040733"><ele>126.6512451171875</ele><time>2025-02-20T01:33:44Z</time></trkpt>
<trkpt lat="37.55017861" lon="126.73045966"><ele>130.9893798828125</ele><time>2025-02-20T01:33:55Z</time></trkpt>
<trkpt lat="37.55026707" lon="126.7305001"><ele>133.376708984375</ele><time>2025-02-20T01:34:09Z</time></trkpt>
<trkpt lat="37.55034851" lon="126.73054896"><ele>132.44940185546875</ele><time>2025-02-20T01:34:30Z</time></trkpt>
<trkpt lat="37.5504368" lon="126.73050928"><ele>130.736083984375</ele><time>2025-02-20T01:35:18Z</time></trkpt>
<trkpt lat="37.55053206" lon="126.73049371"><ele>130.133056640625</ele><time>2025-02-20T01:35:25Z</time></trkpt>
<trkpt lat="37.55061344" lon="126.73041801"><ele>128.75958251953125</ele><time>2025-02-20T01:35:33Z</time></trkpt>
<trkpt lat="37.55067809" lon="126.73033741"><ele>126.100830078125</ele><time>2025-02-20T01:35:40Z</time></trkpt>
<trkpt lat="37.55076012" lon="126.73026975"><ele>123.8212890625</ele><time>2025-02-20T01:35:48Z</time></trkpt>
<trkpt lat="37.55085018" lon="126.7302101"><ele>121.51177978515625</ele><time>2025-02-20T01:35:56Z</time></trkpt>
<trkpt lat="37.55093828" lon="126.73017372"><ele>118.3990478515625</ele><time>2025-02-20T01:36:04Z</time></trkpt>
<trkpt lat="37.55101465" lon="126.73010269"><ele>116.037841796875</ele><time>2025-02-20T01:36:12Z</time></trkpt>
<trkpt lat="37.55106803" lon="126.72999317"><ele>112.99322509765625</ele><time>2025-02-20T01:36:20Z</time></trkpt>
<trkpt lat="37.55112225" lon="126.72989037"><ele>110.31622314453125</ele><time>2025-02-20T01:36:28Z</time></trkpt>
<trkpt lat="37.55119691" lon="126.72981746"><ele>109.41357421875</ele><time>2025-02-20T01:36:35Z</time></trkpt>
<trkpt lat="37.55126605" lon="126.72972931"><ele>109.8472900390625</ele><time>2025-02-20T01:36:52Z</time></trkpt>
<trkpt lat="37.55132603" lon="126.72963454"><ele>106.5052490234375</ele><time>2025-02-20T01:37:01Z</time></trkpt>
<trkpt lat="37.55142012" lon="126.7295819"><ele>103.53338623046875</ele><time>2025-02-20T01:37:09Z</time></trkpt>
<trkpt lat="37.55148848" lon="126.72948742"><ele>102.67974853515625</ele><time>2025-02-20T01:37:17Z</time></trkpt>
<trkpt lat="37.55156301" lon="126.72940983"><ele>102.65252685546875</ele><time>2025-02-20T01:37:25Z</time></trkpt>
<trkpt lat="37.5516348" lon="126.72933256"><ele>102.7681884765625</ele><time>2025-02-20T01:37:32Z</time></trkpt>
<trkpt lat="37.5516994" lon="126.72924934"><ele>101.35455322265625</ele><time>2025-02-20T01:37:38Z</time></trkpt>
<trkpt lat="37.551772" lon="126.7291696"><ele>101.7957763671875</ele><time>2025-02-20T01:37:44Z</time></trkpt>
<trkpt lat="37.55182792" lon="126.72906935"><ele>101.27435302734375</ele><time>2025-02-20T01:37:51Z</time></trkpt>
<trkpt lat="37.55186377" lon="126.72895272"><ele>100.5216064453125</ele><time>2025-02-20T01:39:07Z</time></trkpt>
<trkpt lat="37.55191714" lon="126.72885547"><ele>100.60211181640625</ele><time>2025-02-20T01:39:14Z</time></trkpt>
<trkpt lat="37.55200693" lon="126.72886992"><ele>101.698974609375</ele><time>2025-02-20T01:39:25Z</time></trkpt>
<trkpt lat="37.55209882" lon="126.7288902"><ele>99.114501953125</ele><time>2025-02-20T01:39:32Z</time></trkpt>
<trkpt lat="37.5521918" lon="126.7288938"><ele>98.03118896484375</ele><time>2025-02-20T01:39:38Z</time></trkpt>
<trkpt lat="37.55228559" lon="126.72889903"><ele>96.17431640625</ele><time>2025-02-20T01:39:44Z</time></trkpt>
<trkpt lat="37.55237855" lon="126.72888192"><ele>95.1002197265625</ele><time>2025-02-20T01:39:50Z</time></trkpt>
<trkpt lat="37.55247056" lon="126.72886353"><ele>95.30975341796875</ele><time>2025-02-20T01:39:56Z</time></trkpt>
<trkpt lat="37.55256361" lon="126.72883446"><ele>94.83135986328125</ele><time>2025-02-20T01:40:02Z</time></trkpt>
<trkpt lat="37.55266511" lon="126.72880959"><ele>93.2257080078125</ele><time>2025-02-20T01:40:08Z</time></trkpt>
<trkpt lat="37.55275705" lon="126.72874829"><ele>92.561279296875</ele><time>2025-02-20T01:40:15Z</time></trkpt>
<trkpt lat="37.55285431" lon="126.7287123"><ele>92.15362548828125</ele><time>2025-02-20T01:40:22Z</time></trkpt>
<trkpt lat="37.55294537" lon="126.72871386"><ele>92.32696533203125</ele><time>2025-02-20T01:40:28Z</time></trkpt>
<trkpt lat="37.55304841" lon="126.72870633"><ele>92.34991455078125</ele><time>2025-02-20T01:40:35Z</time></trkpt>
<trkpt lat="37.55315152" lon="126.7286953"><ele>93.07965087890625</ele><time>2025-02-20T01:40:42Z</time></trkpt>
<trkpt lat="37.55324928" lon="126.7286636"><ele>93.689453125</ele><time>2025-02-20T01:40:49Z</time></trkpt>
<trkpt lat="37.55333476" lon="126.7286097"><ele>92.8004150390625</ele><time>2025-02-20T01:40:55Z</time></trkpt>
<trkpt lat="37.5534156" lon="126.72854857"><ele>91.98785400390625</ele><time>2025-02-20T01:41:01Z</time></trkpt>
<trkpt lat="37.55350422" lon="126.72849939"><ele>91.494873046875</ele><time>2025-02-20T01:41:08Z</time></trkpt>
<trkpt lat="37.55359631" lon="126.72845221"><ele>91.016357421875</ele><time>2025-02-20T01:41:16Z</time></trkpt>
<trkpt lat="37.55367943" lon="126.72840568"><ele>90.98419189453125</ele><time>2025-02-20T01:41:23Z</time></trkpt>
<trkpt lat="37.553735" lon="126.7283015"><ele>90.791748046875</ele><time>2025-02-20T01:41:30Z</time></trkpt>
<trkpt lat="37.55378689" lon="126.72819872"><ele>89.35345458984375</ele><time>2025-02-20T01:41:38Z</time></trkpt>
<trkpt lat="37.5538711" lon="126.72812673"><ele>88.0614013671875</ele><time>2025-02-20T01:41:45Z</time></trkpt>
<trkpt lat="37.55396667" lon="126.72809055"><ele>88.1903076171875</ele><time>2025-02-20T01:41:51Z</time></trkpt>
<trkpt lat="37.55405744" lon="126.72803497"><ele>87.9595947265625</ele><time>2025-02-20T01:41:57Z</time></trkpt>
<trkpt lat="37.55414392" lon="126.72800153"><ele>86.7786865234375</ele><time>2025-02-20T01:42:03Z</time></trkpt>
<trkpt lat="37.55423722" lon="126.72794559"><ele>85.7454833984375</ele><time>2025-02-20T01:42:10Z</time></trkpt>
<trkpt lat="37.55431827" lon="126.72788137"><ele>85.3717041015625</ele><time>2025-02-20T01:42:16Z</time></trkpt>
<trkpt lat="37.55439617" lon="126.72780187"><ele>84.602294921875</ele><time>2025-02-20T01:42:22Z</time></trkpt>
<trkpt lat="37.55445803" lon="126.72770296"><ele>84.36309814453125</ele><time>2025-02-20T01:42:28Z</time></trkpt>
<trkpt lat="37.55448549" lon="126.72759052"><ele>84.69366455078125</ele><time>2025-02-20T01:42:35Z</time></trkpt>
<trkpt lat="37.55452813" lon="126.72747063"><ele>86.02655029296875</ele><time>2025-02-20T01:42:43Z</time></trkpt>
<trkpt lat="37.55456036" lon="126.72735963"><ele>85.595458984375</ele><time>2025-02-20T01:42:51Z</time></trkpt>
<trkpt lat="37.55458489" lon="126.72724289"><ele>86.81195068359375</ele><time>2025-02-20T01:42:58Z</time></trkpt>
<trkpt lat="37.55462294" lon="126.7271222"><ele>86.1595458984375</ele><time>2025-02-20T01:43:05Z</time></trkpt>
<trkpt lat="37.55466795" lon="126.72702124"><ele>87.0615234375</ele><time>2025-02-20T01:43:12Z</time></trkpt>
<trkpt lat="37.5546036" lon="126.72692158"><ele>88.9454345703125</ele><time>2025-02-20T01:43:29Z</time></trkpt>
<trkpt lat="37.55452864" lon="126.72685861"><ele>89.84857177734375</ele><time>2025-02-20T01:43:36Z</time></trkpt>
<trkpt lat="37.55444264" lon="126.72679427"><ele>90.70318603515625</ele><time>2025-02-20T01:43:46Z</time></trkpt>
<trkpt lat="37.55434536" lon="126.72677161"><ele>92.81884765625</ele><time>2025-02-20T01:43:54Z</time></trkpt>
<trkpt lat="37.55425329" lon="126.72676885"><ele>94.39208984375</ele><time>2025-02-20T01:44:05Z</time></trkpt>
<trkpt lat="37.55423769" lon="126.72664504"><ele>94.373779296875</ele><time>2025-02-20T01:44:20Z</time></trkpt>
<trkpt lat="37.55417291" lon="126.72656347"><ele>95.7772216796875</ele><time>2025-02-20T01:44:28Z</time></trkpt>
<trkpt lat="37.55409295" lon="126.72649814"><ele>98.080322265625</ele><time>2025-02-20T01:44:37Z</time></trkpt>
<trkpt lat="37.55414003" lon="126.72639992"><ele>100.3414306640625</ele><time>2025-02-20T01:44:48Z</time></trkpt>
<trkpt lat="37.55414562" lon="126.72627218"><ele>100.90228271484375</ele><time>2025-02-20T01:44:57Z</time></trkpt>
<trkpt lat="37.5541444" lon="126.72615648"><ele>100.743896484375</ele><time>2025-02-20T01:45:05Z</time></trkpt>
<trkpt lat="37.55417365" lon="126.72604896"><ele>103.4537353515625</ele><time>2025-02-20T01:45:24Z</time></trkpt>
<trkpt lat="37.55424115" lon="126.72596965"><ele>104.1634521484375</ele><time>2025-02-20T01:45:32Z</time></trkpt>
<trkpt lat="37.55431341" lon="126.72589164"><ele>104.65234375</ele><time>2025-02-20T01:45:42Z</time></trkpt>
<trkpt lat="37.55436486" lon="126.72579501"><ele>104.6861572265625</ele><time>2025-02-20T01:45:49Z</time></trkpt>
<trkpt lat="37.55441132" lon="126.72568612"><ele>103.67529296875</ele><time>2025-02-20T01:45:57Z</time></trkpt>
<trkpt lat="37.55448275" lon="126.72560115"><ele>102.6007080078125</ele><time>2025-02-20T01:46:04Z</time></trkpt>
<trkpt lat="37.55452316" lon="126.72548159"><ele>102.7177734375</ele><time>2025-02-20T01:46:11Z</time></trkpt>
<trkpt lat="37.55456853" lon="126.72536268"><ele>102.93017578125</ele><time>2025-02-20T01:46:18Z</time></trkpt>
<trkpt lat="37.55459663" lon="126.72525194"><ele>102.9298095703125</ele><time>2025-02-20T01:46:24Z</time></trkpt>
<trkpt lat="37.55463053" lon="126.72514444"><ele>104.19573974609375</ele><time>2025-02-20T01:46:30Z</time></trkpt>
<trkpt lat="37.55465904" lon="126.72501995"><ele>104.95166015625</ele><time>2025-02-20T01:46:37Z</time></trkpt>
<trkpt lat="37.55469468" lon="126.72490835"><ele>106.67974853515625</ele><time>2025-02-20T01:46:44Z</time></trkpt>
<trkpt lat="37.55472016" lon="126.72479533"><ele>108.4249267578125</ele><time>2025-02-20T01:46:51Z</time></trkpt>
<trkpt lat="37.55475043" lon="126.72467476"><ele>108.488525390625</ele><time>2025-02-20T01:46:59Z</time></trkpt>
<trkpt lat="37.55476657" lon="126.72455672"><ele>110.51519775390625</ele><time>2025-02-20T01:47:06Z</time></trkpt>
<trkpt lat="37.55474538" lon="126.72443382"><ele>114.963134765625</ele><time>2025-02-20T01:47:14Z</time></trkpt>
<trkpt lat="37.55472462" lon="126.72432367"><ele>115.90130615234375</ele><time>2025-02-20T01:47:22Z</time></trkpt>
<trkpt lat="37.55471517" lon="126.72420248"><ele>120.10601806640625</ele><time>2025-02-20T01:47:37Z</time></trkpt>
<trkpt lat="37.55469507" lon="126.72408318"><ele>121.645263671875</ele><time>2025-02-20T01:47:45Z</time></trkpt>
<trkpt lat="37.55468682" lon="126.7239605"><ele>123.4342041015625</ele><time>2025-02-20T01:47:54Z</time></trkpt>
<trkpt lat="37.55468788" lon="126.72384695"><ele>126.8184814453125</ele><time>2025-02-20T01:48:04Z</time></trkpt>
<trkpt lat="37.55468788" lon="126.72372072"><ele>129.90380859375</ele><time>2025-02-20T01:48:13Z</time></trkpt>
<trkpt lat="37.55469973" lon="126.72359625"><ele>130.9046630859375</ele><time>2025-02-20T01:48:21Z</time></trkpt>
<trkpt lat="37.55470378" lon="126.72347252"><ele>130.740234375</ele><time>2025-02-20T01:48:35Z</time></trkpt>
<trkpt lat="37.55471558" lon="126.72335148"><ele>133.369384765625</ele><time>2025-02-20T01:48:44Z</time></trkpt>
<trkpt lat="37.55473705" lon="126.72323571"><ele>135.1778564453125</ele><time>2025-02-20T01:48:52Z</time></trkpt>
<trkpt lat="37.55473877" lon="126.72311024"><ele>136.98150634765625</ele><time>2025-02-20T01:49:00Z</time></trkpt>
<trkpt lat="37.55473753" lon="126.72299161"><ele>138.27069091796875</ele><time>2025-02-20T01:49:08Z</time></trkpt>
<trkpt lat="37.55473844" lon="126.722877"><ele>137.72662353515625</ele><time>2025-02-20T01:49:16Z</time></trkpt>
<trkpt lat="37.55476338" lon="126.7227648"><ele>141.77093505859375</ele><time>2025-02-20T01:49:45Z</time></trkpt>
<trkpt lat="37.55482309" lon="126.72266418"><ele>140.634765625</ele><time>2025-02-20T01:50:02Z</time></trkpt>
<trkpt lat="37.55482755" lon="126.72254246"><ele>139.4652099609375</ele><time>2025-02-20T01:50:10Z</time></trkpt>
<trkpt lat="37.55491846" lon="126.72250619"><ele>141.2264404296875</ele><time>2025-02-20T01:50:20Z</time></trkpt>
<trkpt lat="37.55501147" lon="126.7224745"><ele>143.46484375</ele><time>2025-02-20T01:50:30Z</time></trkpt>
<trkpt lat="37.55509352" lon="126.72240774"><ele>145.4434814453125</ele><time>2025-02-20T01:50:42Z</time></trkpt>
<trkpt lat="37.55517513" lon="126.72234151"><ele>146.174560546875</ele><time>2025-02-20T01:50:51Z</time></trkpt>
<trkpt lat="37.5552595" lon="126.72228005"><ele>144.71551513671875</ele><time>2025-02-20T01:50:59Z</time></trkpt>
<trkpt lat="37.55533122" lon="126.72221102"><ele>144.90057373046875</ele><time>2025-02-20T01:51:06Z</time></trkpt>
<trkpt lat="37.55540955" lon="126.72214463"><ele>145.496826171875</ele><time>2025-02-20T01:51:13Z</time></trkpt>
<trkpt lat="37.55550284" lon="126.72214474"><ele>143.919921875</ele><time>2025-02-20T01:51:22Z</time></trkpt>
<trkpt lat="37.55548704" lon="126.72226677"><ele>142.08538818359375</ele><time>2025-02-20T01:51:31Z</time></trkpt>
<trkpt lat="37.55553128" lon="126.72237265"><ele>140.978271484375</ele><time>2025-02-20T01:51:40Z</time></trkpt>
<trkpt lat="37.55556687" lon="126.72248348"><ele>138.0050048828125</ele><time>2025-02-20T01:51:50Z</time></trkpt>
<trkpt lat="37.55562184" lon="126.72238784"><ele>137.03887939453125</ele><time>2025-02-20T01:52:08Z</time></trkpt>
<trkpt lat="37.55570614" lon="126.72233164"><ele>136.1187744140625</ele><time>2025-02-20T01:52:16Z</time></trkpt>
<trkpt lat="37.55580617" lon="126.72231948"><ele>135.28118896484375</ele><time>2025-02-20T01:52:24Z</time></trkpt>
<trkpt lat="37.55591223" lon="126.72231294"><ele>134.4681396484375</ele><time>2025-02-20T01:52:31Z</time></trkpt>
<trkpt lat="37.55600301" lon="126.72229543"><ele>133.2498779296875</ele><time>2025-02-20T01:52:37Z</time></trkpt>
<trkpt lat="37.55609342" lon="126.72225214"><ele>132.3824462890625</ele><time>2025-02-20T01:52:44Z</time></trkpt>
<trkpt lat="37.55617629" lon="126.72220701"><ele>132.652587890625</ele><time>2025-02-20T01:52:51Z</time></trkpt>
<trkpt lat="37.5562439" lon="126.72212833"><ele>131.9564208984375</ele><time>2025-02-20T01:53:00Z</time></trkpt>
<trkpt lat="37.55619436" lon="126.72202474"><ele>134.5667724609375</ele><time>2025-02-20T01:53:10Z</time></trkpt>
<trkpt lat="37.55612896" lon="126.72193811"><ele>137.152587890625</ele><time>2025-02-20T01:53:20Z</time></trkpt>
<trkpt lat="37.55606193" lon="126.72184911"><ele>139.0499267578125</ele><time>2025-02-20T01:53:31Z</time></trkpt>
<trkpt lat="37.55600064" lon="126.72176592"><ele>141.7945556640625</ele><time>2025-02-20T01:53:42Z</time></trkpt>
<trkpt lat="37.55605857" lon="126.7216771"><ele>142.9932861328125</ele><time>2025-02-20T01:53:50Z</time></trkpt>
<trkpt lat="37.55612035" lon="126.72158959"><ele>143.15496826171875</ele><time>2025-02-20T01:53:58Z</time></trkpt>
<trkpt lat="37.55619298" lon="126.72151286"><ele>141.88409423828125</ele><time>2025-02-20T01:54:06Z</time></trkpt>
<trkpt lat="37.55627835" lon="126.72146956"><ele>141.7484130859375</ele><time>2025-02-20T01:54:15Z</time></trkpt>
<trkpt lat="37.55634639" lon="126.72138954"><ele>141.9073486328125</ele><time>2025-02-20T01:54:22Z</time></trkpt>
<trkpt lat="37.55642116" lon="126.72130834"><ele>141.38232421875</ele><time>2025-02-20T01:54:29Z</time></trkpt>
<trkpt lat="37.55648268" lon="126.72122129"><ele>140.541259765625</ele><time>2025-02-20T01:54:36Z</time></trkpt>
<trkpt lat="37.5565653" lon="126.72117257"><ele>138.14453125</ele><time>2025-02-20T01:54:44Z</time></trkpt>
<trkpt lat="37.55665477" lon="126.72113948"><ele>137.5714111328125</ele><time>2025-02-20T01:54:52Z</time></trkpt>
<trkpt lat="37.55672528" lon="126.72105676"><ele>136.0015869140625</ele><time>2025-02-20T01:55:04Z</time></trkpt>
<trkpt lat="37.55679621" lon="126.72096706"><ele>136.14898681640625</ele><time>2025-02-20T01:55:12Z</time></trkpt>
<trkpt lat="37.55688197" lon="126.72091236"><ele>134.49493408203125</ele><time>2025-02-20T01:55:19Z</time></trkpt>
<trkpt lat="37.55692923" lon="126.72081124"><ele>133.73529052734375</ele><time>2025-02-20T01:55:26Z</time></trkpt>
<trkpt lat="37.55695848" lon="126.72069898"><ele>136.2813720703125</ele><time>2025-02-20T01:55:40Z</time></trkpt>
<trkpt lat="37.55704307" lon="126.7206352"><ele>135.3121337890625</ele><time>2025-02-20T01:55:49Z</time></trkpt>
<trkpt lat="37.55713889" lon="126.72062475"><ele>133.8363037109375</ele><time>2025-02-20T01:55:57Z</time></trkpt>
<trkpt lat="37.55723581" lon="126.72060081"><ele>134.2706298828125</ele><time>2025-02-20T01:56:07Z</time></trkpt>
<trkpt lat="37.55732541" lon="126.7205509"><ele>134.4639892578125</ele><time>2025-02-20T01:56:15Z</time></trkpt>
<trkpt lat="37.55741278" lon="126.72051229"><ele>135.25115966796875</ele><time>2025-02-20T01:56:23Z</time></trkpt>
<trkpt lat="37.55749287" lon="126.72044536"><ele>138.00091552734375</ele><time>2025-02-20T01:56:33Z</time></trkpt>
<trkpt lat="37.55751894" lon="126.7203322"><ele>139.78497314453125</ele><time>2025-02-20T01:56:41Z</time></trkpt>
<trkpt lat="37.55755804" lon="126.72022924"><ele>139.966796875</ele><time>2025-02-20T01:56:51Z</time></trkpt>
<trkpt lat="37.55761214" lon="126.72013111"><ele>138.77203369140625</ele><time>2025-02-20T01:57:01Z</time></trkpt>
<trkpt lat="37.5576723" lon="126.7200414"><ele>138.57586669921875</ele><time>2025-02-20T01:57:08Z</time></trkpt>
<trkpt lat="37.55773177" lon="126.71994255"><ele>137.6343994140625</ele><time>2025-02-20T01:57:16Z</time></trkpt>
<trkpt lat="37.55776364" lon="126.71982412"><ele>137.5826416015625</ele><time>2025-02-20T01:57:24Z</time></trkpt>
<trkpt lat="37.55776776" lon="126.71970661"><ele>139.22821044921875</ele><time>2025-02-20T01:57:33Z</time></trkpt>
<trkpt lat="37.55776711" lon="126.71959201"><ele>139.1754150390625</ele><time>2025-02-20T01:57:40Z</time></trkpt>
<trkpt lat="37.55775914" lon="126.71946646"><ele>138.269287109375</ele><time>2025-02-20T01:57:48Z</time></trkpt>
<trkpt lat="37.55775069" lon="126.71934108"><ele>138.07061767578125</ele><time>2025-02-20T01:57:56Z</time></trkpt>
<trkpt lat="37.5578031" lon="126.71924047"><ele>139.07568359375</ele><time>2025-02-20T01:58:03Z</time></trkpt>
<trkpt lat="37.55789472" lon="126.71917983"><ele>138.9404296875</ele><time>2025-02-20T01:58:18Z</time></trkpt>
<trkpt lat="37.55798259" lon="126.71911838"><ele>138.5966796875</ele><time>2025-02-20T01:58:26Z</time></trkpt>
<trkpt lat="37.55807129" lon="126.71907417"><ele>136.78662109375</ele><time>2025-02-20T01:58:33Z</time></trkpt>
<trkpt lat="37.55816216" lon="126.71903169"><ele>135.0877685546875</ele><time>2025-02-20T01:58:40Z</time></trkpt>
<trkpt lat="37.55825101" lon="126.71899394"><ele>134.2825927734375</ele><time>2025-02-20T01:58:47Z</time></trkpt>
<trkpt lat="37.55832852" lon="126.71893109"><ele>132.73974609375</ele><time>2025-02-20T01:58:54Z</time></trkpt>
<trkpt lat="37.55834844" lon="126.71881393"><ele>131.366455078125</ele><time>2025-02-20T01:59:01Z</time></trkpt>
<trkpt lat="37.55839054" lon="126.71871069"><ele>134.38165283203125</ele><time>2025-02-20T01:59:10Z</time></trkpt>
<trkpt lat="37.55843326" lon="126.71860431"><ele>133.7694091796875</ele><time>2025-02-20T01:59:17Z</time></trkpt>
<trkpt lat="37.55849555" lon="126.71850036"><ele>133.6937255859375</ele><time>2025-02-20T01:59:24Z</time></trkpt>
<trkpt lat="37.55855417" lon="126.71839997"><ele>132.38592529296875</ele><time>2025-02-20T01:59:32Z</time></trkpt>
<trkpt lat="37.55862031" lon="126.71831075"><ele>131.491943359375</ele><time>2025-02-20T01:59:39Z</time></trkpt>
<trkpt lat="37.55866239" lon="126.7181955"><ele>134.5791015625</ele><time>2025-02-20T01:59:47Z</time></trkpt>
<trkpt lat="37.5587269" lon="126.71810029"><ele>136.11688232421875</ele><time>2025-02-20T01:59:57Z</time></trkpt>
<trkpt lat="37.55879381" lon="126.71801689"><ele>133.9752197265625</ele><time>2025-02-20T02:00:04Z</time></trkpt>
<trkpt lat="37.55885631" lon="126.7179292"><ele>130.80731201171875</ele><time>2025-02-20T02:00:11Z</time></trkpt>
<trkpt lat="37.55891668" lon="126.71783621"><ele>132.1295166015625</ele><time>2025-02-20T02:00:18Z</time></trkpt>
<trkpt lat="37.55899322" lon="126.71777406"><ele>134.677490234375</ele><time>2025-02-20T02:00:26Z</time></trkpt>
<trkpt lat="37.55905592" lon="126.71768156"><ele>137.835205078125</ele><time>2025-02-20T02:00:35Z</time></trkpt>
<trkpt lat="37.55909567" lon="126.71756045"><ele>139.1451416015625</ele><time>2025-02-20T02:00:44Z</time></trkpt>
<trkpt lat="37.55912251" lon="126.71743945"><ele>140.13787841796875</ele><time>2025-02-20T02:00:52Z</time></trkpt>
<trkpt lat="37.55914654" lon="126.71732649"><ele>138.40618896484375</ele><time>2025-02-20T02:01:00Z</time></trkpt>
<trkpt lat="37.55920782" lon="126.7172315"><ele>136.984130859375</ele><time>2025-02-20T02:01:08Z</time></trkpt>
<trkpt lat="37.55927753" lon="126.7171516"><ele>136.9732666015625</ele><time>2025-02-20T02:01:15Z</time></trkpt>
<trkpt lat="37.55935086" lon="126.71706893"><ele>136.32427978515625</ele><time>2025-02-20T02:01:22Z</time></trkpt>
<trkpt lat="37.55943663" lon="126.71700417"><ele>136.7423095703125</ele><time>2025-02-20T02:01:30Z</time></trkpt>
<trkpt lat="37.55942675" lon="126.7168872"><ele>135.71630859375</ele><time>2025-02-20T02:01:41Z</time></trkpt>
<trkpt lat="37.55949392" lon="126.7167972"><ele>134.5230712890625</ele><time>2025-02-20T02:01:49Z</time></trkpt>
<trkpt lat="37.55957656" lon="126.71671634"><ele>134.7310791015625</ele><time>2025-02-20T02:01:56Z</time></trkpt>
<trkpt lat="37.55965007" lon="126.71664341"><ele>135.04071044921875</ele><time>2025-02-20T02:02:02Z</time></trkpt>
<trkpt lat="37.559741" lon="126.71658188"><ele>135.3406982421875</ele><time>2025-02-20T02:02:08Z</time></trkpt>
<trkpt lat="37.55983734" lon="126.71655244"><ele>133.877685546875</ele><time>2025-02-20T02:02:14Z</time></trkpt>
<trkpt lat="37.55993331" lon="126.71655275"><ele>130.79345703125</ele><time>2025-02-20T02:02:20Z</time></trkpt>
<trkpt lat="37.56002467" lon="126.71653783"><ele>130.1341552734375</ele><time>2025-02-20T02:02:25Z</time></trkpt>
<trkpt lat="37.56010173" lon="126.71646715"><ele>129.89312744140625</ele><time>2025-02-20T02:02:32Z</time></trkpt>
<trkpt lat="37.56017977" lon="126.71639663"><ele>127.15252685546875</ele><time>2025-02-20T02:02:39Z</time></trkpt>
<trkpt lat="37.56023766" lon="126.71630582"><ele>129.3033447265625</ele><time>2025-02-20T02:02:46Z</time></trkpt>
<trkpt lat="37.56026058" lon="126.71619468"><ele>128.3106689453125</ele><time>2025-02-20T02:02:53Z</time></trkpt>
<trkpt lat="37.56026282" lon="126.71607109"><ele>126.4437255859375</ele><time>2025-02-20T02:03:00Z</time></trkpt>
<trkpt lat="37.56028416" lon="126.7159524"><ele>126.4249267578125</ele><time>2025-02-20T02:03:07Z</time></trkpt>
<trkpt lat="37.5603401" lon="126.71584826"><ele>125.62396240234375</ele><time>2025-02-20T02:03:15Z</time></trkpt>
<trkpt lat="37.5604226" lon="126.71579119"><ele>122.5953369140625</ele><time>2025-02-20T02:03:54Z</time></trkpt>
<trkpt lat="37.5604967" lon="126.71570492"><ele>121.3680419921875</ele><time>2025-02-20T02:04:02Z</time></trkpt>
<trkpt lat="37.56058551" lon="126.71565281"><ele>119.3748779296875</ele><time>2025-02-20T02:04:09Z</time></trkpt>
<trkpt lat="37.56066567" lon="126.71559382"><ele>120.72393798828125</ele><time>2025-02-20T02:04:16Z</time></trkpt>
<trkpt lat="37.56075737" lon="126.71558164"><ele>121.257568359375</ele><time>2025-02-20T02:04:24Z</time></trkpt>
<trkpt lat="37.56084371" lon="126.71552515"><ele>120.5235595703125</ele><time>2025-02-20T02:04:31Z</time></trkpt>
<trkpt lat="37.56093417" lon="126.71547624"><ele>119.7056884765625</ele><time>2025-02-20T02:04:39Z</time></trkpt>
<trkpt lat="37.56098778" lon="126.71537889"><ele>118.25933837890625</ele><time>2025-02-20T02:04:46Z</time></trkpt>
<trkpt lat="37.56103281" lon="126.71527413"><ele>117.50390625</ele><time>2025-02-20T02:05:03Z</time></trkpt>
<trkpt lat="37.56109732" lon="126.71519018"><ele>116.66815185546875</ele><time>2025-02-20T02:05:10Z</time></trkpt>
<trkpt lat="37.56113112" lon="126.7150846"><ele>119.246826171875</ele><time>2025-02-20T02:05:17Z</time></trkpt>
<trkpt lat="37.56120581" lon="126.7150139"><ele>117.4366455078125</ele><time>2025-02-20T02:05:25Z</time></trkpt>
<trkpt lat="37.56124739" lon="126.71490274"><ele>119.54571533203125</ele><time>2025-02-20T02:05:33Z</time></trkpt>
<trkpt lat="37.56131192" lon="126.7148114"><ele>122.181396484375</ele><time>2025-02-20T02:05:41Z</time></trkpt>
<trkpt lat="37.56137786" lon="126.71472716"><ele>120.63787841796875</ele><time>2025-02-20T02:05:50Z</time></trkpt>
<trkpt lat="37.56143627" lon="126.71463029"><ele>121.5599365234375</ele><time>2025-02-20T02:05:59Z</time></trkpt>
<trkpt lat="37.56151045" lon="126.7145519"><ele>123.84185791015625</ele><time>2025-02-20T02:06:08Z</time></trkpt>
<trkpt lat="37.56159817" lon="126.71451391"><ele>126.7396240234375</ele><time>2025-02-20T02:06:16Z</time></trkpt>
<trkpt lat="37.56168739" lon="126.71447688"><ele>128.1470947265625</ele><time>2025-02-20T02:06:24Z</time></trkpt>
<trkpt lat="37.56177515" lon="126.71442949"><ele>130.1253662109375</ele><time>2025-02-20T02:06:32Z</time></trkpt>
<trkpt lat="37.56186866" lon="126.71439982"><ele>131.85858154296875</ele><time>2025-02-20T02:06:39Z</time></trkpt>
<trkpt lat="37.56196039" lon="126.71439171"><ele>132.429443359375</ele><time>2025-02-20T02:06:46Z</time></trkpt>
<trkpt lat="37.56205888" lon="126.71440382"><ele>132.050048828125</ele><time>2025-02-20T02:06:54Z</time></trkpt>
<trkpt lat="37.56214665" lon="126.71444235"><ele>131.62042236328125</ele><time>2025-02-20T02:07:01Z</time></trkpt>
<trkpt lat="37.56223507" lon="126.71441762"><ele>131.368408203125</ele><time>2025-02-20T02:07:22Z</time></trkpt>
<trkpt lat="37.56225353" lon="126.71430227"><ele>130.02880859375</ele><time>2025-02-20T02:07:28Z</time></trkpt>
<trkpt lat="37.56230738" lon="126.71419494"><ele>129.3837890625</ele><time>2025-02-20T02:07:39Z</time></trkpt>
<trkpt lat="37.5623396" lon="126.71407675"><ele>126.6514892578125</ele><time>2025-02-20T02:07:47Z</time></trkpt>
<trkpt lat="37.56236884" lon="126.71395161"><ele>123.6656494140625</ele><time>2025-02-20T02:07:55Z</time></trkpt>
<trkpt lat="37.56241301" lon="126.71383854"><ele>124.433349609375</ele><time>2025-02-20T02:08:02Z</time></trkpt>
<trkpt lat="37.56246461" lon="126.7137251"><ele>120.891845703125</ele><time>2025-02-20T02:08:09Z</time></trkpt>
<trkpt lat="37.5625507" lon="126.71365587"><ele>117.6925048828125</ele><time>2025-02-20T02:08:16Z</time></trkpt>
<trkpt lat="37.5626338" lon="126.71357559"><ele>117.54840087890625</ele><time>2025-02-20T02:08:23Z</time></trkpt>
<trkpt lat="37.56269348" lon="126.71347946"><ele>115.3526611328125</ele><time>2025-02-20T02:08:30Z</time></trkpt>
<trkpt lat="37.5627387" lon="126.71336937"><ele>116.2978515625</ele><time>2025-02-20T02:08:37Z</time></trkpt>
<trkpt lat="37.56278181" lon="126.71326453"><ele>113.5050048828125</ele><time>2025-02-20T02:08:43Z</time></trkpt>
<trkpt lat="37.56281665" lon="126.71315364"><ele>113.468505859375</ele><time>2025-02-20T02:08:49Z</time></trkpt>
<trkpt lat="37.56283566" lon="126.71303269"><ele>112.82672119140625</ele><time>2025-02-20T02:08:55Z</time></trkpt>
<trkpt lat="37.56288514" lon="126.71292175"><ele>112.18780517578125</ele><time>2025-02-20T02:09:01Z</time></trkpt>
<trkpt lat="37.5629161" lon="126.7128151"><ele>112.54693603515625</ele><time>2025-02-20T02:09:07Z</time></trkpt>
<trkpt lat="37.56295463" lon="126.71269607"><ele>112.2608642578125</ele><time>2025-02-20T02:09:13Z</time></trkpt>
<trkpt lat="37.56300244" lon="126.71258981"><ele>110.78143310546875</ele><time>2025-02-20T02:09:19Z</time></trkpt>
<trkpt lat="37.56305788" lon="126.71250039"><ele>110.68975830078125</ele><time>2025-02-20T02:09:25Z</time></trkpt>
<trkpt lat="37.5630771" lon="126.71237514"><ele>109.6087646484375</ele><time>2025-02-20T02:09:31Z</time></trkpt>
<trkpt lat="37.56310175" lon="126.71225156"><ele>106.6593017578125</ele><time>2025-02-20T02:09:38Z</time></trkpt>
<trkpt lat="37.56312238" lon="126.71213841"><ele>107.54388427734375</ele><time>2025-02-20T02:09:44Z</time></trkpt>
<trkpt lat="37.5631567" lon="126.71202724"><ele>107.5289306640625</ele><time>2025-02-20T02:09:50Z</time></trkpt>
<trkpt lat="37.56319851" lon="126.71192021"><ele>107.904052734375</ele><time>2025-02-20T02:09:56Z</time></trkpt>
<trkpt lat="37.56320326" lon="126.7117994"><ele>107.33489990234375</ele><time>2025-02-20T02:10:02Z</time></trkpt>
<trkpt lat="37.56322541" lon="126.7116719"><ele>106.3800048828125</ele><time>2025-02-20T02:10:09Z</time></trkpt>
<trkpt lat="37.56324166" lon="126.71155395"><ele>104.52294921875</ele><time>2025-02-20T02:10:15Z</time></trkpt>
<trkpt lat="37.56326786" lon="126.71143928"><ele>104.7037353515625</ele><time>2025-02-20T02:10:21Z</time></trkpt>
<trkpt lat="37.56331105" lon="126.71132035"><ele>104.30145263671875</ele><time>2025-02-20T02:10:28Z</time></trkpt>
<trkpt lat="37.56332586" lon="126.71120674"><ele>102.894775390625</ele><time>2025-02-20T02:10:34Z</time></trkpt>
<trkpt lat="37.56333677" lon="126.71108713"><ele>101.0865478515625</ele><time>2025-02-20T02:10:40Z</time></trkpt>
<trkpt lat="37.56334706" lon="126.71097311"><ele>99.9410400390625</ele><time>2025-02-20T02:10:46Z</time></trkpt>
<trkpt lat="37.56335436" lon="126.71086029"><ele>98.75445556640625</ele><time>2025-02-20T02:10:52Z</time></trkpt>
<trkpt lat="37.56335765" lon="126.71074268"><ele>97.51593017578125</ele><time>2025-02-20T02:10:58Z</time></trkpt>
<trkpt lat="37.56337446" lon="126.71061617"><ele>96.09307861328125</ele><time>2025-02-20T02:11:05Z</time></trkpt>
<trkpt lat="37.56333979" lon="126.71050249"><ele>97.1807861328125</ele><time>2025-02-20T02:11:12Z</time></trkpt>
<trkpt lat="37.56332683" lon="126.71038229"><ele>95.97833251953125</ele><time>2025-02-20T02:11:20Z</time></trkpt>
<trkpt lat="37.56331612" lon="126.71026237"><ele>94.7122802734375</ele><time>2025-02-20T02:11:27Z</time></trkpt>
<trkpt lat="37.56327645" lon="126.71014881"><ele>97.44342041015625</ele><time>2025-02-20T02:11:35Z</time></trkpt>
<trkpt lat="37.563217" lon="126.71006116"><ele>96.1219482421875</ele><time>2025-02-20T02:11:43Z</time></trkpt>
<trkpt lat="37.56315513" lon="126.70996653"><ele>95.46728515625</ele><time>2025-02-20T02:11:51Z</time></trkpt>
<trkpt lat="37.56320316597638" lon="126.70988588485143"><ele>86.35374450683594</ele><time>2025-02-20T02:13:53Z</time></trkpt>
<trkpt lat="37.563258746697564" lon="126.70979387086676"><ele>85.1729965209961</ele><time>2025-02-20T02:14:04Z</time></trkpt>
<trkpt lat="37.56330491" lon="126.70966712"><ele>90.82379150390625</ele><time>2025-02-20T02:14:11Z</time></trkpt>
<trkpt lat="37.56337416839667" lon="126.70957410552252"><ele>82.96862030029297</ele><time>2025-02-20T02:14:18Z</time></trkpt>
<trkpt lat="37.56343222" lon="126.70946943"><ele>87.5350341796875</ele><time>2025-02-20T02:14:25Z</time></trkpt>
<trkpt lat="37.563483325322714" lon="126.7093644293883"><ele>81.55145263671875</ele><time>2025-02-20T02:14:32Z</time></trkpt>
<trkpt lat="37.563538452978364" lon="126.70926315220902"><ele>80.99787139892578</ele><time>2025-02-20T02:14:38Z</time></trkpt>
<trkpt lat="37.56359842" lon="126.70916633"><ele>85.268310546875</ele><time>2025-02-20T02:14:45Z</time></trkpt>
<trkpt lat="37.56365232" lon="126.70906213"><ele>83.73590087890625</ele><time>2025-02-20T02:14:52Z</time></trkpt>
<trkpt lat="37.56367824" lon="126.70895107"><ele>83.0574951171875</ele><time>2025-02-20T02:14:59Z</time></trkpt>
<trkpt lat="37.56364022531156" lon="126.70883960889547"><ele>75.07456970214844</ele><time>2025-02-20T02:15:07Z</time></trkpt>
<trkpt lat="37.56367505019824" lon="126.7087217944775"><ele>73.46730041503906</ele><time>2025-02-20T02:15:16Z</time></trkpt>
<trkpt lat="37.563698001035945" lon="126.7086287232541"><ele>74.76493835449219</ele><time>2025-02-20T02:15:26Z</time></trkpt>
<trkpt lat="37.56374424142588" lon="126.70854333662705"><ele>75.6917953491211</ele><time>2025-02-20T02:15:32Z</time></trkpt>
<trkpt lat="37.56378526939874" lon="126.70844386668648"><ele>75.31267547607422</ele><time>2025-02-20T02:15:38Z</time></trkpt>
<trkpt lat="37.56383672059541" lon="126.70833067441804"><ele>73.65229034423828</ele><time>2025-02-20T02:15:45Z</time></trkpt>
<trkpt lat="37.56387136" lon="126.7082065"><ele>79.33319091796875</ele><time>2025-02-20T02:15:52Z</time></trkpt>
<trkpt lat="37.56392357" lon="126.70809723"><ele>78.62701416015625</ele><time>2025-02-20T02:15:59Z</time></trkpt>
<trkpt lat="37.56398124" lon="126.70799335"><ele>79.484619140625</ele><time>2025-02-20T02:16:06Z</time></trkpt>
<trkpt lat="37.56405193056472" lon="126.70791765098562"><ele>68.04959869384766</ele><time>2025-02-20T02:16:13Z</time></trkpt>
<trkpt lat="37.56413306" lon="126.70786083"><ele>77.697509765625</ele><time>2025-02-20T02:16:20Z</time></trkpt>
<trkpt lat="37.56420443" lon="126.70778854"><ele>77.2061767578125</ele><time>2025-02-20T02:16:29Z</time></trkpt>
<trkpt lat="37.5642607" lon="126.70769415"><ele>76.44677734375</ele><time>2025-02-20T02:16:36Z</time></trkpt>
<trkpt lat="37.56431701" lon="126.70760125"><ele>75.7412109375</ele><time>2025-02-20T02:16:43Z</time></trkpt>
<trkpt lat="37.56441429" lon="126.70760856"><ele>75.42510986328125</ele><time>2025-02-20T02:16:53Z</time></trkpt>
<trkpt lat="37.56432216" lon="126.70758919"><ele>75.12744140625</ele><time>2025-02-20T02:18:07Z</time></trkpt>
<trkpt lat="37.56425979" lon="126.70767643"><ele>73.86126708984375</ele><time>2025-02-20T02:18:14Z</time></trkpt>
<trkpt lat="37.5641873" lon="126.70775809"><ele>73.5712890625</ele><time>2025-02-20T02:18:21Z</time></trkpt>
<trkpt lat="37.56411259" lon="126.70783595"><ele>74.77130126953125</ele><time>2025-02-20T02:18:28Z</time></trkpt>
<trkpt lat="37.5640305" lon="126.70791207"><ele>76.352294921875</ele><time>2025-02-20T02:18:36Z</time></trkpt>
<trkpt lat="37.563959155664676" lon="126.70800852944774"><ele>70.19068145751953</ele><time>2025-02-20T02:18:44Z</time></trkpt>
<trkpt lat="37.56390064895369" lon="126.70810861055226"><ele>72.29570770263672</ele><time>2025-02-20T02:18:51Z</time></trkpt>
<trkpt lat="37.56386967" lon="126.70820808"><ele>79.0665283203125</ele><time>2025-02-20T02:19:00Z</time></trkpt>
<trkpt lat="37.56382327623169" lon="126.70832660276126"><ele>74.12680053710938</ele><time>2025-02-20T02:19:17Z</time></trkpt>
<trkpt lat="37.563801396230296" lon="126.70844144055222"><ele>75.1103515625</ele><time>2025-02-20T02:19:24Z</time></trkpt>
<trkpt lat="37.56376690633583" lon="126.70855507558197"><ele>74.36839294433594</ele><time>2025-02-20T02:19:31Z</time></trkpt>
<trkpt lat="37.56371934" lon="126.70865663"><ele>80.01788330078125</ele><time>2025-02-20T02:19:38Z</time></trkpt>
<trkpt lat="37.56368548" lon="126.70876152"><ele>81.843994140625</ele><time>2025-02-20T02:19:44Z</time></trkpt>
<trkpt lat="37.56365023" lon="126.70887554"><ele>82.721435546875</ele><time>2025-02-20T02:19:51Z</time></trkpt>
<trkpt lat="37.56365792794791" lon="126.70898284723874"><ele>75.97673034667969</ele><time>2025-02-20T02:19:59Z</time></trkpt>
<trkpt lat="37.56362228243789" lon="126.70909005779097"><ele>78.02037811279297</ele><time>2025-02-20T02:20:08Z</time></trkpt>
<trkpt lat="37.563574317747275" lon="126.70917847447747"><ele>79.49382781982422</ele><time>2025-02-20T02:20:15Z</time></trkpt>
<trkpt lat="37.56351452080787" lon="126.70927219226844"><ele>80.947509765625</ele><time>2025-02-20T02:20:23Z</time></trkpt>
<trkpt lat="37.56346012854649" lon="126.70936478061168"><ele>81.39967346191406</ele><time>2025-02-20T02:20:30Z</time></trkpt>
<trkpt lat="37.56341352394378" lon="126.7094764550297"><ele>81.9208984375</ele><time>2025-02-20T02:20:38Z</time></trkpt>
<trkpt lat="37.56336292" lon="126.70956786"><ele>90.35638427734375</ele><time>2025-02-20T02:20:46Z</time></trkpt>
<trkpt lat="37.56329905" lon="126.70965177"><ele>91.4786376953125</ele><time>2025-02-20T02:21:26Z</time></trkpt>
<trkpt lat="37.56325572" lon="126.70976187"><ele>92.58551025390625</ele><time>2025-02-20T02:21:35Z</time></trkpt>
<trkpt lat="37.56320718" lon="126.70986139"><ele>92.9053955078125</ele><time>2025-02-20T02:21:43Z</time></trkpt>
<trkpt lat="37.56315223" lon="126.70995187"><ele>93.94073486328125</ele><time>2025-02-20T02:21:52Z</time></trkpt>
<trkpt lat="37.56311853" lon="126.70984673"><ele>92.2413330078125</ele><time>2025-02-20T02:23:15Z</time></trkpt>
<trkpt lat="37.56303292" lon="126.70979685"><ele>93.85455322265625</ele><time>2025-02-20T02:23:34Z</time></trkpt>
<trkpt lat="37.56294292" lon="126.70980355"><ele>91.69830322265625</ele><time>2025-02-20T02:25:33Z</time></trkpt>
<trkpt lat="37.56286148" lon="126.70985629"><ele>91.7216796875</ele><time>2025-02-20T02:25:57Z</time></trkpt>
<trkpt lat="37.56277845" lon="126.70991553"><ele>92.863525390625</ele><time>2025-02-20T02:26:06Z</time></trkpt>
<trkpt lat="37.56268716" lon="126.70990829"><ele>94.74859619140625</ele><time>2025-02-20T02:26:55Z</time></trkpt>
<trkpt lat="37.56259121" lon="126.70992854"><ele>99.44293212890625</ele><time>2025-02-20T02:28:04Z</time></trkpt>
<trkpt lat="37.56250459" lon="126.70989528"><ele>99.45904541015625</ele><time>2025-02-20T02:28:20Z</time></trkpt>
<trkpt lat="37.56242994" lon="126.70981186"><ele>96.669677734375</ele><time>2025-02-20T02:28:33Z</time></trkpt>
<trkpt lat="37.56233537" lon="126.70977161"><ele>94.25872802734375</ele><time>2025-02-20T02:28:47Z</time></trkpt>
<trkpt lat="37.56224982" lon="126.70973232"><ele>96.0631103515625</ele><time>2025-02-20T02:28:56Z</time></trkpt>
<trkpt lat="37.56216013" lon="126.70969303"><ele>97.4053955078125</ele><time>2025-02-20T02:29:06Z</time></trkpt>
<trkpt lat="37.56206984" lon="126.70973072"><ele>98.86505126953125</ele><time>2025-02-20T02:29:20Z</time></trkpt>
<trkpt lat="37.56197785" lon="126.70972362"><ele>100.74761962890625</ele><time>2025-02-20T02:29:28Z</time></trkpt>
<trkpt lat="37.56188427" lon="126.70968901"><ele>101.14398193359375</ele><time>2025-02-20T02:29:37Z</time></trkpt>
<trkpt lat="37.56179664" lon="126.7096272"><ele>101.71923828125</ele><time>2025-02-20T02:29:45Z</time></trkpt>
<trkpt lat="37.56171412" lon="126.70968191"><ele>102.66790771484375</ele><time>2025-02-20T02:29:53Z</time></trkpt>
<trkpt lat="37.56161636" lon="126.70970451"><ele>105.87274169921875</ele><time>2025-02-20T02:30:04Z</time></trkpt>
<trkpt lat="37.56152923" lon="126.70973479"><ele>106.3206787109375</ele><time>2025-02-20T02:30:12Z</time></trkpt>
<trkpt lat="37.56143667" lon="126.70977048"><ele>106.641845703125</ele><time>2025-02-20T02:30:21Z</time></trkpt>
<trkpt lat="37.56135675" lon="126.70971787"><ele>107.86602783203125</ele><time>2025-02-20T02:30:29Z</time></trkpt>
<trkpt lat="37.56127364" lon="126.70964916"><ele>108.214111328125</ele><time>2025-02-20T02:30:37Z</time></trkpt>
<trkpt lat="37.56117689" lon="126.70964719"><ele>108.51849365234375</ele><time>2025-02-20T02:30:45Z</time></trkpt>
<trkpt lat="37.56109231" lon="126.7096895"><ele>109.434814453125</ele><time>2025-02-20T02:30:53Z</time></trkpt>
<trkpt lat="37.56099292" lon="126.70968008"><ele>110.20391845703125</ele><time>2025-02-20T02:31:01Z</time></trkpt>
<trkpt lat="37.56090067" lon="126.70969098"><ele>112.1063232421875</ele><time>2025-02-20T02:31:09Z</time></trkpt>
<trkpt lat="37.56081548" lon="126.70972988"><ele>112.86749267578125</ele><time>2025-02-20T02:31:17Z</time></trkpt>
<trkpt lat="37.56071619" lon="126.70973247"><ele>114.49993896484375</ele><time>2025-02-20T02:31:26Z</time></trkpt>
<trkpt lat="37.56062427" lon="126.70969841"><ele>116.83721923828125</ele><time>2025-02-20T02:31:35Z</time></trkpt>
<trkpt lat="37.5605297" lon="126.70965699"><ele>119.1943359375</ele><time>2025-02-20T02:31:45Z</time></trkpt>
<trkpt lat="37.56043004" lon="126.70966842"><ele>121.668212890625</ele><time>2025-02-20T02:31:55Z</time></trkpt>
<trkpt lat="37.56034101" lon="126.70968903"><ele>122.5018310546875</ele><time>2025-02-20T02:32:04Z</time></trkpt>
<trkpt lat="37.56028012" lon="126.70960403"><ele>123.2567138671875</ele><time>2025-02-20T02:32:12Z</time></trkpt>
<trkpt lat="37.5601947" lon="126.70956246"><ele>123.01324462890625</ele><time>2025-02-20T02:32:20Z</time></trkpt>
<trkpt lat="37.56012137" lon="126.7096475"><ele>123.8360595703125</ele><time>2025-02-20T02:32:29Z</time></trkpt>
<trkpt lat="37.560094" lon="126.70976102"><ele>126.57135009765625</ele><time>2025-02-20T02:32:37Z</time></trkpt>
<trkpt lat="37.5599958" lon="126.70978618"><ele>128.389892578125</ele><time>2025-02-20T02:32:46Z</time></trkpt>
<trkpt lat="37.5599004" lon="126.70977822"><ele>131.1903076171875</ele><time>2025-02-20T02:32:55Z</time></trkpt>
<trkpt lat="37.55981035" lon="126.70983301"><ele>132.35186767578125</ele><time>2025-02-20T02:33:04Z</time></trkpt>
<trkpt lat="37.55972142" lon="126.70987322"><ele>133.48370361328125</ele><time>2025-02-20T02:33:13Z</time></trkpt>
<trkpt lat="37.55962312" lon="126.70988776"><ele>135.9697265625</ele><time>2025-02-20T02:33:23Z</time></trkpt>
<trkpt lat="37.55952574" lon="126.70989752"><ele>137.05474853515625</ele><time>2025-02-20T02:33:33Z</time></trkpt>
<trkpt lat="37.559429" lon="126.70989796"><ele>140.0677490234375</ele><time>2025-02-20T02:33:43Z</time></trkpt>
<trkpt lat="37.55936622" lon="126.7099825"><ele>144.52142333984375</ele><time>2025-02-20T02:33:54Z</time></trkpt>
<trkpt lat="37.55927303" lon="126.70995896"><ele>146.81622314453125</ele><time>2025-02-20T02:34:03Z</time></trkpt>
<trkpt lat="37.5591766" lon="126.70997491"><ele>148.50885009765625</ele><time>2025-02-20T02:34:13Z</time></trkpt>
<trkpt lat="37.55910388" lon="126.71004381"><ele>150.53814697265625</ele><time>2025-02-20T02:34:23Z</time></trkpt>
<trkpt lat="37.55901012" lon="126.71004384"><ele>153.68695068359375</ele><time>2025-02-20T02:34:33Z</time></trkpt>
<trkpt lat="37.55891954" lon="126.7100406"><ele>157.2568359375</ele><time>2025-02-20T02:34:44Z</time></trkpt>
<trkpt lat="37.55882726" lon="126.71000836"><ele>159.3057861328125</ele><time>2025-02-20T02:34:54Z</time></trkpt>
<trkpt lat="37.55874411" lon="126.70996253"><ele>160.31842041015625</ele><time>2025-02-20T02:35:03Z</time></trkpt>
<trkpt lat="37.55865434" lon="126.70990571"><ele>161.5765380859375</ele><time>2025-02-20T02:35:12Z</time></trkpt>
<trkpt lat="37.55859711" lon="126.70980385"><ele>161.267578125</ele><time>2025-02-20T02:35:21Z</time></trkpt>
<trkpt lat="37.55852886" lon="126.70972629"><ele>161.7767333984375</ele><time>2025-02-20T02:35:28Z</time></trkpt>
<trkpt lat="37.55845651" lon="126.70965874"><ele>161.1708984375</ele><time>2025-02-20T02:35:35Z</time></trkpt>
<trkpt lat="37.55838349" lon="126.709591"><ele>162.5740966796875</ele><time>2025-02-20T02:35:42Z</time></trkpt>
<trkpt lat="37.55829259" lon="126.70954955"><ele>161.195068359375</ele><time>2025-02-20T02:35:50Z</time></trkpt>
<trkpt lat="37.55820371" lon="126.70951412"><ele>160.57781982421875</ele><time>2025-02-20T02:35:57Z</time></trkpt>
<trkpt lat="37.55812333" lon="126.70946127"><ele>160.57373046875</ele><time>2025-02-20T02:36:04Z</time></trkpt>
<trkpt lat="37.55802348" lon="126.70944947"><ele>162.4296875</ele><time>2025-02-20T02:36:14Z</time></trkpt>
<trkpt lat="37.55798847" lon="126.70933067"><ele>159.707763671875</ele><time>2025-02-20T02:36:22Z</time></trkpt>
<trkpt lat="37.55793159" lon="126.70922695"><ele>161.62359619140625</ele><time>2025-02-20T02:36:30Z</time></trkpt>
<trkpt lat="37.5578753" lon="126.70913202"><ele>162.791015625</ele><time>2025-02-20T02:36:38Z</time></trkpt>
<trkpt lat="37.5578187" lon="126.70903071"><ele>164.7137451171875</ele><time>2025-02-20T02:36:45Z</time></trkpt>
<trkpt lat="37.55772939" lon="126.70897204"><ele>166.29010009765625</ele><time>2025-02-20T02:36:53Z</time></trkpt>
<trkpt lat="37.55765369" lon="126.70890658"><ele>166.421142578125</ele><time>2025-02-20T02:37:00Z</time></trkpt>
<trkpt lat="37.55758397" lon="126.70882145"><ele>167.117919921875</ele><time>2025-02-20T02:37:07Z</time></trkpt>
<trkpt lat="37.55751479" lon="126.70874148"><ele>168.13525390625</ele><time>2025-02-20T02:37:14Z</time></trkpt>
<trkpt lat="37.55747464" lon="126.70863218"><ele>167.94189453125</ele><time>2025-02-20T02:37:22Z</time></trkpt>
<trkpt lat="37.55740818" lon="126.70854111"><ele>167.4935302734375</ele><time>2025-02-20T02:37:30Z</time></trkpt>
<trkpt lat="37.55734337" lon="126.70845345"><ele>168.21624755859375</ele><time>2025-02-20T02:37:38Z</time></trkpt>
<trkpt lat="37.55724775" lon="126.70842817"><ele>169.4459228515625</ele><time>2025-02-20T02:37:47Z</time></trkpt>
<trkpt lat="37.55716649" lon="126.70836804"><ele>169.82183837890625</ele><time>2025-02-20T02:37:55Z</time></trkpt>
<trkpt lat="37.5570948" lon="126.70828059"><ele>172.25555419921875</ele><time>2025-02-20T02:38:04Z</time></trkpt>
<trkpt lat="37.55699742" lon="126.70827712"><ele>173.39398193359375</ele><time>2025-02-20T02:38:13Z</time></trkpt>
<trkpt lat="37.55691059" lon="126.70830814"><ele>174.20294189453125</ele><time>2025-02-20T02:38:24Z</time></trkpt>
<trkpt lat="37.55684379" lon="126.70821509"><ele>173.31646728515625</ele><time>2025-02-20T02:39:55Z</time></trkpt>
<trkpt lat="37.55678518" lon="126.70812263"><ele>175.29705810546875</ele><time>2025-02-20T02:40:04Z</time></trkpt>
<trkpt lat="37.55673772" lon="126.70801679"><ele>183.04705810546875</ele><time>2025-02-20T02:40:16Z</time></trkpt>
<trkpt lat="37.5566613" lon="126.70795216"><ele>184.838623046875</ele><time>2025-02-20T02:40:29Z</time></trkpt>
<trkpt lat="37.55657146" lon="126.70793568"><ele>189.12548828125</ele><time>2025-02-20T02:40:45Z</time></trkpt>
<trkpt lat="37.55652733" lon="126.70783212"><ele>192.7335205078125</ele><time>2025-02-20T02:41:01Z</time></trkpt>
<trkpt lat="37.55646736" lon="126.707744"><ele>193.1656494140625</ele><time>2025-02-20T02:41:14Z</time></trkpt>
<trkpt lat="37.55639087" lon="126.70767435"><ele>197.019287109375</ele><time>2025-02-20T02:41:27Z</time></trkpt>
<trkpt lat="37.55630886" lon="126.70761423"><ele>201.56549072265625</ele><time>2025-02-20T02:44:08Z</time></trkpt>
<trkpt lat="37.55621154" lon="126.70758721"><ele>201.51104736328125</ele><time>2025-02-20T02:44:39Z</time></trkpt>
<trkpt lat="37.5561142" lon="126.70756076"><ele>201.3607177734375</ele><time>2025-02-20T02:44:46Z</time></trkpt>
<trkpt lat="37.55602095" lon="126.70755036"><ele>203.7845458984375</ele><time>2025-02-20T02:44:53Z</time></trkpt>
<trkpt lat="37.55592231" lon="126.70754085"><ele>205.71636962890625</ele><time>2025-02-20T02:45:00Z</time></trkpt>
<trkpt lat="37.55582994" lon="126.70751955"><ele>207.7952880859375</ele><time>2025-02-20T02:45:07Z</time></trkpt>
<trkpt lat="37.55574548" lon="126.70747769"><ele>207.4349365234375</ele><time>2025-02-20T02:45:14Z</time></trkpt>
<trkpt lat="37.55564957" lon="126.70749504"><ele>207.96923828125</ele><time>2025-02-20T02:45:21Z</time></trkpt>
<trkpt lat="37.55555489" lon="126.7075238"><ele>207.17669677734375</ele><time>2025-02-20T02:45:29Z</time></trkpt>
<trkpt lat="37.55546281" lon="126.70748051"><ele>204.6466064453125</ele><time>2025-02-20T02:45:37Z</time></trkpt>
<trkpt lat="37.55536539" lon="126.7074779"><ele>204.73028564453125</ele><time>2025-02-20T02:45:45Z</time></trkpt>
<trkpt lat="37.55527792" lon="126.70751232"><ele>204.6658935546875</ele><time>2025-02-20T02:45:52Z</time></trkpt>
<trkpt lat="37.55518363" lon="126.70752925"><ele>210.018310546875</ele><time>2025-02-20T02:46:02Z</time></trkpt>
<trkpt lat="37.55509879" lon="126.70756911"><ele>211.13458251953125</ele><time>2025-02-20T02:46:11Z</time></trkpt>
<trkpt lat="37.5550012" lon="126.70756002"><ele>210.20135498046875</ele><time>2025-02-20T02:46:21Z</time></trkpt>
<trkpt lat="37.55490797" lon="126.70754008"><ele>209.82183837890625</ele><time>2025-02-20T02:46:32Z</time></trkpt>
<trkpt lat="37.55482959" lon="126.70747188"><ele>204.6612548828125</ele><time>2025-02-20T02:46:42Z</time></trkpt>
<trkpt lat="37.55474032" lon="126.7074442"><ele>201.10845947265625</ele><time>2025-02-20T02:46:51Z</time></trkpt>
<trkpt lat="37.55464462" lon="126.70741132"><ele>200.22381591796875</ele><time>2025-02-20T02:46:58Z</time></trkpt>
<trkpt lat="37.55454995" lon="126.70736731"><ele>198.179931640625</ele><time>2025-02-20T02:47:06Z</time></trkpt>
<trkpt lat="37.55446463" lon="126.70732089"><ele>198.778564453125</ele><time>2025-02-20T02:47:13Z</time></trkpt>
<trkpt lat="37.55440489" lon="126.707228"><ele>200.52154541015625</ele><time>2025-02-20T02:47:20Z</time></trkpt>
<trkpt lat="37.55432154" lon="126.70715511"><ele>199.6446533203125</ele><time>2025-02-20T02:47:28Z</time></trkpt>
<trkpt lat="37.55422883" lon="126.70712291"><ele>198.572265625</ele><time>2025-02-20T02:47:35Z</time></trkpt>
<trkpt lat="37.55412457" lon="126.707113"><ele>198.46435546875</ele><time>2025-02-20T02:47:42Z</time></trkpt>
<trkpt lat="37.55403588" lon="126.70716354"><ele>197.3675537109375</ele><time>2025-02-20T02:47:48Z</time></trkpt>
<trkpt lat="37.55395347" lon="126.70721136"><ele>197.6864013671875</ele><time>2025-02-20T02:47:54Z</time></trkpt>
<trkpt lat="37.55386725" lon="126.7072654"><ele>195.58953857421875</ele><time>2025-02-20T02:48:01Z</time></trkpt>
<trkpt lat="37.55377524" lon="126.70731203"><ele>194.116455078125</ele><time>2025-02-20T02:48:09Z</time></trkpt>
<trkpt lat="37.55368983" lon="126.70735976"><ele>193.72308349609375</ele><time>2025-02-20T02:48:16Z</time></trkpt>
<trkpt lat="37.55360275" lon="126.70739486"><ele>192.90838623046875</ele><time>2025-02-20T02:48:23Z</time></trkpt>
<trkpt lat="37.55350868" lon="126.70741066"><ele>192.6839599609375</ele><time>2025-02-20T02:48:30Z</time></trkpt>
<trkpt lat="37.55342273" lon="126.70737534"><ele>192.446044921875</ele><time>2025-02-20T02:48:37Z</time></trkpt>
<trkpt lat="37.5533305" lon="126.70735182"><ele>193.67584228515625</ele><time>2025-02-20T02:48:49Z</time></trkpt>
<trkpt lat="37.55329945" lon="126.70723836"><ele>194.8941650390625</ele><time>2025-02-20T02:49:02Z</time></trkpt>
<trkpt lat="37.55326879" lon="126.70712465"><ele>200.675537109375</ele><time>2025-02-20T02:49:14Z</time></trkpt>
<trkpt lat="37.55321495" lon="126.7070232"><ele>196.5404052734375</ele><time>2025-02-20T02:49:23Z</time></trkpt>
<trkpt lat="37.55316487" lon="126.70692416"><ele>196.869384765625</ele><time>2025-02-20T02:49:31Z</time></trkpt>
<trkpt lat="37.55309204" lon="126.70684543"><ele>198.77496337890625</ele><time>2025-02-20T02:49:39Z</time></trkpt>
<trkpt lat="37.55300776" lon="126.70679578"><ele>201.396484375</ele><time>2025-02-20T02:49:47Z</time></trkpt>
<trkpt lat="37.55292783" lon="126.70673221"><ele>201.56585693359375</ele><time>2025-02-20T02:49:56Z</time></trkpt>
<trkpt lat="37.55284691" lon="126.70666754"><ele>202.40924072265625</ele><time>2025-02-20T02:50:04Z</time></trkpt>
<trkpt lat="37.55277161" lon="126.70660359"><ele>204.06317138671875</ele><time>2025-02-20T02:50:12Z</time></trkpt>
<trkpt lat="37.55268563" lon="126.70655037"><ele>205.4437255859375</ele><time>2025-02-20T02:50:21Z</time></trkpt>
<trkpt lat="37.55259866" lon="126.70650062"><ele>204.762451171875</ele><time>2025-02-20T02:50:29Z</time></trkpt>
<trkpt lat="37.55250822" lon="126.70650703"><ele>207.00927734375</ele><time>2025-02-20T02:50:36Z</time></trkpt>
<trkpt lat="37.55241768" lon="126.70653554"><ele>207.04974365234375</ele><time>2025-02-20T02:50:43Z</time></trkpt>
<trkpt lat="37.55232192" lon="126.70658225"><ele>206.93310546875</ele><time>2025-02-20T02:50:51Z</time></trkpt>
<trkpt lat="37.55223039" lon="126.70657778"><ele>206.1011962890625</ele><time>2025-02-20T02:50:58Z</time></trkpt>
<trkpt lat="37.55213584" lon="126.70659054"><ele>207.45648193359375</ele><time>2025-02-20T02:51:13Z</time></trkpt>
<trkpt lat="37.55206145" lon="126.70665508"><ele>207.526611328125</ele><time>2025-02-20T02:51:22Z</time></trkpt>
<trkpt lat="37.55197625" lon="126.70660544"><ele>205.408203125</ele><time>2025-02-20T02:51:29Z</time></trkpt>
<trkpt lat="37.55189382" lon="126.70655798"><ele>205.18548583984375</ele><time>2025-02-20T02:51:36Z</time></trkpt>
<trkpt lat="37.55179697" lon="126.70654938"><ele>207.56304931640625</ele><time>2025-02-20T02:51:44Z</time></trkpt>
<trkpt lat="37.55170819" lon="126.70652703"><ele>209.894775390625</ele><time>2025-02-20T02:51:51Z</time></trkpt>
<trkpt lat="37.55162102" lon="126.7064948"><ele>210.330810546875</ele><time>2025-02-20T02:51:58Z</time></trkpt>
<trkpt lat="37.55153459" lon="126.70645931"><ele>210.6263427734375</ele><time>2025-02-20T02:52:04Z</time></trkpt>
<trkpt lat="37.55146763" lon="126.70636775"><ele>212.5899658203125</ele><time>2025-02-20T02:52:11Z</time></trkpt>
<trkpt lat="37.55140283" lon="126.70628308"><ele>212.3955078125</ele><time>2025-02-20T02:52:18Z</time></trkpt>
<trkpt lat="37.55130821" lon="126.70625168"><ele>213.7850341796875</ele><time>2025-02-20T02:52:24Z</time></trkpt>
<trkpt lat="37.55120816" lon="126.70621486"><ele>210.8641357421875</ele><time>2025-02-20T02:52:31Z</time></trkpt>
<trkpt lat="37.55111958" lon="126.70626518"><ele>208.9632568359375</ele><time>2025-02-20T02:52:38Z</time></trkpt>
<trkpt lat="37.55104302" lon="126.70635343"><ele>207.7381591796875</ele><time>2025-02-20T02:52:46Z</time></trkpt>
<trkpt lat="37.55096942" lon="126.70643166"><ele>205.3804931640625</ele><time>2025-02-20T02:52:53Z</time></trkpt>
<trkpt lat="37.55086872" lon="126.70644665"><ele>204.3599853515625</ele><time>2025-02-20T02:53:01Z</time></trkpt>
<trkpt lat="37.55077524" lon="126.70645019"><ele>202.2996826171875</ele><time>2025-02-20T02:53:08Z</time></trkpt>
<trkpt lat="37.55067906" lon="126.70643321"><ele>201.22308349609375</ele><time>2025-02-20T02:53:15Z</time></trkpt>
<trkpt lat="37.55059065" lon="126.70647685"><ele>200.40838623046875</ele><time>2025-02-20T02:53:22Z</time></trkpt>
<trkpt lat="37.55049548" lon="126.70646641"><ele>195.87738037109375</ele><time>2025-02-20T02:53:32Z</time></trkpt>
<trkpt lat="37.55041187" lon="126.7064202"><ele>193.5760498046875</ele><time>2025-02-20T02:53:41Z</time></trkpt>
<trkpt lat="37.55032183" lon="126.70643409"><ele>190.2579345703125</ele><time>2025-02-20T02:53:53Z</time></trkpt>
<trkpt lat="37.55025233" lon="126.70650917"><ele>185.63824462890625</ele><time>2025-02-20T02:54:06Z</time></trkpt>
<trkpt lat="37.55018069" lon="126.7065798"><ele>181.2872314453125</ele><time>2025-02-20T02:54:18Z</time></trkpt>
<trkpt lat="37.55014702" lon="126.70669946"><ele>178.4404296875</ele><time>2025-02-20T02:54:28Z</time></trkpt>
<trkpt lat="37.55010273" lon="126.70680542"><ele>176.0552978515625</ele><time>2025-02-20T02:54:40Z</time></trkpt>
<trkpt lat="37.5500091" lon="126.70683941"><ele>174.2591552734375</ele><time>2025-02-20T02:54:51Z</time></trkpt>
<trkpt lat="37.54991504" lon="126.7068113"><ele>171.4891357421875</ele><time>2025-02-20T02:55:00Z</time></trkpt>
<trkpt lat="37.54982304" lon="126.70676389"><ele>168.950927734375</ele><time>2025-02-20T02:55:09Z</time></trkpt>
<trkpt lat="37.54972902" lon="126.70676661"><ele>165.39959716796875</ele><time>2025-02-20T02:55:16Z</time></trkpt>
<trkpt lat="37.54962806" lon="126.70674697"><ele>164.99017333984375</ele><time>2025-02-20T02:55:24Z</time></trkpt>
<trkpt lat="37.54953577" lon="126.70676216"><ele>162.93414306640625</ele><time>2025-02-20T02:55:31Z</time></trkpt>
<trkpt lat="37.54944534" lon="126.70673188"><ele>161.322998046875</ele><time>2025-02-20T02:55:38Z</time></trkpt>
<trkpt lat="37.54934751" lon="126.70670967"><ele>160.45941162109375</ele><time>2025-02-20T02:55:45Z</time></trkpt>
<trkpt lat="37.54924559" lon="126.70673767"><ele>158.011474609375</ele><time>2025-02-20T02:55:52Z</time></trkpt>
<trkpt lat="37.54914611" lon="126.70675901"><ele>159.3668212890625</ele><time>2025-02-20T02:55:58Z</time></trkpt>
<trkpt lat="37.54905539" lon="126.7067819"><ele>158.724853515625</ele><time>2025-02-20T02:56:04Z</time></trkpt>
<trkpt lat="37.5489657" lon="126.70679703"><ele>158.6483154296875</ele><time>2025-02-20T02:56:10Z</time></trkpt>
<trkpt lat="37.54887285" lon="126.70677928"><ele>157.88104248046875</ele><time>2025-02-20T02:56:16Z</time></trkpt>
<trkpt lat="37.54877603" lon="126.70681915"><ele>156.0986328125</ele><time>2025-02-20T02:56:23Z</time></trkpt>
<trkpt lat="37.54868772" lon="126.70687429"><ele>155.87957763671875</ele><time>2025-02-20T02:56:31Z</time></trkpt>
<trkpt lat="37.54863455" lon="126.70697576"><ele>155.77484130859375</ele><time>2025-02-20T02:56:41Z</time></trkpt>
<trkpt lat="37.54857016" lon="126.70707186"><ele>153.3209228515625</ele><time>2025-02-20T02:56:50Z</time></trkpt>
<trkpt lat="37.54849297" lon="126.70714653"><ele>152.1053466796875</ele><time>2025-02-20T02:56:57Z</time></trkpt>
<trkpt lat="37.5484374" lon="126.70723888"><ele>153.00750732421875</ele><time>2025-02-20T02:57:03Z</time></trkpt>
<trkpt lat="37.54839968" lon="126.70735238"><ele>155.1075439453125</ele><time>2025-02-20T02:57:11Z</time></trkpt>
<trkpt lat="37.54834385" lon="126.70746099"><ele>155.99713134765625</ele><time>2025-02-20T02:57:19Z</time></trkpt>
<trkpt lat="37.54826609" lon="126.707530"><ele>155.57269287109375</ele><time>2025-02-20T02:57:26Z</time></trkpt>
<trkpt lat="37.54819556" lon="126.70760803"><ele>153.8519287109375</ele><time>2025-02-20T02:57:33Z</time></trkpt>
<trkpt lat="37.54814309" lon="126.70770936"><ele>155.67730712890625</ele><time>2025-02-20T02:57:41Z</time></trkpt>
<trkpt lat="37.54806547" lon="126.70777215"><ele>156.6026611328125</ele><time>2025-02-20T02:57:49Z</time></trkpt>
<trkpt lat="37.5479908" lon="126.70783591"><ele>154.5882568359375</ele><time>2025-02-20T02:57:57Z</time></trkpt>
<trkpt lat="37.54791069" lon="126.70791059"><ele>153.56561279296875</ele><time>2025-02-20T02:58:07Z</time></trkpt>
<trkpt lat="37.54786205" lon="126.70801299"><ele>150.2349853515625</ele><time>2025-02-20T02:58:15Z</time></trkpt>
<trkpt lat="37.54782473" lon="126.70812538"><ele>147.4779052734375</ele><time>2025-02-20T02:58:22Z</time></trkpt>
<trkpt lat="37.5478368" lon="126.70825726"><ele>147.08612060546875</ele><time>2025-02-20T02:58:30Z</time></trkpt>
<trkpt lat="37.54781821" lon="126.70836873"><ele>145.75665283203125</ele><time>2025-02-20T02:58:39Z</time></trkpt>
<trkpt lat="37.54781152" lon="126.70848927"><ele>146.81732177734375</ele><time>2025-02-20T02:58:48Z</time></trkpt>
<trkpt lat="37.54775629" lon="126.70858415"><ele>143.27099609375</ele><time>2025-02-20T02:58:56Z</time></trkpt>
<trkpt lat="37.54766814" lon="126.70864459"><ele>140.66748046875</ele><time>2025-02-20T02:59:04Z</time></trkpt>
<trkpt lat="37.54761939" lon="126.70874837"><ele>141.37158203125</ele><time>2025-02-20T02:59:11Z</time></trkpt>
<trkpt lat="37.5476065" lon="126.70886583"><ele>142.56781005859375</ele><time>2025-02-20T02:59:17Z</time></trkpt>
<trkpt lat="37.54760935" lon="126.70897908"><ele>143.76934814453125</ele><time>2025-02-20T02:59:25Z</time></trkpt>
<trkpt lat="37.54754593" lon="126.70906657"><ele>141.4210205078125</ele><time>2025-02-20T02:59:32Z</time></trkpt>
<trkpt lat="37.54748589" lon="126.70915369"><ele>139.868896484375</ele><time>2025-02-20T02:59:38Z</time></trkpt>
<trkpt lat="37.54745233" lon="126.70926931"><ele>138.1448974609375</ele><time>2025-02-20T02:59:45Z</time></trkpt>
<trkpt lat="37.54743404" lon="126.70939148"><ele>137.6220703125</ele><time>2025-02-20T02:59:52Z</time></trkpt>
<trkpt lat="37.54743168" lon="126.70951536"><ele>136.59442138671875</ele><time>2025-02-20T02:59:59Z</time></trkpt>
<trkpt lat="37.54739802" lon="126.70963391"><ele>136.58111572265625</ele><time>2025-02-20T03:00:06Z</time></trkpt>
<trkpt lat="37.54736992" lon="126.70974827"><ele>135.45794677734375</ele><time>2025-02-20T03:00:12Z</time></trkpt>
<trkpt lat="37.5473251" lon="126.709861"><ele>134.1898193359375</ele><time>2025-02-20T03:00:19Z</time></trkpt>
<trkpt lat="37.5472778" lon="126.70996023"><ele>131.766357421875</ele><time>2025-02-20T03:00:26Z</time></trkpt>
<trkpt lat="37.54723375" lon="126.7100728"><ele>129.80828857421875</ele><time>2025-02-20T03:00:33Z</time></trkpt>
<trkpt lat="37.54718245" lon="126.71016893"><ele>127.6397705078125</ele><time>2025-02-20T03:00:40Z</time></trkpt>
<trkpt lat="37.54713115" lon="126.71027688"><ele>124.7459716796875</ele><time>2025-02-20T03:00:49Z</time></trkpt>
<trkpt lat="37.54707987" lon="126.71037573"><ele>122.4239501953125</ele><time>2025-02-20T03:00:57Z</time></trkpt>
<trkpt lat="37.54704018" lon="126.7104808"><ele>121.4576416015625</ele><time>2025-02-20T03:01:05Z</time></trkpt>
<trkpt lat="37.54701806" lon="126.71059215"><ele>118.0189208984375</ele><time>2025-02-20T03:01:13Z</time></trkpt>
<trkpt lat="37.54694836" lon="126.71067371"><ele>113.63739013671875</ele><time>2025-02-20T03:01:21Z</time></trkpt>
<trkpt lat="37.54691267" lon="126.71079246"><ele>112.53387451171875</ele><time>2025-02-20T03:01:29Z</time></trkpt>
<trkpt lat="37.54687752" lon="126.71090356"><ele>111.7196044921875</ele><time>2025-02-20T03:01:36Z</time></trkpt>
<trkpt lat="37.54688283" lon="126.71102402"><ele>108.8355712890625</ele><time>2025-02-20T03:01:43Z</time></trkpt>
<trkpt lat="37.54693552" lon="126.71112449"><ele>107.26153564453125</ele><time>2025-02-20T03:01:52Z</time></trkpt>
<trkpt lat="37.54690229" lon="126.71123997"><ele>108.2547607421875</ele><time>2025-02-20T03:02:00Z</time></trkpt>
<trkpt lat="37.54680809" lon="126.71128782"><ele>105.947509765625</ele><time>2025-02-20T03:02:08Z</time></trkpt>
<trkpt lat="37.54675963" lon="126.71139239"><ele>106.50927734375</ele><time>2025-02-20T03:02:16Z</time></trkpt>
<trkpt lat="37.54673708" lon="126.71151327"><ele>106.99267578125</ele><time>2025-02-20T03:02:25Z</time></trkpt>
<trkpt lat="37.54668492" lon="126.71161156"><ele>106.726318359375</ele><time>2025-02-20T03:02:32Z</time></trkpt>
<trkpt lat="37.54665527" lon="126.7117303"><ele>106.4453125</ele><time>2025-02-20T03:02:41Z</time></trkpt>
<trkpt lat="37.54667517" lon="126.71185077"><ele>108.73577880859375</ele><time>2025-02-20T03:03:07Z</time></trkpt>
<trkpt lat="37.54675309" lon="126.71190992"><ele>109.81646728515625</ele><time>2025-02-20T03:03:15Z</time></trkpt>
<trkpt lat="37.54676977" lon="126.71203228"><ele>108.7696533203125</ele><time>2025-02-20T03:03:24Z</time></trkpt>
<trkpt lat="37.54675551" lon="126.71214805"><ele>110.09185791015625</ele><time>2025-02-20T03:03:34Z</time></trkpt>
<trkpt lat="37.54675833" lon="126.71226408"><ele>111.301025390625</ele><time>2025-02-20T03:03:41Z</time></trkpt>
<trkpt lat="37.54674183" lon="126.71237857"><ele>110.27142333984375</ele><time>2025-02-20T03:03:53Z</time></trkpt>
<trkpt lat="37.54678619" lon="126.71248226"><ele>110.81072998046875</ele><time>2025-02-20T03:04:09Z</time></trkpt>
<trkpt lat="37.54682093" lon="126.71259697"><ele>111.90802001953125</ele><time>2025-02-20T03:04:19Z</time></trkpt>
<trkpt lat="37.54680944" lon="126.7127147"><ele>111.8558349609375</ele><time>2025-02-20T03:04:27Z</time></trkpt>
<trkpt lat="37.54679905" lon="126.71282858"><ele>112.052978515625</ele><time>2025-02-20T03:04:35Z</time></trkpt>
<trkpt lat="37.54670271" lon="126.712839"><ele>112.2520751953125</ele><time>2025-02-20T03:04:43Z</time></trkpt>
<trkpt lat="37.54671823" lon="126.71295413"><ele>111.2410888671875</ele><time>2025-02-20T03:05:02Z</time></trkpt>
<trkpt lat="37.5467547" lon="126.71306294"><ele>112.44085693359375</ele><time>2025-02-20T03:05:11Z</time></trkpt>
<trkpt lat="37.54683379" lon="126.7131238"><ele>113.39666748046875</ele><time>2025-02-20T03:05:21Z</time></trkpt>
<trkpt lat="37.54686611" lon="126.71323556"><ele>113.80706787109375</ele><time>2025-02-20T03:05:31Z</time></trkpt>
<trkpt lat="37.54687273" lon="126.71334972"><ele>113.1259765625</ele><time>2025-02-20T03:05:39Z</time></trkpt>
<trkpt lat="37.54687763" lon="126.7134637"><ele>113.60546875</ele><time>2025-02-20T03:05:47Z</time></trkpt>
<trkpt lat="37.5468929" lon="126.7135849"><ele>114.3267822265625</ele><time>2025-02-20T03:05:54Z</time></trkpt>
<trkpt lat="37.54692454" lon="126.71369391"><ele>115.03662109375</ele><time>2025-02-20T03:06:01Z</time></trkpt>
<trkpt lat="37.5469777" lon="126.7137867"><ele>116.621826171875</ele><time>2025-02-20T03:06:14Z</time></trkpt>
<trkpt lat="37.54697001" lon="126.71391485"><ele>116.9039306640625</ele><time>2025-02-20T03:06:22Z</time></trkpt>
<trkpt lat="37.54699693" lon="126.71403158"><ele>115.84356689453125</ele><time>2025-02-20T03:06:30Z</time></trkpt>
<trkpt lat="37.54703932" lon="126.7141473"><ele>119.01556396484375</ele><time>2025-02-20T03:06:38Z</time></trkpt>
<trkpt lat="37.5470959" lon="126.71424326"><ele>120.53369140625</ele><time>2025-02-20T03:06:46Z</time></trkpt>
<trkpt lat="37.54716008" lon="126.71433056"><ele>122.12054443359375</ele><time>2025-02-20T03:06:54Z</time></trkpt>
<trkpt lat="37.54722882" lon="126.71440943"><ele>123.4136962890625</ele><time>2025-02-20T03:07:02Z</time></trkpt>
<trkpt lat="37.54730515" lon="126.71448599"><ele>126.21649169921875</ele><time>2025-02-20T03:07:10Z</time></trkpt>
<trkpt lat="37.54738339" lon="126.71456504"><ele>128.5013427734375</ele><time>2025-02-20T03:07:18Z</time></trkpt>
<trkpt lat="37.54746162" lon="126.71463053"><ele>128.71356201171875</ele><time>2025-02-20T03:07:26Z</time></trkpt>
<trkpt lat="37.54753752" lon="126.71471097"><ele>129.81103515625</ele><time>2025-02-20T03:07:34Z</time></trkpt>
<trkpt lat="37.54760361" lon="126.71479346"><ele>132.3770751953125</ele><time>2025-02-20T03:07:42Z</time></trkpt>
<trkpt lat="37.54766069" lon="126.71488918"><ele>134.16607666015625</ele><time>2025-02-20T03:07:50Z</time></trkpt>
<trkpt lat="37.54772031" lon="126.71498671"><ele>133.44488525390625</ele><time>2025-02-20T03:07:58Z</time></trkpt>
<trkpt lat="37.54776209" lon="126.71510486"><ele>132.78662109375</ele><time>2025-02-20T03:08:06Z</time></trkpt>
<trkpt lat="37.54779325" lon="126.71521193"><ele>133.4088134765625</ele><time>2025-02-20T03:08:13Z</time></trkpt>
<trkpt lat="37.54780847" lon="126.71532993"><ele>133.7100830078125</ele><time>2025-02-20T03:08:20Z</time></trkpt>
<trkpt lat="37.547817" lon="126.71544261"><ele>133.25506591796875</ele><time>2025-02-20T03:08:27Z</time></trkpt>
<trkpt lat="37.54779995" lon="126.71555587"><ele>133.0911865234375</ele><time>2025-02-20T03:09:37Z</time></trkpt>
<trkpt lat="37.54779369" lon="126.71567953"><ele>129.6998291015625</ele><time>2025-02-20T03:09:45Z</time></trkpt>
<trkpt lat="37.54778835" lon="126.71580198"><ele>126.89495849609375</ele><time>2025-02-20T03:09:52Z</time></trkpt>
<trkpt lat="37.54777641" lon="126.71591975"><ele>125.18524169921875</ele><time>2025-02-20T03:09:59Z</time></trkpt>
<trkpt lat="37.54776862" lon="126.71603614"><ele>123.4857177734375</ele><time>2025-02-20T03:10:06Z</time></trkpt>
<trkpt lat="37.54775763" lon="126.71616108"><ele>121.7440185546875</ele><time>2025-02-20T03:10:49Z</time></trkpt>
<trkpt lat="37.5477588" lon="126.71627996"><ele>119.88885498046875</ele><time>2025-02-20T03:10:56Z</time></trkpt>
<trkpt lat="37.54775614" lon="126.71639415"><ele>120.07293701171875</ele><time>2025-02-20T03:11:02Z</time></trkpt>
<trkpt lat="37.54777005" lon="126.7165185"><ele>120.85406494140625</ele><time>2025-02-20T03:11:09Z</time></trkpt>
<trkpt lat="37.54776753" lon="126.71663525"><ele>121.20263671875</ele><time>2025-02-20T03:11:16Z</time></trkpt>
<trkpt lat="37.54776577" lon="126.716760"><ele>121.20166015625</ele><time>2025-02-20T03:11:24Z</time></trkpt>
<trkpt lat="37.54780133" lon="126.71686858"><ele>123.88946533203125</ele><time>2025-02-20T03:11:32Z</time></trkpt>
<trkpt lat="37.54781263" lon="126.71698372"><ele>125.932373046875</ele><time>2025-02-20T03:11:40Z</time></trkpt>
<trkpt lat="37.54785102" lon="126.7171031"><ele>124.54718017578125</ele><time>2025-02-20T03:11:55Z</time></trkpt>
<trkpt lat="37.54790189" lon="126.71721447"><ele>125.84527587890625</ele><time>2025-02-20T03:12:03Z</time></trkpt>
<trkpt lat="37.54795414" lon="126.71732512"><ele>125.77081298828125</ele><time>2025-02-20T03:12:11Z</time></trkpt>
<trkpt lat="37.54797807" lon="126.71744237"><ele>126.270263671875</ele><time>2025-02-20T03:12:18Z</time></trkpt>
<trkpt lat="37.5480081" lon="126.71755579"><ele>126.42840576171875</ele><time>2025-02-20T03:12:25Z</time></trkpt>
<trkpt lat="37.54805497" lon="126.71765814"><ele>127.22943115234375</ele><time>2025-02-20T03:12:33Z</time></trkpt>
<trkpt lat="37.5480775" lon="126.71778172"><ele>128.073486328125</ele><time>2025-02-20T03:12:40Z</time></trkpt>
<trkpt lat="37.54812044" lon="126.71789683"><ele>128.47589111328125</ele><time>2025-02-20T03:12:47Z</time></trkpt>
<trkpt lat="37.54816214" lon="126.71799994"><ele>130.4674072265625</ele><time>2025-02-20T03:12:54Z</time></trkpt>
<trkpt lat="37.54820364" lon="126.71810094"><ele>129.73284912109375</ele><time>2025-02-20T03:13:01Z</time></trkpt>
<trkpt lat="37.54825424" lon="126.71821368"><ele>129.83935546875</ele><time>2025-02-20T03:13:08Z</time></trkpt>
<trkpt lat="37.54827467" lon="126.71833529"><ele>127.73492431640625</ele><time>2025-02-20T03:13:15Z</time></trkpt>
<trkpt lat="37.54831221" lon="126.71844383"><ele>127.49407958984375</ele><time>2025-02-20T03:13:22Z</time></trkpt>
<trkpt lat="37.54837355" lon="126.71854571"><ele>127.015625</ele><time>2025-02-20T03:13:29Z</time></trkpt>
<trkpt lat="37.54843835" lon="126.71863136"><ele>126.7684326171875</ele><time>2025-02-20T03:13:35Z</time></trkpt>
<trkpt lat="37.54850877" lon="126.71870855"><ele>126.5650634765625</ele><time>2025-02-20T03:13:41Z</time></trkpt>
<trkpt lat="37.54857902" lon="126.71878677"><ele>126.25372314453125</ele><time>2025-02-20T03:13:47Z</time></trkpt>
<trkpt lat="37.54862632" lon="126.71890091"><ele>125.5621337890625</ele><time>2025-02-20T03:13:54Z</time></trkpt>
<trkpt lat="37.54869596" lon="126.71898766"><ele>126.1575927734375</ele><time>2025-02-20T03:14:00Z</time></trkpt>
<trkpt lat="37.54877021" lon="126.7190667"><ele>126.79656982421875</ele><time>2025-02-20T03:14:06Z</time></trkpt>
<trkpt lat="37.54884018" lon="126.71913875"><ele>126.315673828125</ele><time>2025-02-20T03:14:13Z</time></trkpt>
<trkpt lat="37.54888597" lon="126.71924093"><ele>124.91290283203125</ele><time>2025-02-20T03:14:34Z</time></trkpt>
<trkpt lat="37.54893338" lon="126.71934263"><ele>123.3497314453125</ele><time>2025-02-20T03:14:41Z</time></trkpt>
<trkpt lat="37.54899301" lon="126.71944861"><ele>122.9215087890625</ele><time>2025-02-20T03:14:48Z</time></trkpt>
<trkpt lat="37.54905362" lon="126.71955061"><ele>123.477294921875</ele><time>2025-02-20T03:14:55Z</time></trkpt>
<trkpt lat="37.54911671" lon="126.71963817"><ele>123.74432373046875</ele><time>2025-02-20T03:15:01Z</time></trkpt>
<trkpt lat="37.54916748" lon="126.71973312"><ele>123.06488037109375</ele><time>2025-02-20T03:15:35Z</time></trkpt>
<trkpt lat="37.54922089" lon="126.71983019"><ele>124.08099365234375</ele><time>2025-02-20T03:15:47Z</time></trkpt>
<trkpt lat="37.54927827" lon="126.71992073"><ele>123.1578369140625</ele><time>2025-02-20T03:15:54Z</time></trkpt>
<trkpt lat="37.54933801" lon="126.72002607"><ele>123.32470703125</ele><time>2025-02-20T03:16:01Z</time></trkpt>
<trkpt lat="37.54939269" lon="126.72013739"><ele>122.69537353515625</ele><time>2025-02-20T03:16:08Z</time></trkpt>
<trkpt lat="37.54944978" lon="126.72023502"><ele>121.5635986328125</ele><time>2025-02-20T03:16:15Z</time></trkpt>
<trkpt lat="37.54952752" lon="126.7203158"><ele>124.4625244140625</ele><time>2025-02-20T03:16:22Z</time></trkpt>
<trkpt lat="37.5496183" lon="126.72033501"><ele>126.308837890625</ele><time>2025-02-20T03:16:29Z</time></trkpt>
<trkpt lat="37.54970666" lon="126.72035999"><ele>127.59698486328125</ele><time>2025-02-20T03:16:36Z</time></trkpt>
<trkpt lat="37.54976041" lon="126.72046707"><ele>126.95782470703125</ele><time>2025-02-20T03:16:44Z</time></trkpt>
<trkpt lat="37.54980059" lon="126.7205697"><ele>125.939697265625</ele><time>2025-02-20T03:16:52Z</time></trkpt>
<trkpt lat="37.5497608" lon="126.72067743"><ele>125.67205810546875</ele><time>2025-02-20T03:17:01Z</time></trkpt>
<trkpt lat="37.54972436" lon="126.72079203"><ele>125.29351806640625</ele><time>2025-02-20T03:17:09Z</time></trkpt>
<trkpt lat="37.54972763" lon="126.72092155"><ele>122.64599609375</ele><time>2025-02-20T03:17:16Z</time></trkpt>
<trkpt lat="37.54973664" lon="126.72104839"><ele>124.234619140625</ele><time>2025-02-20T03:17:23Z</time></trkpt>
<trkpt lat="37.54974279" lon="126.72116645"><ele>122.65283203125</ele><time>2025-02-20T03:17:29Z</time></trkpt>
<trkpt lat="37.54974455" lon="126.72129811"><ele>123.34832763671875</ele><time>2025-02-20T03:17:36Z</time></trkpt>
<trkpt lat="37.54977521" lon="126.72141143"><ele>121.77325439453125</ele><time>2025-02-20T03:17:43Z</time></trkpt>
<trkpt lat="37.54981692" lon="126.72153066"><ele>121.408203125</ele><time>2025-02-20T03:17:50Z</time></trkpt>
<trkpt lat="37.54986362" lon="126.72164063"><ele>120.80047607421875</ele><time>2025-02-20T03:17:57Z</time></trkpt>
<trkpt lat="37.54990591" lon="126.72176057"><ele>117.87432861328125</ele><time>2025-02-20T03:18:04Z</time></trkpt>
<trkpt lat="37.54995967" lon="126.7218719"><ele>117.145263671875</ele><time>2025-02-20T03:18:11Z</time></trkpt>
<trkpt lat="37.55002124" lon="126.72196977"><ele>119.704345703125</ele><time>2025-02-20T03:18:17Z</time></trkpt>
<trkpt lat="37.55010596" lon="126.72202329"><ele>116.746826171875</ele><time>2025-02-20T03:18:25Z</time></trkpt>
<trkpt lat="37.55018544" lon="126.72209952"><ele>117.818359375</ele><time>2025-02-20T03:18:32Z</time></trkpt>
<trkpt lat="37.55023296" lon="126.72219667"><ele>116.07550048828125</ele><time>2025-02-20T03:18:38Z</time></trkpt>
<trkpt lat="37.55025592" lon="126.72231168"><ele>114.1966552734375</ele><time>2025-02-20T03:18:45Z</time></trkpt>
<trkpt lat="37.55028581" lon="126.72243758"><ele>113.6197509765625</ele><time>2025-02-20T03:18:52Z</time></trkpt>
<trkpt lat="37.55031605" lon="126.72254466"><ele>112.67108154296875</ele><time>2025-02-20T03:18:58Z</time></trkpt>
<trkpt lat="37.55031156" lon="126.7226647"><ele>114.84991455078125</ele><time>2025-02-20T03:19:06Z</time></trkpt>
<trkpt lat="37.55030434" lon="126.72277831"><ele>116.57489013671875</ele><time>2025-02-20T03:19:14Z</time></trkpt>
<trkpt lat="37.5503803" lon="126.72284303"><ele>118.84423828125</ele><time>2025-02-20T03:19:23Z</time></trkpt>
<trkpt lat="37.55046054" lon="126.72289818"><ele>122.03436279296875</ele><time>2025-02-20T03:19:35Z</time></trkpt>
<trkpt lat="37.55051335" lon="126.72299206"><ele>125.5107421875</ele><time>2025-02-20T03:19:47Z</time></trkpt>
<trkpt lat="37.55052711" lon="126.72311447"><ele>125.024658203125</ele><time>2025-02-20T03:20:02Z</time></trkpt>
<trkpt lat="37.55043714" lon="126.72315506"><ele>124.24481201171875</ele><time>2025-02-20T03:20:11Z</time></trkpt>
<trkpt lat="37.55034329" lon="126.72316824"><ele>123.1650390625</ele><time>2025-02-20T03:20:19Z</time></trkpt>
<trkpt lat="37.55024667" lon="126.72317329"><ele>117.9271240234375</ele><time>2025-02-20T03:20:28Z</time></trkpt>
<trkpt lat="37.55015838" lon="126.72321851"><ele>117.02752685546875</ele><time>2025-02-20T03:20:36Z</time></trkpt>
<trkpt lat="37.5500801" lon="126.72330048"><ele>115.4114990234375</ele><time>2025-02-20T03:20:43Z</time></trkpt>
<trkpt lat="37.55000685" lon="126.72337904"><ele>113.57904052734375</ele><time>2025-02-20T03:20:50Z</time></trkpt>
<trkpt lat="37.54991377" lon="126.72337292"><ele>112.789794921875</ele><time>2025-02-20T03:21:01Z</time></trkpt>
<trkpt lat="37.5498189" lon="126.7233685"><ele>109.50634765625</ele><time>2025-02-20T03:21:17Z</time></trkpt>
<trkpt lat="37.54975222" lon="126.72344844"><ele>110.34423828125</ele><time>2025-02-20T03:21:26Z</time></trkpt>
<trkpt lat="37.54967595" lon="126.72351391"><ele>110.85479736328125</ele><time>2025-02-20T03:21:34Z</time></trkpt>
<trkpt lat="37.54961609" lon="126.7236119"><ele>108.13299560546875</ele><time>2025-02-20T03:21:42Z</time></trkpt>
<trkpt lat="37.54955982" lon="126.72371465"><ele>107.83929443359375</ele><time>2025-02-20T03:21:49Z</time></trkpt>
<trkpt lat="37.54950512" lon="126.72381681"><ele>108.2203369140625</ele><time>2025-02-20T03:21:56Z</time></trkpt>
<trkpt lat="37.54943786" lon="126.72389999"><ele>109.1080322265625</ele><time>2025-02-20T03:22:05Z</time></trkpt>
<trkpt lat="37.54941332" lon="126.72402012"><ele>110.25762939453125</ele><time>2025-02-20T03:22:12Z</time></trkpt>
<trkpt lat="37.54934336" lon="126.72410547"><ele>112.3125</ele><time>2025-02-20T03:22:20Z</time></trkpt>
<trkpt lat="37.54927442" lon="126.72419034"><ele>110.9970703125</ele><time>2025-02-20T03:22:27Z</time></trkpt>
<trkpt lat="37.54922328" lon="126.72428567"><ele>110.024658203125</ele><time>2025-02-20T03:22:33Z</time></trkpt>
<trkpt lat="37.54917803" lon="126.72439687"><ele>112.54541015625</ele><time>2025-02-20T03:22:41Z</time></trkpt>
<trkpt lat="37.54914101" lon="126.7245177"><ele>114.23187255859375</ele><time>2025-02-20T03:22:49Z</time></trkpt>
<trkpt lat="37.54907737" lon="126.72460204"><ele>115.76727294921875</ele><time>2025-02-20T03:22:56Z</time></trkpt>
<trkpt lat="37.54897982" lon="126.72464288"><ele>114.58575439453125</ele><time>2025-02-20T03:23:04Z</time></trkpt>
<trkpt lat="37.54892697" lon="126.72474821"><ele>115.9468994140625</ele><time>2025-02-20T03:23:11Z</time></trkpt>
<trkpt lat="37.54888739" lon="126.72486782"><ele>116.8826904296875</ele><time>2025-02-20T03:23:18Z</time></trkpt>
<trkpt lat="37.54885334" lon="126.72498288"><ele>114.08917236328125</ele><time>2025-02-20T03:23:24Z</time></trkpt>
<trkpt lat="37.54880707" lon="126.72508376"><ele>113.07354736328125</ele><time>2025-02-20T03:23:30Z</time></trkpt>
<trkpt lat="37.54878712" lon="126.72520378"><ele>111.62176513671875</ele><time>2025-02-20T03:23:37Z</time></trkpt>
<trkpt lat="37.54875952" lon="126.7253161"><ele>108.84185791015625</ele><time>2025-02-20T03:23:44Z</time></trkpt>
<trkpt lat="37.54868017" lon="126.72537609"><ele>104.28826904296875</ele><time>2025-02-20T03:23:54Z</time></trkpt>
<trkpt lat="37.54863034" lon="126.72547821"><ele>106.25177001953125</ele><time>2025-02-20T03:24:06Z</time></trkpt>
<trkpt lat="37.54856469" lon="126.72555931"><ele>105.9228515625</ele><time>2025-02-20T03:24:13Z</time></trkpt>
<trkpt lat="37.54848287" lon="126.72563754"><ele>104.37091064453125</ele><time>2025-02-20T03:24:21Z</time></trkpt>
<trkpt lat="37.54843051" lon="126.72573844"><ele>103.2933349609375</ele><time>2025-02-20T03:24:27Z</time></trkpt>
<trkpt lat="37.54843852" lon="126.7258652"><ele>103.54888916015625</ele><time>2025-02-20T03:24:34Z</time></trkpt>
<trkpt lat="37.54841942" lon="126.72598669"><ele>103.463134765625</ele><time>2025-02-20T03:24:41Z</time></trkpt>
<trkpt lat="37.54838131" lon="126.72610055"><ele>102.6058349609375</ele><time>2025-02-20T03:24:48Z</time></trkpt>
<trkpt lat="37.54832858" lon="126.72619959"><ele>104.1500244140625</ele><time>2025-02-20T03:24:55Z</time></trkpt>
<trkpt lat="37.54827976" lon="126.72629782"><ele>104.07196044921875</ele><time>2025-02-20T03:25:01Z</time></trkpt>
<trkpt lat="37.54819542" lon="126.726348"><ele>101.4940185546875</ele><time>2025-02-20T03:25:09Z</time></trkpt>
<trkpt lat="37.54814566" lon="126.72645529"><ele>99.1761474609375</ele><time>2025-02-20T03:25:17Z</time></trkpt>
<trkpt lat="37.54814224" lon="126.7265713"><ele>95.84954833984375</ele><time>2025-02-20T03:25:29Z</time></trkpt>
<trkpt lat="37.54809661" lon="126.72666894"><ele>98.0162353515625</ele><time>2025-02-20T03:25:37Z</time></trkpt>
<trkpt lat="37.54800795" lon="126.7267136"><ele>97.379638671875</ele><time>2025-02-20T03:25:44Z</time></trkpt>
<trkpt lat="37.54795158" lon="126.72681522"><ele>96.85302734375</ele><time>2025-02-20T03:25:53Z</time></trkpt>
<trkpt lat="37.54794824" lon="126.726933"><ele>97.6029052734375</ele><time>2025-02-20T03:26:01Z</time></trkpt>
<trkpt lat="37.54790857" lon="126.72703542"><ele>99.092041015625</ele><time>2025-02-20T03:26:32Z</time></trkpt>
<trkpt lat="37.54782089" lon="126.72706502"><ele>92.32366943359375</ele><time>2025-02-20T03:27:01Z</time></trkpt>
</trkseg>
</trk>
<wpt lat="37.54713" lon="126.70758"><name>징명이고개 인천</name><type>1</type></wpt>
</gpx>
