<?xml version="1.0" encoding="UTF-8" standalone="no"?>
<gpx xmlns="http://www.topografix.com/GPX/1/1" xmlns:gpxtpx="http://www.garmin.com/xmlschemas/TrackPointExtension/v1" xmlns:xsi="http://www.w3.org/2001/XMLSchema-instance" creator="Sports Tracker" version="1.1" xsi:schemaLocation="http://www.topografix.com/GPX/1/1 http://www.topografix.com/GPX/1/1/gpx.xsd http://www.garmin.com/xmlschemas/TrackPointExtension/v1 http://www.garmin.com/xmlschemas/TrackPointExtensionv1.xsd">
  <metadata>
    <desc>원미산</desc>
    <author>
      <name>KwonHyoTaek</name>
    </author>
    <link href="www.sports-tracker.com">
      <text>Sports Tracker</text>
    </link>
  </metadata>
  <trk>
    <trkseg>
      <trkpt lat="37.485883333333334" lon="126.794315">
        <ele>52.6</ele>
        <time>2017-11-12T00:47:25Z</time>
      </trkpt>
      <trkpt lat="37.48595666666667" lon="126.79432833333334">
        <ele>45.9</ele>
        <time>2017-11-12T00:47:39Z</time>
      </trkpt>
      <trkpt lat="37.48603166666667" lon="126.794325">
        <ele>39.5</ele>
        <time>2017-11-12T00:47:54Z</time>
      </trkpt>
      <trkpt lat="37.48611833333333" lon="126.79431333333333">
        <ele>36.8</ele>
        <time>2017-11-12T00:48:04Z</time>
      </trkpt>
      <trkpt lat="37.48618833333333" lon="126.79429166666667">
        <ele>38.7</ele>
        <time>2017-11-12T00:48:10Z</time>
      </trkpt>
      <trkpt lat="37.486261666666664" lon="126.794315">
        <ele>40.3</ele>
        <time>2017-11-12T00:48:17Z</time>
      </trkpt>
      <trkpt lat="37.486335" lon="126.79434666666667">
        <ele>39.2</ele>
        <time>2017-11-12T00:48:26Z</time>
      </trkpt>
      <trkpt lat="37.48641" lon="126.79434666666667">
        <ele>42.5</ele>
        <time>2017-11-12T00:48:48Z</time>
      </trkpt>
      <trkpt lat="37.486486666666664" lon="126.794335">
        <ele>42.2</ele>
        <time>2017-11-12T00:48:57Z</time>
      </trkpt>
      <trkpt lat="37.48654666666667" lon="126.79438666666667">
        <ele>42.8</ele>
        <time>2017-11-12T00:49:25Z</time>
      </trkpt>
      <trkpt lat="37.48655" lon="126.79447666666667">
        <ele>41.9</ele>
        <time>2017-11-12T00:49:53Z</time>
      </trkpt>
      <trkpt lat="37.48661333333333" lon="126.794525">
        <ele>47.4</ele>
        <time>2017-11-12T00:50:22Z</time>
      </trkpt>
      <trkpt lat="37.48663833333333" lon="126.79462">
        <ele>55.4</ele>
        <time>2017-11-12T00:51:10Z</time>
      </trkpt>
      <trkpt lat="37.486628333333336" lon="126.79471333333333">
        <ele>50.9</ele>
        <time>2017-11-12T00:51:20Z</time>
      </trkpt>
      <trkpt lat="37.486646666666665" lon="126.79481">
        <ele>53.2</ele>
        <time>2017-11-12T00:51:35Z</time>
      </trkpt>
      <trkpt lat="37.48665166666667" lon="126.7949">
        <ele>57.2</ele>
        <time>2017-11-12T00:51:48Z</time>
      </trkpt>
      <trkpt lat="37.48667666666667" lon="126.79498666666667">
        <ele>58.0</ele>
        <time>2017-11-12T00:51:57Z</time>
      </trkpt>
      <trkpt lat="37.486671666666666" lon="126.795085">
        <ele>64.7</ele>
        <time>2017-11-12T00:52:10Z</time>
      </trkpt>
      <trkpt lat="37.48667833333333" lon="126.79518">
        <ele>69.2</ele>
        <time>2017-11-12T00:52:29Z</time>
      </trkpt>
      <trkpt lat="37.4867" lon="126.79526666666666">
        <ele>73.3</ele>
        <time>2017-11-12T00:52:46Z</time>
      </trkpt>
      <trkpt lat="37.48672833333333" lon="126.79535">
        <ele>74.8</ele>
        <time>2017-11-12T00:52:54Z</time>
      </trkpt>
      <trkpt lat="37.48673" lon="126.79545166666666">
        <ele>76.1</ele>
        <time>2017-11-12T00:53:00Z</time>
      </trkpt>
      <trkpt lat="37.48675" lon="126.79554333333333">
        <ele>76.5</ele>
        <time>2017-11-12T00:53:08Z</time>
      </trkpt>
      <trkpt lat="37.48678666666667" lon="126.79563">
        <ele>75.4</ele>
        <time>2017-11-12T00:53:17Z</time>
      </trkpt>
      <trkpt lat="37.486825" lon="126.79571666666666">
        <ele>74.6</ele>
        <time>2017-11-12T00:53:23Z</time>
      </trkpt>
      <trkpt lat="37.48686333333333" lon="126.79580166666666">
        <ele>73.2</ele>
        <time>2017-11-12T00:53:30Z</time>
      </trkpt>
      <trkpt lat="37.486911666666664" lon="126.79588166666667">
        <ele>76.2</ele>
        <time>2017-11-12T00:53:41Z</time>
      </trkpt>
      <trkpt lat="37.486961666666666" lon="126.79595">
        <ele>78.7</ele>
        <time>2017-11-12T00:53:51Z</time>
      </trkpt>
      <trkpt lat="37.487" lon="126.79603">
        <ele>79.0</ele>
        <time>2017-11-12T00:53:57Z</time>
      </trkpt>
      <trkpt lat="37.48706166666667" lon="126.7961">
        <ele>78.0</ele>
        <time>2017-11-12T00:54:07Z</time>
      </trkpt>
      <trkpt lat="37.48712" lon="126.79615666666666">
        <ele>76.9</ele>
        <time>2017-11-12T00:54:13Z</time>
      </trkpt>
      <trkpt lat="37.48718" lon="126.79622833333333">
        <ele>76.9</ele>
        <time>2017-11-12T00:54:20Z</time>
      </trkpt>
      <trkpt lat="37.48723833333333" lon="126.79628166666667">
        <ele>76.4</ele>
        <time>2017-11-12T00:54:55Z</time>
      </trkpt>
      <trkpt lat="37.487295" lon="126.79634166666666">
        <ele>77.8</ele>
        <time>2017-11-12T00:55:07Z</time>
      </trkpt>
      <trkpt lat="37.48737333333333" lon="126.79635166666667">
        <ele>76.0</ele>
        <time>2017-11-12T00:55:14Z</time>
      </trkpt>
      <trkpt lat="37.48744833333333" lon="126.79635666666667">
        <ele>75.7</ele>
        <time>2017-11-12T00:55:21Z</time>
      </trkpt>
      <trkpt lat="37.48752" lon="126.79638">
        <ele>77.4</ele>
        <time>2017-11-12T00:55:28Z</time>
      </trkpt>
      <trkpt lat="37.487595" lon="126.79639833333333">
        <ele>78.9</ele>
        <time>2017-11-12T00:55:36Z</time>
      </trkpt>
      <trkpt lat="37.48766333333333" lon="126.79636666666667">
        <ele>80.9</ele>
        <time>2017-11-12T00:55:42Z</time>
      </trkpt>
      <trkpt lat="37.48773666666666" lon="126.79632333333333">
        <ele>80.6</ele>
        <time>2017-11-12T00:55:51Z</time>
      </trkpt>
      <trkpt lat="37.48780333333333" lon="126.79628666666666">
        <ele>81.7</ele>
        <time>2017-11-12T00:55:58Z</time>
      </trkpt>
      <trkpt lat="37.487875" lon="126.796265">
        <ele>83.7</ele>
        <time>2017-11-12T00:56:09Z</time>
      </trkpt>
      <trkpt lat="37.487946666666666" lon="126.79624833333334">
        <ele>87.4</ele>
        <time>2017-11-12T00:56:30Z</time>
      </trkpt>
      <trkpt lat="37.48802166666667" lon="126.79629333333334">
        <ele>84.6</ele>
        <time>2017-11-12T00:56:42Z</time>
      </trkpt>
      <trkpt lat="37.48809333333333" lon="126.796275">
        <ele>87.1</ele>
        <time>2017-11-12T00:56:54Z</time>
      </trkpt>
      <trkpt lat="37.48817" lon="126.79627833333333">
        <ele>91.8</ele>
        <time>2017-11-12T00:57:02Z</time>
      </trkpt>
      <trkpt lat="37.48824166666667" lon="126.7963">
        <ele>93.5</ele>
        <time>2017-11-12T00:57:13Z</time>
      </trkpt>
      <trkpt lat="37.48831166666667" lon="126.79625333333334">
        <ele>94.7</ele>
        <time>2017-11-12T00:57:23Z</time>
      </trkpt>
      <trkpt lat="37.48837" lon="126.79620166666666">
        <ele>94.8</ele>
        <time>2017-11-12T00:57:32Z</time>
      </trkpt>
      <trkpt lat="37.48845166666667" lon="126.79620333333334">
        <ele>95.5</ele>
        <time>2017-11-12T00:57:50Z</time>
      </trkpt>
      <trkpt lat="37.488521666666664" lon="126.79623333333333">
        <ele>99.2</ele>
        <time>2017-11-12T00:58:02Z</time>
      </trkpt>
      <trkpt lat="37.488575" lon="126.79629833333334">
        <ele>99.0</ele>
        <time>2017-11-12T00:58:11Z</time>
      </trkpt>
      <trkpt lat="37.488615" lon="126.796375">
        <ele>98.9</ele>
        <time>2017-11-12T00:58:28Z</time>
      </trkpt>
      <trkpt lat="37.48869666666667" lon="126.796385">
        <ele>103.1</ele>
        <time>2017-11-12T00:58:56Z</time>
      </trkpt>
      <trkpt lat="37.48877" lon="126.79642">
        <ele>105.7</ele>
        <time>2017-11-12T00:59:03Z</time>
      </trkpt>
      <trkpt lat="37.48885166666667" lon="126.79641833333334">
        <ele>107.8</ele>
        <time>2017-11-12T00:59:13Z</time>
      </trkpt>
      <trkpt lat="37.488928333333334" lon="126.79641166666667">
        <ele>103.9</ele>
        <time>2017-11-12T00:59:27Z</time>
      </trkpt>
      <trkpt lat="37.488998333333335" lon="126.79646333333334">
        <ele>105.5</ele>
        <time>2017-11-12T00:59:37Z</time>
      </trkpt>
      <trkpt lat="37.489066666666666" lon="126.79642">
        <ele>108.2</ele>
        <time>2017-11-12T00:59:46Z</time>
      </trkpt>
      <trkpt lat="37.489145" lon="126.79643666666666">
        <ele>112.5</ele>
        <time>2017-11-12T00:59:58Z</time>
      </trkpt>
      <trkpt lat="37.48922" lon="126.79642333333334">
        <ele>114.6</ele>
        <time>2017-11-12T01:00:11Z</time>
      </trkpt>
      <trkpt lat="37.489293333333336" lon="126.79640166666667">
        <ele>115.6</ele>
        <time>2017-11-12T01:00:17Z</time>
      </trkpt>
      <trkpt lat="37.48937" lon="126.796395">
        <ele>118.9</ele>
        <time>2017-11-12T01:00:24Z</time>
      </trkpt>
      <trkpt lat="37.489443333333334" lon="126.79642333333334">
        <ele>117.4</ele>
        <time>2017-11-12T01:00:40Z</time>
      </trkpt>
      <trkpt lat="37.48951666666667" lon="126.796435">
        <ele>120.4</ele>
        <time>2017-11-12T01:00:47Z</time>
      </trkpt>
      <trkpt lat="37.48959" lon="126.79642333333334">
        <ele>120.5</ele>
        <time>2017-11-12T01:00:54Z</time>
      </trkpt>
      <trkpt lat="37.48966166666666" lon="126.79640333333333">
        <ele>122.7</ele>
        <time>2017-11-12T01:01:05Z</time>
      </trkpt>
      <trkpt lat="37.489725" lon="126.79635999999999">
        <ele>125.3</ele>
        <time>2017-11-12T01:01:13Z</time>
      </trkpt>
      <trkpt lat="37.489795" lon="126.79632166666667">
        <ele>126.5</ele>
        <time>2017-11-12T01:01:25Z</time>
      </trkpt>
      <trkpt lat="37.489846666666665" lon="126.79625666666666">
        <ele>128.8</ele>
        <time>2017-11-12T01:01:35Z</time>
      </trkpt>
      <trkpt lat="37.489918333333335" lon="126.79627333333333">
        <ele>125.4</ele>
        <time>2017-11-12T01:01:47Z</time>
      </trkpt>
      <trkpt lat="37.48999833333333" lon="126.79629">
        <ele>123.9</ele>
        <time>2017-11-12T01:02:01Z</time>
      </trkpt>
      <trkpt lat="37.490065" lon="126.79634333333334">
        <ele>125.0</ele>
        <time>2017-11-12T01:02:09Z</time>
      </trkpt>
      <trkpt lat="37.49014" lon="126.79637833333334">
        <ele>123.4</ele>
        <time>2017-11-12T01:02:20Z</time>
      </trkpt>
      <trkpt lat="37.49021166666667" lon="126.79640166666667">
        <ele>123.4</ele>
        <time>2017-11-12T01:02:30Z</time>
      </trkpt>
      <trkpt lat="37.49028666666667" lon="126.79641666666667">
        <ele>121.1</ele>
        <time>2017-11-12T01:02:39Z</time>
      </trkpt>
      <trkpt lat="37.490355" lon="126.79644666666667">
        <ele>120.6</ele>
        <time>2017-11-12T01:02:48Z</time>
      </trkpt>
      <trkpt lat="37.49043833333333" lon="126.79646833333334">
        <ele>120.6</ele>
        <time>2017-11-12T01:02:55Z</time>
      </trkpt>
      <trkpt lat="37.49050833333333" lon="126.79643666666666">
        <ele>122.1</ele>
        <time>2017-11-12T01:03:02Z</time>
      </trkpt>
      <trkpt lat="37.490588333333335" lon="126.79639166666666">
        <ele>124.1</ele>
        <time>2017-11-12T01:03:10Z</time>
      </trkpt>
      <trkpt lat="37.49066666666667" lon="126.79637">
        <ele>124.7</ele>
        <time>2017-11-12T01:03:17Z</time>
      </trkpt>
      <trkpt lat="37.490746666666666" lon="126.79637333333334">
        <ele>127.8</ele>
        <time>2017-11-12T01:03:25Z</time>
      </trkpt>
      <trkpt lat="37.49082333333333" lon="126.79642666666666">
        <ele>127.5</ele>
        <time>2017-11-12T01:03:33Z</time>
      </trkpt>
      <trkpt lat="37.49088833333333" lon="126.79648166666666">
        <ele>126.7</ele>
        <time>2017-11-12T01:03:41Z</time>
      </trkpt>
      <trkpt lat="37.49096" lon="126.79653">
        <ele>127.6</ele>
        <time>2017-11-12T01:03:48Z</time>
      </trkpt>
      <trkpt lat="37.491035" lon="126.79657">
        <ele>128.9</ele>
        <time>2017-11-12T01:03:57Z</time>
      </trkpt>
      <trkpt lat="37.49110833333334" lon="126.79660166666666">
        <ele>127.4</ele>
        <time>2017-11-12T01:04:07Z</time>
      </trkpt>
      <trkpt lat="37.49117666666667" lon="126.796635">
        <ele>127.6</ele>
        <time>2017-11-12T01:04:13Z</time>
      </trkpt>
      <trkpt lat="37.491235" lon="126.79670333333334">
        <ele>127.9</ele>
        <time>2017-11-12T01:04:22Z</time>
      </trkpt>
      <trkpt lat="37.491305" lon="126.79674666666666">
        <ele>130.6</ele>
        <time>2017-11-12T01:04:31Z</time>
      </trkpt>
      <trkpt lat="37.491365" lon="126.796795">
        <ele>132.4</ele>
        <time>2017-11-12T01:04:42Z</time>
      </trkpt>
      <trkpt lat="37.49142833333333" lon="126.79684333333333">
        <ele>131.6</ele>
        <time>2017-11-12T01:04:52Z</time>
      </trkpt>
      <trkpt lat="37.491495" lon="126.79690833333333">
        <ele>132.3</ele>
        <time>2017-11-12T01:04:59Z</time>
      </trkpt>
      <trkpt lat="37.49155833333333" lon="126.796955">
        <ele>134.1</ele>
        <time>2017-11-12T01:05:07Z</time>
      </trkpt>
      <trkpt lat="37.491635" lon="126.79698666666667">
        <ele>135.4</ele>
        <time>2017-11-12T01:05:18Z</time>
      </trkpt>
      <trkpt lat="37.491683333333334" lon="126.797055">
        <ele>133.0</ele>
        <time>2017-11-12T01:05:39Z</time>
      </trkpt>
      <trkpt lat="37.491755" lon="126.79710666666666">
        <ele>132.4</ele>
        <time>2017-11-12T01:05:45Z</time>
      </trkpt>
      <trkpt lat="37.49183166666667" lon="126.79711">
        <ele>130.6</ele>
        <time>2017-11-12T01:05:52Z</time>
      </trkpt>
      <trkpt lat="37.49192333333333" lon="126.79712">
        <ele>130.4</ele>
        <time>2017-11-12T01:05:59Z</time>
      </trkpt>
      <trkpt lat="37.491978333333336" lon="126.79719333333334">
        <ele>129.0</ele>
        <time>2017-11-12T01:06:05Z</time>
      </trkpt>
      <trkpt lat="37.492018333333334" lon="126.79726833333334">
        <ele>125.7</ele>
        <time>2017-11-12T01:06:17Z</time>
      </trkpt>
      <trkpt lat="37.491996666666665" lon="126.797355">
        <ele>125.3</ele>
        <time>2017-11-12T01:06:24Z</time>
      </trkpt>
      <trkpt lat="37.49205" lon="126.79741666666666">
        <ele>123.5</ele>
        <time>2017-11-12T01:06:46Z</time>
      </trkpt>
      <trkpt lat="37.492113333333336" lon="126.79748666666667">
        <ele>126.7</ele>
        <time>2017-11-12T01:07:08Z</time>
      </trkpt>
      <trkpt lat="37.492165" lon="126.79756">
        <ele>119.4</ele>
        <time>2017-11-12T01:07:32Z</time>
      </trkpt>
      <trkpt lat="37.492201666666666" lon="126.79764666666667">
        <ele>118.4</ele>
        <time>2017-11-12T01:07:38Z</time>
      </trkpt>
      <trkpt lat="37.492218333333334" lon="126.79773666666667">
        <ele>119.7</ele>
        <time>2017-11-12T01:07:43Z</time>
      </trkpt>
      <trkpt lat="37.492248333333336" lon="126.797835">
        <ele>119.7</ele>
        <time>2017-11-12T01:07:50Z</time>
      </trkpt>
      <trkpt lat="37.49227833333333" lon="126.79792666666667">
        <ele>118.3</ele>
        <time>2017-11-12T01:07:57Z</time>
      </trkpt>
      <trkpt lat="37.49229666666667" lon="126.79802166666667">
        <ele>117.5</ele>
        <time>2017-11-12T01:08:05Z</time>
      </trkpt>
      <trkpt lat="37.492305" lon="126.79811333333333">
        <ele>113.6</ele>
        <time>2017-11-12T01:08:19Z</time>
      </trkpt>
      <trkpt lat="37.492331666666665" lon="126.798215">
        <ele>113.9</ele>
        <time>2017-11-12T01:08:28Z</time>
      </trkpt>
      <trkpt lat="37.492315" lon="126.79830833333334">
        <ele>114.1</ele>
        <time>2017-11-12T01:08:37Z</time>
      </trkpt>
      <trkpt lat="37.492375" lon="126.79837666666667">
        <ele>111.5</ele>
        <time>2017-11-12T01:08:43Z</time>
      </trkpt>
      <trkpt lat="37.49236666666667" lon="126.79847">
        <ele>110.1</ele>
        <time>2017-11-12T01:08:50Z</time>
      </trkpt>
      <trkpt lat="37.492356666666666" lon="126.79856">
        <ele>111.0</ele>
        <time>2017-11-12T01:08:57Z</time>
      </trkpt>
      <trkpt lat="37.492375" lon="126.79865333333333">
        <ele>112.8</ele>
        <time>2017-11-12T01:09:19Z</time>
      </trkpt>
      <trkpt lat="37.492378333333335" lon="126.79874333333333">
        <ele>116.8</ele>
        <time>2017-11-12T01:09:28Z</time>
      </trkpt>
      <trkpt lat="37.492385" lon="126.79884166666666">
        <ele>118.4</ele>
        <time>2017-11-12T01:09:45Z</time>
      </trkpt>
      <trkpt lat="37.49239166666667" lon="126.79893833333334">
        <ele>119.0</ele>
        <time>2017-11-12T01:09:57Z</time>
      </trkpt>
      <trkpt lat="37.49237333333333" lon="126.79903333333333">
        <ele>120.6</ele>
        <time>2017-11-12T01:10:09Z</time>
      </trkpt>
      <trkpt lat="37.49231833333333" lon="126.799095">
        <ele>128.1</ele>
        <time>2017-11-12T01:10:37Z</time>
      </trkpt>
      <trkpt lat="37.492333333333335" lon="126.79919166666667">
        <ele>133.8</ele>
        <time>2017-11-12T01:10:59Z</time>
      </trkpt>
      <trkpt lat="37.49233" lon="126.79929333333334">
        <ele>134.0</ele>
        <time>2017-11-12T01:11:16Z</time>
      </trkpt>
      <trkpt lat="37.492338333333336" lon="126.79939166666666">
        <ele>134.1</ele>
        <time>2017-11-12T01:11:31Z</time>
      </trkpt>
      <trkpt lat="37.49238166666667" lon="126.79947333333334">
        <ele>135.0</ele>
        <time>2017-11-12T01:11:39Z</time>
      </trkpt>
      <trkpt lat="37.49243666666667" lon="126.79954333333333">
        <ele>135.5</ele>
        <time>2017-11-12T01:11:47Z</time>
      </trkpt>
      <trkpt lat="37.49250166666667" lon="126.79958666666667">
        <ele>134.1</ele>
        <time>2017-11-12T01:12:05Z</time>
      </trkpt>
      <trkpt lat="37.49257166666667" lon="126.79961">
        <ele>136.5</ele>
        <time>2017-11-12T01:12:28Z</time>
      </trkpt>
      <trkpt lat="37.49264" lon="126.79964166666667">
        <ele>132.8</ele>
        <time>2017-11-12T01:12:56Z</time>
      </trkpt>
      <trkpt lat="37.492713333333334" lon="126.79962666666667">
        <ele>132.4</ele>
        <time>2017-11-12T01:13:06Z</time>
      </trkpt>
      <trkpt lat="37.49279" lon="126.79966166666667">
        <ele>131.3</ele>
        <time>2017-11-12T01:13:18Z</time>
      </trkpt>
      <trkpt lat="37.49286166666667" lon="126.799625">
        <ele>131.0</ele>
        <time>2017-11-12T01:13:24Z</time>
      </trkpt>
      <trkpt lat="37.492936666666665" lon="126.79964">
        <ele>132.3</ele>
        <time>2017-11-12T01:13:31Z</time>
      </trkpt>
      <trkpt lat="37.49301166666667" lon="126.799625">
        <ele>134.4</ele>
        <time>2017-11-12T01:13:55Z</time>
      </trkpt>
      <trkpt lat="37.493091666666665" lon="126.79962333333333">
        <ele>132.6</ele>
        <time>2017-11-12T01:14:00Z</time>
      </trkpt>
      <trkpt lat="37.49317333333333" lon="126.79961">
        <ele>131.3</ele>
        <time>2017-11-12T01:14:05Z</time>
      </trkpt>
      <trkpt lat="37.49325666666667" lon="126.79960666666666">
        <ele>130.9</ele>
        <time>2017-11-12T01:14:11Z</time>
      </trkpt>
      <trkpt lat="37.49333333333333" lon="126.7996">
        <ele>132.5</ele>
        <time>2017-11-12T01:14:20Z</time>
      </trkpt>
      <trkpt lat="37.49340333333333" lon="126.799645">
        <ele>131.0</ele>
        <time>2017-11-12T01:14:31Z</time>
      </trkpt>
      <trkpt lat="37.493473333333334" lon="126.79968333333333">
        <ele>127.8</ele>
        <time>2017-11-12T01:14:39Z</time>
      </trkpt>
      <trkpt lat="37.493555" lon="126.79969">
        <ele>127.3</ele>
        <time>2017-11-12T01:14:47Z</time>
      </trkpt>
      <trkpt lat="37.493635" lon="126.79969666666666">
        <ele>127.9</ele>
        <time>2017-11-12T01:14:54Z</time>
      </trkpt>
      <trkpt lat="37.49370833333333" lon="126.7997">
        <ele>128.8</ele>
        <time>2017-11-12T01:15:01Z</time>
      </trkpt>
      <trkpt lat="37.49377666666667" lon="126.79973666666666">
        <ele>128.1</ele>
        <time>2017-11-12T01:15:09Z</time>
      </trkpt>
      <trkpt lat="37.493825" lon="126.79981833333333">
        <ele>128.2</ele>
        <time>2017-11-12T01:15:17Z</time>
      </trkpt>
      <trkpt lat="37.493898333333334" lon="126.79981">
        <ele>131.8</ele>
        <time>2017-11-12T01:15:32Z</time>
      </trkpt>
      <trkpt lat="37.49397166666667" lon="126.799845">
        <ele>132.4</ele>
        <time>2017-11-12T01:15:44Z</time>
      </trkpt>
      <trkpt lat="37.494031666666665" lon="126.799895">
        <ele>131.4</ele>
        <time>2017-11-12T01:15:56Z</time>
      </trkpt>
      <trkpt lat="37.494085" lon="126.79996">
        <ele>133.1</ele>
        <time>2017-11-12T01:16:11Z</time>
      </trkpt>
      <trkpt lat="37.49415833333333" lon="126.79999333333333">
        <ele>133.6</ele>
        <time>2017-11-12T01:16:29Z</time>
      </trkpt>
      <trkpt lat="37.49424333333333" lon="126.80000333333334">
        <ele>135.1</ele>
        <time>2017-11-12T01:16:40Z</time>
      </trkpt>
      <trkpt lat="37.49431333333333" lon="126.80003">
        <ele>135.5</ele>
        <time>2017-11-12T01:16:47Z</time>
      </trkpt>
      <trkpt lat="37.494385" lon="126.80007333333333">
        <ele>136.7</ele>
        <time>2017-11-12T01:17:02Z</time>
      </trkpt>
      <trkpt lat="37.49445" lon="126.80011666666667">
        <ele>148.1</ele>
        <time>2017-11-12T01:17:24Z</time>
      </trkpt>
      <trkpt lat="37.49453" lon="126.80013">
        <ele>151.4</ele>
        <time>2017-11-12T01:17:31Z</time>
      </trkpt>
      <trkpt lat="37.49461" lon="126.80015666666667">
        <ele>153.2</ele>
        <time>2017-11-12T01:17:48Z</time>
      </trkpt>
      <trkpt lat="37.49468666666667" lon="126.80015">
        <ele>154.0</ele>
        <time>2017-11-12T01:18:04Z</time>
      </trkpt>
      <trkpt lat="37.49475833333333" lon="126.800165">
        <ele>157.5</ele>
        <time>2017-11-12T01:18:33Z</time>
      </trkpt>
      <trkpt lat="37.49482666666667" lon="126.80011">
        <ele>160.2</ele>
        <time>2017-11-12T01:18:49Z</time>
      </trkpt>
      <trkpt lat="37.494895" lon="126.800075">
        <ele>169.1</ele>
        <time>2017-11-12T01:19:20Z</time>
      </trkpt>
      <trkpt lat="37.49496833333333" lon="126.80002333333333">
        <ele>168.2</ele>
        <time>2017-11-12T01:19:43Z</time>
      </trkpt>
      <trkpt lat="37.49503833333333" lon="126.800045">
        <ele>167.3</ele>
        <time>2017-11-12T01:19:49Z</time>
      </trkpt>
      <trkpt lat="37.49511" lon="126.80006333333333">
        <ele>170.6</ele>
        <time>2017-11-12T01:19:57Z</time>
      </trkpt>
      <trkpt lat="37.49518333333333" lon="126.80005333333334">
        <ele>171.2</ele>
        <time>2017-11-12T01:20:33Z</time>
      </trkpt>
      <trkpt lat="37.495243333333335" lon="126.80011">
        <ele>167.2</ele>
        <time>2017-11-12T01:20:48Z</time>
      </trkpt>
      <trkpt lat="37.495178333333335" lon="126.80006166666666">
        <ele>166.9</ele>
        <time>2017-11-12T01:22:08Z</time>
      </trkpt>
      <trkpt lat="37.495133333333335" lon="126.79998666666667">
        <ele>166.4</ele>
        <time>2017-11-12T01:22:29Z</time>
      </trkpt>
      <trkpt lat="37.49512333333333" lon="126.79988">
        <ele>165.7</ele>
        <time>2017-11-12T01:23:32Z</time>
      </trkpt>
      <trkpt lat="37.495145" lon="126.79997666666667">
        <ele>166.2</ele>
        <time>2017-11-12T01:49:15Z</time>
      </trkpt>
      <trkpt lat="37.495145" lon="126.80006833333333">
        <ele>166.2</ele>
        <time>2017-11-12T01:49:24Z</time>
      </trkpt>
      <trkpt lat="37.495196666666665" lon="126.80014833333334">
        <ele>166.6</ele>
        <time>2017-11-12T01:49:31Z</time>
      </trkpt>
      <trkpt lat="37.49522666666667" lon="126.80023833333334">
        <ele>167.0</ele>
        <time>2017-11-12T01:49:41Z</time>
      </trkpt>
      <trkpt lat="37.49527" lon="126.800315">
        <ele>167.7</ele>
        <time>2017-11-12T01:49:47Z</time>
      </trkpt>
      <trkpt lat="37.495306666666664" lon="126.800395">
        <ele>167.4</ele>
        <time>2017-11-12T01:49:52Z</time>
      </trkpt>
      <trkpt lat="37.495351666666664" lon="126.80046666666667">
        <ele>167.0</ele>
        <time>2017-11-12T01:49:57Z</time>
      </trkpt>
      <trkpt lat="37.495416666666664" lon="126.80051">
        <ele>168.3</ele>
        <time>2017-11-12T01:50:08Z</time>
      </trkpt>
      <trkpt lat="37.495486666666665" lon="126.80056166666667">
        <ele>169.6</ele>
        <time>2017-11-12T01:50:17Z</time>
      </trkpt>
      <trkpt lat="37.49555" lon="126.80062166666667">
        <ele>170.7</ele>
        <time>2017-11-12T01:50:26Z</time>
      </trkpt>
      <trkpt lat="37.495601666666666" lon="126.80069833333333">
        <ele>169.3</ele>
        <time>2017-11-12T01:50:34Z</time>
      </trkpt>
      <trkpt lat="37.495665" lon="126.80075166666667">
        <ele>167.8</ele>
        <time>2017-11-12T01:50:42Z</time>
      </trkpt>
      <trkpt lat="37.49572666666667" lon="126.80080333333333">
        <ele>167.1</ele>
        <time>2017-11-12T01:50:49Z</time>
      </trkpt>
      <trkpt lat="37.495783333333335" lon="126.80086">
        <ele>166.7</ele>
        <time>2017-11-12T01:50:57Z</time>
      </trkpt>
      <trkpt lat="37.495853333333336" lon="126.80091666666667">
        <ele>166.2</ele>
        <time>2017-11-12T01:51:04Z</time>
      </trkpt>
      <trkpt lat="37.495898333333336" lon="126.80099333333334">
        <ele>165.4</ele>
        <time>2017-11-12T01:51:14Z</time>
      </trkpt>
      <trkpt lat="37.495955" lon="126.80106666666667">
        <ele>165.5</ele>
        <time>2017-11-12T01:51:24Z</time>
      </trkpt>
      <trkpt lat="37.496025" lon="126.80109666666667">
        <ele>166.7</ele>
        <time>2017-11-12T01:51:31Z</time>
      </trkpt>
      <trkpt lat="37.496096666666666" lon="126.80109666666667">
        <ele>168.3</ele>
        <time>2017-11-12T01:51:37Z</time>
      </trkpt>
      <trkpt lat="37.49617666666666" lon="126.80114">
        <ele>168.5</ele>
        <time>2017-11-12T01:51:45Z</time>
      </trkpt>
      <trkpt lat="37.496225" lon="126.801215">
        <ele>166.5</ele>
        <time>2017-11-12T01:51:55Z</time>
      </trkpt>
      <trkpt lat="37.49628666666667" lon="126.80127666666667">
        <ele>165.2</ele>
        <time>2017-11-12T01:52:07Z</time>
      </trkpt>
      <trkpt lat="37.49633333333333" lon="126.80136833333333">
        <ele>164.4</ele>
        <time>2017-11-12T01:52:18Z</time>
      </trkpt>
      <trkpt lat="37.49637333333333" lon="126.80145">
        <ele>162.9</ele>
        <time>2017-11-12T01:52:28Z</time>
      </trkpt>
      <trkpt lat="37.496445" lon="126.80150166666667">
        <ele>161.3</ele>
        <time>2017-11-12T01:52:37Z</time>
      </trkpt>
      <trkpt lat="37.496498333333335" lon="126.80157333333334">
        <ele>159.6</ele>
        <time>2017-11-12T01:52:45Z</time>
      </trkpt>
      <trkpt lat="37.496568333333336" lon="126.80161">
        <ele>158.6</ele>
        <time>2017-11-12T01:52:54Z</time>
      </trkpt>
      <trkpt lat="37.49663833333334" lon="126.80157833333334">
        <ele>159.0</ele>
        <time>2017-11-12T01:53:32Z</time>
      </trkpt>
      <trkpt lat="37.49671333333333" lon="126.80155333333333">
        <ele>158.6</ele>
        <time>2017-11-12T01:53:46Z</time>
      </trkpt>
      <trkpt lat="37.49678333333333" lon="126.80150833333333">
        <ele>156.4</ele>
        <time>2017-11-12T01:54:05Z</time>
      </trkpt>
      <trkpt lat="37.496858333333336" lon="126.80154666666667">
        <ele>154.1</ele>
        <time>2017-11-12T01:55:01Z</time>
      </trkpt>
      <trkpt lat="37.496945" lon="126.80156333333333">
        <ele>151.8</ele>
        <time>2017-11-12T01:55:10Z</time>
      </trkpt>
      <trkpt lat="37.49702166666667" lon="126.80154666666667">
        <ele>149.9</ele>
        <time>2017-11-12T01:55:15Z</time>
      </trkpt>
      <trkpt lat="37.49708833333333" lon="126.80150666666667">
        <ele>148.0</ele>
        <time>2017-11-12T01:55:24Z</time>
      </trkpt>
      <trkpt lat="37.49716" lon="126.80147666666667">
        <ele>146.2</ele>
        <time>2017-11-12T01:55:30Z</time>
      </trkpt>
      <trkpt lat="37.497218333333336" lon="126.80140833333333">
        <ele>144.6</ele>
        <time>2017-11-12T01:55:45Z</time>
      </trkpt>
      <trkpt lat="37.497295" lon="126.80137333333333">
        <ele>135.1</ele>
        <time>2017-11-12T01:56:16Z</time>
      </trkpt>
      <trkpt lat="37.49736333333333" lon="126.801325">
        <ele>135.2</ele>
        <time>2017-11-12T01:56:29Z</time>
      </trkpt>
      <trkpt lat="37.497435" lon="126.801295">
        <ele>129.5</ele>
        <time>2017-11-12T01:56:37Z</time>
      </trkpt>
      <trkpt lat="37.497521666666664" lon="126.8013">
        <ele>134.8</ele>
        <time>2017-11-12T01:56:43Z</time>
      </trkpt>
      <trkpt lat="37.497595" lon="126.80127666666667">
        <ele>132.7</ele>
        <time>2017-11-12T01:56:49Z</time>
      </trkpt>
      <trkpt lat="37.49767666666666" lon="126.80127833333333">
        <ele>130.8</ele>
        <time>2017-11-12T01:56:59Z</time>
      </trkpt>
      <trkpt lat="37.497746666666664" lon="126.80124666666667">
        <ele>128.9</ele>
        <time>2017-11-12T01:57:07Z</time>
      </trkpt>
      <trkpt lat="37.497815" lon="126.8012">
        <ele>127.5</ele>
        <time>2017-11-12T01:57:18Z</time>
      </trkpt>
      <trkpt lat="37.49786666666667" lon="126.80112666666666">
        <ele>126.8</ele>
        <time>2017-11-12T01:57:27Z</time>
      </trkpt>
      <trkpt lat="37.49793666666667" lon="126.801095">
        <ele>125.8</ele>
        <time>2017-11-12T01:57:58Z</time>
      </trkpt>
      <trkpt lat="37.49793833333333" lon="126.80099833333334">
        <ele>124.0</ele>
        <time>2017-11-12T01:58:08Z</time>
      </trkpt>
      <trkpt lat="37.497928333333334" lon="126.8009">
        <ele>122.3</ele>
        <time>2017-11-12T01:58:23Z</time>
      </trkpt>
      <trkpt lat="37.497908333333335" lon="126.80080833333334">
        <ele>120.2</ele>
        <time>2017-11-12T01:58:39Z</time>
      </trkpt>
      <trkpt lat="37.49787833333333" lon="126.80072333333334">
        <ele>118.6</ele>
        <time>2017-11-12T01:58:59Z</time>
      </trkpt>
      <trkpt lat="37.497843333333336" lon="126.80064333333334">
        <ele>116.8</ele>
        <time>2017-11-12T01:59:11Z</time>
      </trkpt>
      <trkpt lat="37.49778" lon="126.80058166666667">
        <ele>116.2</ele>
        <time>2017-11-12T01:59:23Z</time>
      </trkpt>
      <trkpt lat="37.49776" lon="126.80049333333334">
        <ele>114.3</ele>
        <time>2017-11-12T01:59:33Z</time>
      </trkpt>
      <trkpt lat="37.49771" lon="126.80042166666667">
        <ele>112.0</ele>
        <time>2017-11-12T01:59:49Z</time>
      </trkpt>
      <trkpt lat="37.49766" lon="126.80035333333333">
        <ele>111.0</ele>
        <time>2017-11-12T01:59:58Z</time>
      </trkpt>
      <trkpt lat="37.49762666666667" lon="126.80025833333333">
        <ele>109.0</ele>
        <time>2017-11-12T02:00:03Z</time>
      </trkpt>
      <trkpt lat="37.497598333333336" lon="126.80016166666667">
        <ele>106.7</ele>
        <time>2017-11-12T02:00:12Z</time>
      </trkpt>
      <trkpt lat="37.49753333333334" lon="126.80012333333333">
        <ele>105.9</ele>
        <time>2017-11-12T02:00:21Z</time>
      </trkpt>
      <trkpt lat="37.497461666666666" lon="126.80009">
        <ele>106.6</ele>
        <time>2017-11-12T02:00:30Z</time>
      </trkpt>
      <trkpt lat="37.49739833333334" lon="126.800035">
        <ele>108.1</ele>
        <time>2017-11-12T02:00:37Z</time>
      </trkpt>
      <trkpt lat="37.497355" lon="126.79995166666667">
        <ele>107.7</ele>
        <time>2017-11-12T02:00:43Z</time>
      </trkpt>
      <trkpt lat="37.49730666666667" lon="126.79988333333333">
        <ele>107.5</ele>
        <time>2017-11-12T02:00:53Z</time>
      </trkpt>
      <trkpt lat="37.49727166666667" lon="126.79978333333334">
        <ele>106.2</ele>
        <time>2017-11-12T02:01:05Z</time>
      </trkpt>
      <trkpt lat="37.497256666666665" lon="126.79968833333334">
        <ele>104.3</ele>
        <time>2017-11-12T02:01:20Z</time>
      </trkpt>
      <trkpt lat="37.497255" lon="126.79959">
        <ele>94.3</ele>
        <time>2017-11-12T02:01:35Z</time>
      </trkpt>
      <trkpt lat="37.49727166666667" lon="126.79949833333333">
        <ele>87.2</ele>
        <time>2017-11-12T02:01:54Z</time>
      </trkpt>
      <trkpt lat="37.497315" lon="126.79941166666667">
        <ele>86.2</ele>
        <time>2017-11-12T02:02:02Z</time>
      </trkpt>
      <trkpt lat="37.49735166666667" lon="126.79933166666666">
        <ele>85.9</ele>
        <time>2017-11-12T02:02:32Z</time>
      </trkpt>
      <trkpt lat="37.49738333333333" lon="126.79924166666666">
        <ele>87.1</ele>
        <time>2017-11-12T02:02:51Z</time>
      </trkpt>
      <trkpt lat="37.497425" lon="126.79916">
        <ele>80.7</ele>
        <time>2017-11-12T02:03:11Z</time>
      </trkpt>
      <trkpt lat="37.49742" lon="126.799065">
        <ele>77.9</ele>
        <time>2017-11-12T02:03:29Z</time>
      </trkpt>
      <trkpt lat="37.49739833333334" lon="126.79896166666667">
        <ele>78.9</ele>
        <time>2017-11-12T02:03:36Z</time>
      </trkpt>
      <trkpt lat="37.49737833333333" lon="126.798875">
        <ele>76.4</ele>
        <time>2017-11-12T02:03:43Z</time>
      </trkpt>
      <trkpt lat="37.49735833333333" lon="126.79877666666667">
        <ele>74.1</ele>
        <time>2017-11-12T02:03:53Z</time>
      </trkpt>
      <trkpt lat="37.497375" lon="126.79868333333333">
        <ele>72.0</ele>
        <time>2017-11-12T02:04:05Z</time>
      </trkpt>
      <trkpt lat="37.49744166666667" lon="126.79864833333333">
        <ele>70.6</ele>
        <time>2017-11-12T02:04:38Z</time>
      </trkpt>
      <trkpt lat="37.49747166666667" lon="126.79855666666667">
        <ele>69.3</ele>
        <time>2017-11-12T02:04:57Z</time>
      </trkpt>
      <trkpt lat="37.49748666666667" lon="126.79845666666667">
        <ele>68.7</ele>
        <time>2017-11-12T02:05:07Z</time>
      </trkpt>
      <trkpt lat="37.497551666666666" lon="126.79839333333334">
        <ele>67.8</ele>
        <time>2017-11-12T02:05:16Z</time>
      </trkpt>
      <trkpt lat="37.497611666666664" lon="126.79833666666667">
        <ele>62.4</ele>
        <time>2017-11-12T02:05:21Z</time>
      </trkpt>
      <trkpt lat="37.49766666666667" lon="126.79827833333333">
        <ele>55.1</ele>
        <time>2017-11-12T02:05:27Z</time>
      </trkpt>
      <trkpt lat="37.49773166666667" lon="126.79823666666667">
        <ele>52.7</ele>
        <time>2017-11-12T02:05:32Z</time>
      </trkpt>
      <trkpt lat="37.49781" lon="126.79822166666666">
        <ele>57.6</ele>
        <time>2017-11-12T02:05:39Z</time>
      </trkpt>
      <trkpt lat="37.49786" lon="126.79813833333333">
        <ele>59.4</ele>
        <time>2017-11-12T02:05:45Z</time>
      </trkpt>
      <trkpt lat="37.49791" lon="126.79807">
        <ele>58.7</ele>
        <time>2017-11-12T02:05:49Z</time>
      </trkpt>
      <trkpt lat="37.49796333333333" lon="126.79799">
        <ele>57.2</ele>
        <time>2017-11-12T02:05:53Z</time>
      </trkpt>
      <trkpt lat="37.49803" lon="126.797955">
        <ele>60.9</ele>
        <time>2017-11-12T02:06:04Z</time>
      </trkpt>
      <trkpt lat="37.498086666666666" lon="126.79788333333333">
        <ele>60.9</ele>
        <time>2017-11-12T02:06:13Z</time>
      </trkpt>
      <trkpt lat="37.498095" lon="126.79778166666667">
        <ele>59.5</ele>
        <time>2017-11-12T02:06:20Z</time>
      </trkpt>
      <trkpt lat="37.49811" lon="126.79767666666666">
        <ele>60.0</ele>
        <time>2017-11-12T02:06:25Z</time>
      </trkpt>
      <trkpt lat="37.49811833333333" lon="126.79758">
        <ele>57.4</ele>
        <time>2017-11-12T02:06:32Z</time>
      </trkpt>
      <trkpt lat="37.49811" lon="126.79749">
        <ele>55.9</ele>
        <time>2017-11-12T02:06:39Z</time>
      </trkpt>
      <trkpt lat="37.498125" lon="126.79739000000001">
        <ele>55.3</ele>
        <time>2017-11-12T02:06:46Z</time>
      </trkpt>
      <trkpt lat="37.498151666666665" lon="126.79729666666667">
        <ele>54.0</ele>
        <time>2017-11-12T02:06:52Z</time>
      </trkpt>
      <trkpt lat="37.49819" lon="126.79721">
        <ele>50.3</ele>
        <time>2017-11-12T02:07:00Z</time>
      </trkpt>
      <trkpt lat="37.49825" lon="126.797155">
        <ele>50.6</ele>
        <time>2017-11-12T02:07:06Z</time>
      </trkpt>
      <trkpt lat="37.49830166666667" lon="126.79708833333333">
        <ele>54.7</ele>
        <time>2017-11-12T02:07:15Z</time>
      </trkpt>
      <trkpt lat="37.498331666666665" lon="126.79699833333333">
        <ele>59.1</ele>
        <time>2017-11-12T02:07:24Z</time>
      </trkpt>
      <trkpt lat="37.498293333333336" lon="126.796905">
        <ele>59.9</ele>
        <time>2017-11-12T02:07:30Z</time>
      </trkpt>
      <trkpt lat="37.498225" lon="126.79684666666667">
        <ele>56.8</ele>
        <time>2017-11-12T02:07:37Z</time>
      </trkpt>
    </trkseg>
  </trk>
</gpx>
