<?xml version="1.0" encoding="UTF-8"?>
<gpx version="1.1" creator="네이버지도" xmlns="http://www.topografix.com/GPX/1/1" xmlns:nmap="https://map.naver.com/gpx/1" xmlns:xsi="http://www.w3.org/2001/XMLSchema-instance" xsi:schemaLocation="http://www.topografix.com/GPX/1/1 http://www.topografix.com/GPX/1/1/gpx.xsd">
  <metadata>
    <name>북한산성탐방지원센터-북한산_260714</name>
    <desc>북한산성탐방지원센터-향옥탄-경기 고양시 덕양구 대서문길 263-북한산</desc>
    <author><name>네이버지도</name></author>
    <link href="https://map.naver.com"><text>네이버지도</text></link>
    <time>2026-07-14T11:02:11.216Z</time>
    <bounds minlat="37.6523671" minlon="126.9492597" maxlat="37.6588718" maxlon="126.9794499"/>
    <extensions>
      <nmap:walkCourse schemaVersion="1.0">
        <nmap:distance>3554</nmap:distance>
        <nmap:duration>8387.3</nmap:duration>
        <nmap:stepCount>5553</nmap:stepCount>
        <nmap:calories>194</nmap:calories>
        <nmap:totalAscent>832</nmap:totalAscent>
        <nmap:totalDescent>63</nmap:totalDescent>
        <nmap:altMin>64</nmap:altMin>
        <nmap:altMax>834</nmap:altMax>
      </nmap:walkCourse>
    </extensions>
  </metadata>
  <wpt lat="37.6550965" lon="126.9492597">
    <name>북한산성탐방지원센터</name>
    <desc>서울 은평구 진관동</desc>
  </wpt>
  <wpt lat="37.6550716" lon="126.9583055">
    <name>향옥탄</name>
    <desc>경기 고양시 덕양구 북한동</desc>
  </wpt>
  <wpt lat="37.6529287" lon="126.9615565">
    <name>경유지 #2</name>
    <desc>경기 고양시 덕양구 대서문길 263</desc>
  </wpt>
  <wpt lat="37.6586838" lon="126.9780086">
    <name>북한산</name>
    <desc>경기 고양시 덕양구 대서문길 375</desc>
  </wpt>
  <rte>
    <name>북한산성탐방지원센터-북한산_260714</name>
    <desc>북한산성탐방지원센터-향옥탄-경기 고양시 덕양구 대서문길 263-북한산</desc>
    <type>walking</type>
    <rtept lat="37.6550965" lon="126.9492597">
      <name>북한산성탐방지원센터</name>
      <desc>서울 은평구 진관동</desc>
      <type>start</type>
    </rtept>
    <rtept lat="37.6550716" lon="126.9583055">
      <name>향옥탄</name>
      <desc>경기 고양시 덕양구 북한동</desc>
      <type>waypoint</type>
    </rtept>
    <rtept lat="37.6529287" lon="126.9615565">
      <name>경유지 #2</name>
      <desc>경기 고양시 덕양구 대서문길 263</desc>
      <type>waypoint</type>
    </rtept>
    <rtept lat="37.6586838" lon="126.9780086">
      <name>북한산</name>
      <desc>경기 고양시 덕양구 대서문길 375</desc>
      <type>goal</type>
    </rtept>
  </rte>
  <trk>
    <name>북한산성탐방지원센터-북한산_260714</name>
    <desc>북한산성탐방지원센터-향옥탄-경기 고양시 덕양구 대서문길 263-북한산</desc>
    <type>walking</type>
    <trkseg>
      <trkpt lat="37.6550965" lon="126.9492597"><ele>64.04</ele></trkpt>
      <trkpt lat="37.6550857" lon="126.9492745"><ele>64.05</ele></trkpt>
      <trkpt lat="37.6550732" lon="126.9493018"><ele>64.31</ele></trkpt>
      <trkpt lat="37.655067" lon="126.9493268"><ele>64.32</ele></trkpt>
      <trkpt lat="37.6550772" lon="126.9493811"><ele>64.08</ele></trkpt>
      <trkpt lat="37.655038" lon="126.9494914"><ele>64.58</ele></trkpt>
      <trkpt lat="37.6547833" lon="126.9505249"><ele>69.75</ele></trkpt>
      <trkpt lat="37.6548695" lon="126.9506512"><ele>68.69</ele></trkpt>
      <trkpt lat="37.6548918" lon="126.950786"><ele>68.96</ele></trkpt>
      <trkpt lat="37.6549059" lon="126.9509253"><ele>68.26</ele></trkpt>
      <trkpt lat="37.6549386" lon="126.9509829"><ele>67.18</ele></trkpt>
      <trkpt lat="37.6548499" lon="126.9510845"><ele>69.07</ele></trkpt>
      <trkpt lat="37.6547908" lon="126.9511778"><ele>68.95</ele></trkpt>
      <trkpt lat="37.654679" lon="126.9513669"><ele>69.8</ele></trkpt>
      <trkpt lat="37.6546435" lon="126.9514714"><ele>69.91</ele></trkpt>
      <trkpt lat="37.6546135" lon="126.9516122"><ele>70.1</ele></trkpt>
      <trkpt lat="37.6545999" lon="126.9517824"><ele>72.29</ele></trkpt>
      <trkpt lat="37.6545998" lon="126.9519581"><ele>73.2</ele></trkpt>
      <trkpt lat="37.6545947" lon="126.9522223"><ele>73.44</ele></trkpt>
      <trkpt lat="37.6546053" lon="126.9523809"><ele>74.23</ele></trkpt>
      <trkpt lat="37.6546367" lon="126.9525292"><ele>74.25</ele></trkpt>
      <trkpt lat="37.654675" lon="126.9526343"><ele>74.21</ele></trkpt>
      <trkpt lat="37.6547017" lon="126.9527475"><ele>74.05</ele></trkpt>
      <trkpt lat="37.654712" lon="126.9528415"><ele>74.45</ele></trkpt>
      <trkpt lat="37.6547155" lon="126.9530104"><ele>75.22</ele></trkpt>
      <trkpt lat="37.6547228" lon="126.9530319"><ele>75.99</ele></trkpt>
      <trkpt lat="37.6547338" lon="126.9530602"><ele>77.01</ele></trkpt>
      <trkpt lat="37.654814" lon="126.9532648"><ele>77.58</ele></trkpt>
      <trkpt lat="37.654845" lon="126.9533405"><ele>77.3</ele></trkpt>
      <trkpt lat="37.6549413" lon="126.9534906"><ele>77.93</ele></trkpt>
      <trkpt lat="37.6550182" lon="126.9535648"><ele>77.71</ele></trkpt>
      <trkpt lat="37.6551522" lon="126.953684"><ele>79.61</ele></trkpt>
      <trkpt lat="37.655204" lon="126.9537778"><ele>80.55</ele></trkpt>
      <trkpt lat="37.6552131" lon="126.9538038"><ele>81.56</ele></trkpt>
      <trkpt lat="37.6552789" lon="126.9539858"><ele>81.74</ele></trkpt>
      <trkpt lat="37.6552862" lon="126.9540073"><ele>81.74</ele></trkpt>
      <trkpt lat="37.6552382" lon="126.9541539"><ele>85.33</ele></trkpt>
      <trkpt lat="37.6551404" lon="126.9544471"><ele>88.11</ele></trkpt>
      <trkpt lat="37.6551297" lon="126.95448"><ele>88.34</ele></trkpt>
      <trkpt lat="37.65507" lon="126.9546188"><ele>92.08</ele></trkpt>
      <trkpt lat="37.6550656" lon="126.9546528"><ele>92.46</ele></trkpt>
      <trkpt lat="37.6550526" lon="126.9547686"><ele>93.65</ele></trkpt>
      <trkpt lat="37.6551433" lon="126.9548767"><ele>96.95</ele></trkpt>
      <trkpt lat="37.6551741" lon="126.9549128"><ele>96.77</ele></trkpt>
      <trkpt lat="37.6552474" lon="126.9549678"><ele>103.59</ele></trkpt>
      <trkpt lat="37.6553269" lon="126.9550273"><ele>103.99</ele></trkpt>
      <trkpt lat="37.6553807" lon="126.9551471"><ele>108.24</ele></trkpt>
      <trkpt lat="37.6554053" lon="126.9552036"><ele>108.76</ele></trkpt>
      <trkpt lat="37.6554849" lon="126.9552778"><ele>109.41</ele></trkpt>
      <trkpt lat="37.6555464" lon="126.9553182"><ele>108.25</ele></trkpt>
      <trkpt lat="37.6556171" lon="126.955397"><ele>109.46</ele></trkpt>
      <trkpt lat="37.6556417" lon="126.9554649"><ele>111.07</ele></trkpt>
      <trkpt lat="37.6556855" lon="126.9555859"><ele>110.3</ele></trkpt>
      <trkpt lat="37.6556947" lon="126.9556107"><ele>111.43</ele></trkpt>
      <trkpt lat="37.6557227" lon="126.9558339"><ele>113.93</ele></trkpt>
      <trkpt lat="37.6557046" lon="126.9560041"><ele>115.59</ele></trkpt>
      <trkpt lat="37.6557331" lon="126.9561342"><ele>116.96</ele></trkpt>
      <trkpt lat="37.655738" lon="126.9562101"><ele>117.58</ele></trkpt>
      <trkpt lat="37.6557295" lon="126.9563236"><ele>118.66</ele></trkpt>
      <trkpt lat="37.65571" lon="126.956394"><ele>117.93</ele></trkpt>
      <trkpt lat="37.6556825" lon="126.9564962"><ele>119.34</ele></trkpt>
      <trkpt lat="37.6556791" lon="126.9565314"><ele>118.86</ele></trkpt>
      <trkpt lat="37.6556766" lon="126.9565666"><ele>117.93</ele></trkpt>
      <trkpt lat="37.6556731" lon="126.9566074"><ele>116.93</ele></trkpt>
      <trkpt lat="37.6556879" lon="126.9566923"><ele>113.88</ele></trkpt>
      <trkpt lat="37.6557172" lon="126.9567851"><ele>112.5</ele></trkpt>
      <trkpt lat="37.6557309" lon="126.9568292"><ele>112.73</ele></trkpt>
      <trkpt lat="37.6557483" lon="126.9568835"><ele>113.04</ele></trkpt>
      <trkpt lat="37.6557436" lon="126.9570366"><ele>113.89</ele></trkpt>
      <trkpt lat="37.6556912" lon="126.9572093"><ele>115.3</ele></trkpt>
      <trkpt lat="37.6556024" lon="126.9574854"><ele>119.17</ele></trkpt>
      <trkpt lat="37.6555721" lon="126.9575593"><ele>120.55</ele></trkpt>
      <trkpt lat="37.6555417" lon="126.9576321"><ele>119.37</ele></trkpt>
      <trkpt lat="37.6555195" lon="126.9576855"><ele>120.34</ele></trkpt>
      <trkpt lat="37.6554998" lon="126.9577208"><ele>121.05</ele></trkpt>
      <trkpt lat="37.655336" lon="126.9579714"><ele>120.64</ele></trkpt>
      <trkpt lat="37.6552903" lon="126.9580341"><ele>120.4</ele></trkpt>
      <trkpt lat="37.6552491" lon="126.9580911"><ele>124.19</ele></trkpt>
      <trkpt lat="37.6550716" lon="126.9583055"><ele>130.17</ele></trkpt>
      <trkpt lat="37.6550716" lon="126.9583055"><ele>130.17</ele></trkpt>
      <trkpt lat="37.6549955" lon="126.9583979"><ele>132.75</ele></trkpt>
      <trkpt lat="37.6549074" lon="126.9584666"><ele>136.59</ele></trkpt>
      <trkpt lat="37.6548725" lon="126.9585144"><ele>137.47</ele></trkpt>
      <trkpt lat="37.6548565" lon="126.9585712"><ele>138.7</ele></trkpt>
      <trkpt lat="37.6548415" lon="126.9586246"><ele>138.75</ele></trkpt>
      <trkpt lat="37.6548374" lon="126.9587233"><ele>138.64</ele></trkpt>
      <trkpt lat="37.6547938" lon="126.9588404"><ele>139.31</ele></trkpt>
      <trkpt lat="37.6547771" lon="126.9589357"><ele>139.66</ele></trkpt>
      <trkpt lat="37.6547227" lon="126.9590586"><ele>138.92</ele></trkpt>
      <trkpt lat="37.6547129" lon="126.9590813"><ele>140.19</ele></trkpt>
      <trkpt lat="37.6546816" lon="126.9591337"><ele>140.55</ele></trkpt>
      <trkpt lat="37.654652" lon="126.9591838"><ele>139.9</ele></trkpt>
      <trkpt lat="37.6546174" lon="126.9592951"><ele>139.2</ele></trkpt>
      <trkpt lat="37.6545437" lon="126.9595292"><ele>140.81</ele></trkpt>
      <trkpt lat="37.6545206" lon="126.9596019"><ele>142.46</ele></trkpt>
      <trkpt lat="37.6544452" lon="126.9596796"><ele>145.11</ele></trkpt>
      <trkpt lat="37.6544336" lon="126.9597012"><ele>146.5</ele></trkpt>
      <trkpt lat="37.6543728" lon="126.9598161"><ele>147.85</ele></trkpt>
      <trkpt lat="37.6542416" lon="126.9598896"><ele>153.16</ele></trkpt>
      <trkpt lat="37.6542084" lon="126.9599216"><ele>153.68</ele></trkpt>
      <trkpt lat="37.6540545" lon="126.9601835"><ele>157.46</ele></trkpt>
      <trkpt lat="37.6539377" lon="126.9602671"><ele>160.02</ele></trkpt>
      <trkpt lat="37.6538533" lon="126.9603266"><ele>166.16</ele></trkpt>
      <trkpt lat="37.6538246" lon="126.9603586"><ele>167.27</ele></trkpt>
      <trkpt lat="37.6537987" lon="126.9604087"><ele>167.45</ele></trkpt>
      <trkpt lat="37.6538407" lon="126.9605353"><ele>165.86</ele></trkpt>
      <trkpt lat="37.6538418" lon="126.9605841"><ele>165.19</ele></trkpt>
      <trkpt lat="37.6538276" lon="126.9606284"><ele>166.16</ele></trkpt>
      <trkpt lat="37.6538017" lon="126.9606682"><ele>165.08</ele></trkpt>
      <trkpt lat="37.6537586" lon="126.9607026"><ele>169.79</ele></trkpt>
      <trkpt lat="37.6536876" lon="126.9607439"><ele>171.99</ele></trkpt>
      <trkpt lat="37.6536138" lon="126.9607716"><ele>172.92</ele></trkpt>
      <trkpt lat="37.6535868" lon="126.960782"><ele>172.92</ele></trkpt>
      <trkpt lat="37.6535338" lon="126.9608198"><ele>173.18</ele></trkpt>
      <trkpt lat="37.6535098" lon="126.9608993"><ele>171.12</ele></trkpt>
      <trkpt lat="37.6535319" lon="126.9610001"><ele>170.94</ele></trkpt>
      <trkpt lat="37.653452" lon="126.9610732"><ele>170.75</ele></trkpt>
      <trkpt lat="37.6534166" lon="126.9612106"><ele>171.58</ele></trkpt>
      <trkpt lat="37.6533394" lon="126.9612736"><ele>173.5</ele></trkpt>
      <trkpt lat="37.6532628" lon="126.9612832"><ele>175.31</ele></trkpt>
      <trkpt lat="37.6532323" lon="126.9613106"><ele>176.18</ele></trkpt>
      <trkpt lat="37.65311" lon="126.9613863"><ele>179.3</ele></trkpt>
      <trkpt lat="37.6530822" lon="126.9614194"><ele>180.33</ele></trkpt>
      <trkpt lat="37.6530265" lon="126.9614493"><ele>181.9</ele></trkpt>
      <trkpt lat="37.6529763" lon="126.9615199"><ele>185.3</ele></trkpt>
      <trkpt lat="37.6529287" lon="126.9615565"><ele>186.35</ele></trkpt>
      <trkpt lat="37.6529287" lon="126.9615565"><ele>186.35</ele></trkpt>
      <trkpt lat="37.6528892" lon="126.9615863"><ele>187.22</ele></trkpt>
      <trkpt lat="37.6528771" lon="126.9616952"><ele>186.21</ele></trkpt>
      <trkpt lat="37.6528503" lon="126.9617442"><ele>186.18</ele></trkpt>
      <trkpt lat="37.6527991" lon="126.9617989"><ele>185.16</ele></trkpt>
      <trkpt lat="37.6526187" lon="126.961951"><ele>184.35</ele></trkpt>
      <trkpt lat="37.6525266" lon="126.9621195"><ele>183.64</ele></trkpt>
      <trkpt lat="37.6523863" lon="126.9623778"><ele>184.82</ele></trkpt>
      <trkpt lat="37.6523671" lon="126.9625185"><ele>185.02</ele></trkpt>
      <trkpt lat="37.6524085" lon="126.9626962"><ele>185.76</ele></trkpt>
      <trkpt lat="37.6524294" lon="126.9627437"><ele>186.29</ele></trkpt>
      <trkpt lat="37.6524557" lon="126.9627877"><ele>187.17</ele></trkpt>
      <trkpt lat="37.6524873" lon="126.9627977"><ele>187.69</ele></trkpt>
      <trkpt lat="37.6525135" lon="126.9627997"><ele>187.69</ele></trkpt>
      <trkpt lat="37.6526547" lon="126.9627443"><ele>190.38</ele></trkpt>
      <trkpt lat="37.6528184" lon="126.9626513"><ele>192.08</ele></trkpt>
      <trkpt lat="37.6529755" lon="126.9625164"><ele>191.93</ele></trkpt>
      <trkpt lat="37.6530186" lon="126.9624753"><ele>191.65</ele></trkpt>
      <trkpt lat="37.6530852" lon="126.9624555"><ele>191.09</ele></trkpt>
      <trkpt lat="37.6531413" lon="126.962522"><ele>191.92</ele></trkpt>
      <trkpt lat="37.6531751" lon="126.9626147"><ele>192.85</ele></trkpt>
      <trkpt lat="37.6532646" lon="126.9632648"><ele>206.2</ele></trkpt>
      <trkpt lat="37.6532833" lon="126.9634018"><ele>209.45</ele></trkpt>
      <trkpt lat="37.6532763" lon="126.9634631"><ele>212.16</ele></trkpt>
      <trkpt lat="37.6532587" lon="126.963546"><ele>218.33</ele></trkpt>
      <trkpt lat="37.6532119" lon="126.9637663"><ele>227.29</ele></trkpt>
      <trkpt lat="37.6531819" lon="126.9639093"><ele>232.44</ele></trkpt>
      <trkpt lat="37.6531769" lon="126.9640034"><ele>234.43</ele></trkpt>
      <trkpt lat="37.6531916" lon="126.9640679"><ele>233.91</ele></trkpt>
      <trkpt lat="37.6532135" lon="126.9641154"><ele>235.01</ele></trkpt>
      <trkpt lat="37.6532226" lon="126.9641357"><ele>236.13</ele></trkpt>
      <trkpt lat="37.653269" lon="126.9642397"><ele>234.89</ele></trkpt>
      <trkpt lat="37.6532818" lon="126.964268"><ele>236</ele></trkpt>
      <trkpt lat="37.6533328" lon="126.9643968"><ele>237.77</ele></trkpt>
      <trkpt lat="37.6533629" lon="126.9644748"><ele>237.18</ele></trkpt>
      <trkpt lat="37.6533913" lon="126.9645631"><ele>237.81</ele></trkpt>
      <trkpt lat="37.6534288" lon="126.9646796"><ele>240.15</ele></trkpt>
      <trkpt lat="37.6534644" lon="126.9647927"><ele>241.96</ele></trkpt>
      <trkpt lat="37.6534798" lon="126.9648107"><ele>242.17</ele></trkpt>
      <trkpt lat="37.6536095" lon="126.9649753"><ele>242.95</ele></trkpt>
      <trkpt lat="37.6536557" lon="126.9650418"><ele>242.8</ele></trkpt>
      <trkpt lat="37.6536949" lon="126.9651402"><ele>243.74</ele></trkpt>
      <trkpt lat="37.6536969" lon="126.9651662"><ele>245.16</ele></trkpt>
      <trkpt lat="37.6537036" lon="126.9652558"><ele>247.8</ele></trkpt>
      <trkpt lat="37.6537219" lon="126.9653112"><ele>247.33</ele></trkpt>
      <trkpt lat="37.6537409" lon="126.9653326"><ele>246.86</ele></trkpt>
      <trkpt lat="37.6537681" lon="126.9653619"><ele>246.73</ele></trkpt>
      <trkpt lat="37.6538505" lon="126.965452"><ele>247.84</ele></trkpt>
      <trkpt lat="37.6539057" lon="126.9655116"><ele>248.69</ele></trkpt>
      <trkpt lat="37.6539537" lon="126.9655634"><ele>249.54</ele></trkpt>
      <trkpt lat="37.653973" lon="126.9656336"><ele>251.51</ele></trkpt>
      <trkpt lat="37.6539688" lon="126.9657107"><ele>255.21</ele></trkpt>
      <trkpt lat="37.653946" lon="126.9658379"><ele>260.92</ele></trkpt>
      <trkpt lat="37.6539122" lon="126.9659435"><ele>266.49</ele></trkpt>
      <trkpt lat="37.6539133" lon="126.9659843"><ele>268.37</ele></trkpt>
      <trkpt lat="37.6539233" lon="126.9660149"><ele>268.27</ele></trkpt>
      <trkpt lat="37.6539406" lon="126.9660522"><ele>270.9</ele></trkpt>
      <trkpt lat="37.6539679" lon="126.966112"><ele>271.59</ele></trkpt>
      <trkpt lat="37.6539728" lon="126.9661959"><ele>272.82</ele></trkpt>
      <trkpt lat="37.6539278" lon="126.9664105"><ele>281.2</ele></trkpt>
      <trkpt lat="37.6539343" lon="126.9664433"><ele>282.24</ele></trkpt>
      <trkpt lat="37.6539445" lon="126.9664988"><ele>282.23</ele></trkpt>
      <trkpt lat="37.6539691" lon="126.9665689"><ele>285.08</ele></trkpt>
      <trkpt lat="37.6539909" lon="126.9666028"><ele>285.62</ele></trkpt>
      <trkpt lat="37.6541025" lon="126.966772"><ele>287.36</ele></trkpt>
      <trkpt lat="37.6542225" lon="126.966999"><ele>290.99</ele></trkpt>
      <trkpt lat="37.6542554" lon="126.9671031"><ele>295.02</ele></trkpt>
      <trkpt lat="37.6542737" lon="126.9671596"><ele>294.84</ele></trkpt>
      <trkpt lat="37.6543281" lon="126.9672159"><ele>294.65</ele></trkpt>
      <trkpt lat="37.6544095" lon="126.9672766"><ele>293.16</ele></trkpt>
      <trkpt lat="37.654462" lon="126.9673374"><ele>293.01</ele></trkpt>
      <trkpt lat="37.6544458" lon="126.9673443"><ele>293.01</ele></trkpt>
      <trkpt lat="37.6544288" lon="126.9673773"><ele>295.59</ele></trkpt>
      <trkpt lat="37.6544246" lon="126.9674374"><ele>296.92</ele></trkpt>
      <trkpt lat="37.6544456" lon="126.9675042"><ele>298.57</ele></trkpt>
      <trkpt lat="37.6545032" lon="126.9676829"><ele>302.7</ele></trkpt>
      <trkpt lat="37.654516" lon="126.9677225"><ele>302.41</ele></trkpt>
      <trkpt lat="37.6545606" lon="126.9678174"><ele>303.14</ele></trkpt>
      <trkpt lat="37.6545726" lon="126.9678672"><ele>304.12</ele></trkpt>
      <trkpt lat="37.6545799" lon="126.9678989"><ele>303.79</ele></trkpt>
      <trkpt lat="37.6546015" lon="126.9680982"><ele>307.88</ele></trkpt>
      <trkpt lat="37.654578" lon="126.9682809"><ele>310.82</ele></trkpt>
      <trkpt lat="37.654585" lon="126.9686357"><ele>318.7</ele></trkpt>
      <trkpt lat="37.6546111" lon="126.9688169"><ele>324.13</ele></trkpt>
      <trkpt lat="37.654644" lon="126.9689165"><ele>323.79</ele></trkpt>
      <trkpt lat="37.6546585" lon="126.9689447"><ele>322.11</ele></trkpt>
      <trkpt lat="37.6546903" lon="126.9690034"><ele>320.2</ele></trkpt>
      <trkpt lat="37.6547284" lon="126.9690474"><ele>318.26</ele></trkpt>
      <trkpt lat="37.6547665" lon="126.9690913"><ele>316.23</ele></trkpt>
      <trkpt lat="37.6547911" lon="126.9691557"><ele>316.86</ele></trkpt>
      <trkpt lat="37.6548185" lon="126.9692304"><ele>314.66</ele></trkpt>
      <trkpt lat="37.6548736" lon="126.9692753"><ele>314.93</ele></trkpt>
      <trkpt lat="37.6549144" lon="126.9693102"><ele>315.01</ele></trkpt>
      <trkpt lat="37.6549343" lon="126.969327"><ele>314.9</ele></trkpt>
      <trkpt lat="37.6549705" lon="126.9693676"><ele>315</ele></trkpt>
      <trkpt lat="37.6549977" lon="126.969398"><ele>315.08</ele></trkpt>
      <trkpt lat="37.6550486" lon="126.9695054"><ele>317.99</ele></trkpt>
      <trkpt lat="37.6550878" lon="126.9695878"><ele>319.71</ele></trkpt>
      <trkpt lat="37.6551295" lon="126.9696454"><ele>319.99</ele></trkpt>
      <trkpt lat="37.6551829" lon="126.9696892"><ele>322.72</ele></trkpt>
      <trkpt lat="37.6552347" lon="126.9697886"><ele>324.91</ele></trkpt>
      <trkpt lat="37.6552874" lon="126.9698891"><ele>326.95</ele></trkpt>
      <trkpt lat="37.6553562" lon="126.9699646"><ele>331.85</ele></trkpt>
      <trkpt lat="37.6553915" lon="126.9699757"><ele>334.5</ele></trkpt>
      <trkpt lat="37.6554132" lon="126.9699959"><ele>337.01</ele></trkpt>
      <trkpt lat="37.6554567" lon="126.9700546"><ele>339.76</ele></trkpt>
      <trkpt lat="37.6554968" lon="126.9701461"><ele>342.82</ele></trkpt>
      <trkpt lat="37.6555632" lon="126.9702964"><ele>347.89</ele></trkpt>
      <trkpt lat="37.6555832" lon="126.9703246"><ele>350.31</ele></trkpt>
      <trkpt lat="37.6555888" lon="126.9703597"><ele>350.31</ele></trkpt>
      <trkpt lat="37.6555848" lon="126.9704777"><ele>350.53</ele></trkpt>
      <trkpt lat="37.6555815" lon="126.9705457"><ele>350.69</ele></trkpt>
      <trkpt lat="37.655603" lon="126.9707167"><ele>353.06</ele></trkpt>
      <trkpt lat="37.6556008" lon="126.9708267"><ele>355.41</ele></trkpt>
      <trkpt lat="37.6556256" lon="126.9709433"><ele>359.16</ele></trkpt>
      <trkpt lat="37.6556267" lon="126.9709705"><ele>359.93</ele></trkpt>
      <trkpt lat="37.6556307" lon="126.9712686"><ele>366.6</ele></trkpt>
      <trkpt lat="37.6556631" lon="126.9714645"><ele>374.09</ele></trkpt>
      <trkpt lat="37.6556761" lon="126.9715461"><ele>377.05</ele></trkpt>
      <trkpt lat="37.6556299" lon="126.9716972"><ele>377.87</ele></trkpt>
      <trkpt lat="37.6556273" lon="126.9717244"><ele>378.45</ele></trkpt>
      <trkpt lat="37.655623" lon="126.9717698"><ele>378.86</ele></trkpt>
      <trkpt lat="37.6556162" lon="126.9718447"><ele>379.13</ele></trkpt>
      <trkpt lat="37.6556272" lon="126.9718877"><ele>379.37</ele></trkpt>
      <trkpt lat="37.6556753" lon="126.9719621"><ele>381.91</ele></trkpt>
      <trkpt lat="37.6557192" lon="126.9721092"><ele>385.97</ele></trkpt>
      <trkpt lat="37.6557311" lon="126.9721499"><ele>385.85</ele></trkpt>
      <trkpt lat="37.6557154" lon="126.9722793"><ele>386.21</ele></trkpt>
      <trkpt lat="37.6557231" lon="126.9723869"><ele>388.03</ele></trkpt>
      <trkpt lat="37.655701" lon="126.9724869"><ele>391.91</ele></trkpt>
      <trkpt lat="37.6557012" lon="126.9725311"><ele>393.57</ele></trkpt>
      <trkpt lat="37.6558661" lon="126.9727034"><ele>404.92</ele></trkpt>
      <trkpt lat="37.6559413" lon="126.9728071"><ele>413.06</ele></trkpt>
      <trkpt lat="37.6560309" lon="126.9728859"><ele>419.12</ele></trkpt>
      <trkpt lat="37.6561352" lon="126.9730223"><ele>428.25</ele></trkpt>
      <trkpt lat="37.6561795" lon="126.9730571"><ele>429.55</ele></trkpt>
      <trkpt lat="37.6561977" lon="126.9730956"><ele>431.93</ele></trkpt>
      <trkpt lat="37.6561771" lon="126.9731161"><ele>433.73</ele></trkpt>
      <trkpt lat="37.6561104" lon="126.9731336"><ele>432.93</ele></trkpt>
      <trkpt lat="37.6560879" lon="126.9731394"><ele>432</ele></trkpt>
      <trkpt lat="37.6560691" lon="126.9731565"><ele>433.01</ele></trkpt>
      <trkpt lat="37.6560856" lon="126.9732199"><ele>436.47</ele></trkpt>
      <trkpt lat="37.6560336" lon="126.9732883"><ele>435.61</ele></trkpt>
      <trkpt lat="37.6559832" lon="126.9735143"><ele>442.41</ele></trkpt>
      <trkpt lat="37.6559779" lon="126.9735381"><ele>442.41</ele></trkpt>
      <trkpt lat="37.6560085" lon="126.9737193"><ele>449.29</ele></trkpt>
      <trkpt lat="37.6560043" lon="126.9737805"><ele>450.18</ele></trkpt>
      <trkpt lat="37.6559906" lon="126.9739405"><ele>451.2</ele></trkpt>
      <trkpt lat="37.6560109" lon="126.9740503"><ele>455.63</ele></trkpt>
      <trkpt lat="37.6560405" lon="126.9742156"><ele>462.95</ele></trkpt>
      <trkpt lat="37.656031" lon="126.9743291"><ele>464.14</ele></trkpt>
      <trkpt lat="37.6560379" lon="126.9744447"><ele>468.13</ele></trkpt>
      <trkpt lat="37.6560544" lon="126.9745069"><ele>469.64</ele></trkpt>
      <trkpt lat="37.6560423" lon="126.974626"><ele>471.2</ele></trkpt>
      <trkpt lat="37.6560574" lon="126.974974"><ele>478.29</ele></trkpt>
      <trkpt lat="37.6560894" lon="126.9750758"><ele>482.18</ele></trkpt>
      <trkpt lat="37.6561287" lon="126.9752025"><ele>486.71</ele></trkpt>
      <trkpt lat="37.6561424" lon="126.9752477"><ele>490.1</ele></trkpt>
      <trkpt lat="37.6561696" lon="126.9752736"><ele>490.62</ele></trkpt>
      <trkpt lat="37.6562211" lon="126.9753208"><ele>497.17</ele></trkpt>
      <trkpt lat="37.6562606" lon="126.9754827"><ele>502.68</ele></trkpt>
      <trkpt lat="37.6562737" lon="126.9755937"><ele>504.36</ele></trkpt>
      <trkpt lat="37.6562938" lon="126.9756389"><ele>507.5</ele></trkpt>
      <trkpt lat="37.6563499" lon="126.9756873"><ele>510.56</ele></trkpt>
      <trkpt lat="37.6564168" lon="126.9757457"><ele>516.03</ele></trkpt>
      <trkpt lat="37.6565379" lon="126.975822"><ele>526.46</ele></trkpt>
      <trkpt lat="37.6565696" lon="126.9758422"><ele>529.13</ele></trkpt>
      <trkpt lat="37.656708" lon="126.9759636"><ele>535.27</ele></trkpt>
      <trkpt lat="37.656763" lon="126.9759746"><ele>540</ele></trkpt>
      <trkpt lat="37.656854" lon="126.9759501"><ele>547.09</ele></trkpt>
      <trkpt lat="37.6568973" lon="126.9759646"><ele>547.8</ele></trkpt>
      <trkpt lat="37.6569128" lon="126.976003"><ele>548.51</ele></trkpt>
      <trkpt lat="37.6569274" lon="126.9760392"><ele>549.92</ele></trkpt>
      <trkpt lat="37.6569483" lon="126.9760923"><ele>549.04</ele></trkpt>
      <trkpt lat="37.6569541" lon="126.9761728"><ele>547.77</ele></trkpt>
      <trkpt lat="37.6569255" lon="126.9762172"><ele>547.31</ele></trkpt>
      <trkpt lat="37.6568984" lon="126.9762242"><ele>545.27</ele></trkpt>
      <trkpt lat="37.656848" lon="126.9762381"><ele>541.32</ele></trkpt>
      <trkpt lat="37.6568184" lon="126.9762656"><ele>541.59</ele></trkpt>
      <trkpt lat="37.6568114" lon="126.9763144"><ele>540.77</ele></trkpt>
      <trkpt lat="37.6568237" lon="126.9764515"><ele>546.78</ele></trkpt>
      <trkpt lat="37.6567729" lon="126.9765799"><ele>549.8</ele></trkpt>
      <trkpt lat="37.6567624" lon="126.9766355"><ele>551.99</ele></trkpt>
      <trkpt lat="37.6567351" lon="126.976782"><ele>557.41</ele></trkpt>
      <trkpt lat="37.6567128" lon="126.976849"><ele>561.52</ele></trkpt>
      <trkpt lat="37.656763" lon="126.9769745"><ele>568.78</ele></trkpt>
      <trkpt lat="37.6567748" lon="126.9770028"><ele>568.78</ele></trkpt>
      <trkpt lat="37.6568075" lon="126.9770479"><ele>572.35</ele></trkpt>
      <trkpt lat="37.6567775" lon="126.9771955"><ele>575.98</ele></trkpt>
      <trkpt lat="37.6567902" lon="126.9772169"><ele>580.44</ele></trkpt>
      <trkpt lat="37.6568401" lon="126.977305"><ele>587.21</ele></trkpt>
      <trkpt lat="37.6568479" lon="126.9774365"><ele>593.72</ele></trkpt>
      <trkpt lat="37.6568799" lon="126.9775315"><ele>600.06</ele></trkpt>
      <trkpt lat="37.656909" lon="126.9775846"><ele>603.61</ele></trkpt>
      <trkpt lat="37.6569272" lon="126.9776184"><ele>607.01</ele></trkpt>
      <trkpt lat="37.6570071" lon="126.9777641"><ele>615.26</ele></trkpt>
      <trkpt lat="37.6570255" lon="126.97784"><ele>618.89</ele></trkpt>
      <trkpt lat="37.6570599" lon="126.9778794"><ele>622.3</ele></trkpt>
      <trkpt lat="37.657071" lon="126.9779394"><ele>625.97</ele></trkpt>
      <trkpt lat="37.6570982" lon="126.9779789"><ele>628.57</ele></trkpt>
      <trkpt lat="37.6571022" lon="126.9780605"><ele>635.68</ele></trkpt>
      <trkpt lat="37.6571168" lon="126.9780955"><ele>636.93</ele></trkpt>
      <trkpt lat="37.6571332" lon="126.9781351"><ele>636.93</ele></trkpt>
      <trkpt lat="37.6571645" lon="126.9782902"><ele>644.04</ele></trkpt>
      <trkpt lat="37.657161" lon="126.9783174"><ele>644.04</ele></trkpt>
      <trkpt lat="37.6571288" lon="126.978363"><ele>644.53</ele></trkpt>
      <trkpt lat="37.6571288" lon="126.97838"><ele>646.5</ele></trkpt>
      <trkpt lat="37.6571587" lon="126.9784059"><ele>647.49</ele></trkpt>
      <trkpt lat="37.6572679" lon="126.9784448"><ele>654.84</ele></trkpt>
      <trkpt lat="37.6572851" lon="126.9784651"><ele>659.07</ele></trkpt>
      <trkpt lat="37.6572838" lon="126.9785705"><ele>661.88</ele></trkpt>
      <trkpt lat="37.657305" lon="126.978686"><ele>667.3</ele></trkpt>
      <trkpt lat="37.6573511" lon="126.9787129"><ele>671.03</ele></trkpt>
      <trkpt lat="37.6573755" lon="126.9787275"><ele>672.61</ele></trkpt>
      <trkpt lat="37.6574138" lon="126.9788179"><ele>679.1</ele></trkpt>
      <trkpt lat="37.6574247" lon="126.9788439"><ele>681.83</ele></trkpt>
      <trkpt lat="37.6574303" lon="126.978887"><ele>684.19</ele></trkpt>
      <trkpt lat="37.6574208" lon="126.9789789"><ele>686.46</ele></trkpt>
      <trkpt lat="37.6574797" lon="126.9790465"><ele>696.05</ele></trkpt>
      <trkpt lat="37.6574821" lon="126.9791893"><ele>701.99</ele></trkpt>
      <trkpt lat="37.6577283" lon="126.9794245"><ele>719.8</ele></trkpt>
      <trkpt lat="37.6578249" lon="126.9794499"><ele>718.18</ele></trkpt>
      <trkpt lat="37.6579282" lon="126.9793857"><ele>723.51</ele></trkpt>
      <trkpt lat="37.6579643" lon="126.9793957"><ele>722.88</ele></trkpt>
      <trkpt lat="37.6579905" lon="126.9794034"><ele>722.25</ele></trkpt>
      <trkpt lat="37.658047" lon="126.9793395"><ele>730.67</ele></trkpt>
      <trkpt lat="37.6580914" lon="126.9791952"><ele>740.07</ele></trkpt>
      <trkpt lat="37.6580849" lon="126.9791488"><ele>743.03</ele></trkpt>
      <trkpt lat="37.6580677" lon="126.9791138"><ele>744.01</ele></trkpt>
      <trkpt lat="37.6580558" lon="126.9790889"><ele>744.98</ele></trkpt>
      <trkpt lat="37.6580313" lon="126.9790381"><ele>750.48</ele></trkpt>
      <trkpt lat="37.6580282" lon="126.9789531"><ele>752.64</ele></trkpt>
      <trkpt lat="37.6580414" lon="126.9788918"><ele>756.93</ele></trkpt>
      <trkpt lat="37.6581807" lon="126.978596"><ele>772.56</ele></trkpt>
      <trkpt lat="37.6582057" lon="126.9785437"><ele>779.1</ele></trkpt>
      <trkpt lat="37.658289" lon="126.9784116"><ele>788.14</ele></trkpt>
      <trkpt lat="37.6583266" lon="126.9783512"><ele>796.36</ele></trkpt>
      <trkpt lat="37.6583706" lon="126.9783305"><ele>798.35</ele></trkpt>
      <trkpt lat="37.6584022" lon="126.9783394"><ele>800.92</ele></trkpt>
      <trkpt lat="37.6585345" lon="126.9784915"><ele>806.27</ele></trkpt>
      <trkpt lat="37.6585716" lon="126.9785343"><ele>805.22</ele></trkpt>
      <trkpt lat="37.6586023" lon="126.9785477"><ele>803.15</ele></trkpt>
      <trkpt lat="37.6586466" lon="126.9785655"><ele>803.78</ele></trkpt>
      <trkpt lat="37.6586709" lon="126.978554"><ele>804.22</ele></trkpt>
      <trkpt lat="37.6587006" lon="126.9785414"><ele>807.93</ele></trkpt>
      <trkpt lat="37.6587552" lon="126.9784639"><ele>810.4</ele></trkpt>
      <trkpt lat="37.6588397" lon="126.9784055"><ele>815.37</ele></trkpt>
      <trkpt lat="37.6588657" lon="126.9783724"><ele>815.32</ele></trkpt>
      <trkpt lat="37.6588718" lon="126.9783395"><ele>818.43</ele></trkpt>
      <trkpt lat="37.6588645" lon="126.978318"><ele>820.5</ele></trkpt>
      <trkpt lat="37.6588572" lon="126.9782965"><ele>820.5</ele></trkpt>
      <trkpt lat="37.6587548" lon="126.9781668"><ele>827.06</ele></trkpt>
      <trkpt lat="37.6587272" lon="126.9780378"><ele>832.42</ele></trkpt>
      <trkpt lat="37.6586838" lon="126.9780086"><ele>833.72</ele></trkpt>
    </trkseg>
  </trk>
</gpx>