<?xml version="1.0" encoding="UTF-8"?>
<gpx version="1.1" creator="네이버지도" xmlns="http://www.topografix.com/GPX/1/1" xmlns:nmap="https://map.naver.com/gpx/1" xmlns:xsi="http://www.w3.org/2001/XMLSchema-instance" xsi:schemaLocation="http://www.topografix.com/GPX/1/1 http://www.topografix.com/GPX/1/1/gpx.xsd">
  <metadata>
    <name>고양시청 제1별관-성사초등학교_260714</name>
    <desc>고양시청 제1별관-성사초등학교</desc>
    <author><name>네이버지도</name></author>
    <link href="https://map.naver.com"><text>네이버지도</text></link>
    <time>2026-07-14T11:04:27.000Z</time>
    <bounds minlat="37.6572015" minlon="126.8322608" maxlat="37.660121" maxlon="126.8433011"/>
    <extensions>
      <nmap:walkCourse schemaVersion="1.0">
        <nmap:distance>1348</nmap:distance>
        <nmap:duration>1381.2</nmap:duration>
        <nmap:stepCount>2107</nmap:stepCount>
        <nmap:calories>74</nmap:calories>
        <nmap:totalAscent>23</nmap:totalAscent>
        <nmap:totalDescent>11</nmap:totalDescent>
        <nmap:altMin>15</nmap:altMin>
        <nmap:altMax>30</nmap:altMax>
      </nmap:walkCourse>
    </extensions>
  </metadata>
  <wpt lat="37.6572015" lon="126.832415">
    <name>고양시청 제1별관</name>
    <desc>경기 고양시 덕양구 고양시청로 13-5</desc>
  </wpt>
  <wpt lat="37.6579504" lon="126.8433011">
    <name>성사초등학교</name>
    <desc>경기 고양시 덕양구 호국로834번길 89 성사초등학교</desc>
  </wpt>
  <rte>
    <name>고양시청 제1별관-성사초등학교_260714</name>
    <desc>고양시청 제1별관-성사초등학교</desc>
    <type>walking</type>
    <rtept lat="37.6572015" lon="126.832415">
      <name>고양시청 제1별관</name>
      <desc>경기 고양시 덕양구 고양시청로 13-5</desc>
      <type>start</type>
    </rtept>
    <rtept lat="37.6579504" lon="126.8433011">
      <name>성사초등학교</name>
      <desc>경기 고양시 덕양구 호국로834번길 89 성사초등학교</desc>
      <type>goal</type>
    </rtept>
  </rte>
  <trk>
    <name>고양시청 제1별관-성사초등학교_260714</name>
    <desc>고양시청 제1별관-성사초등학교</desc>
    <type>walking</type>
    <trkseg>
      <trkpt lat="37.6572015" lon="126.832415"><ele>17.66</ele></trkpt>
      <trkpt lat="37.6576154" lon="126.8322741"><ele>20.1</ele></trkpt>
      <trkpt lat="37.6577045" lon="126.8322608"><ele>20.39</ele></trkpt>
      <trkpt lat="37.6577303" lon="126.8326789"><ele>20.56</ele></trkpt>
      <trkpt lat="37.6577218" lon="126.8327663"><ele>20.46</ele></trkpt>
      <trkpt lat="37.6576918" lon="126.8328856"><ele>20.11</ele></trkpt>
      <trkpt lat="37.6576286" lon="126.8330143"><ele>19.75</ele></trkpt>
      <trkpt lat="37.6572848" lon="126.8335842"><ele>15</ele></trkpt>
      <trkpt lat="37.65734" lon="126.8336291"><ele>15</ele></trkpt>
      <trkpt lat="37.6574659" lon="126.8337436"><ele>15</ele></trkpt>
      <trkpt lat="37.658015" lon="126.8342534"><ele>15.63</ele></trkpt>
      <trkpt lat="37.6581111" lon="126.8343432"><ele>15.96</ele></trkpt>
      <trkpt lat="37.6582026" lon="126.8344297"><ele>16.58</ele></trkpt>
      <trkpt lat="37.6585251" lon="126.8347284"><ele>19.45</ele></trkpt>
      <trkpt lat="37.6588115" lon="126.8350002"><ele>20</ele></trkpt>
      <trkpt lat="37.6594715" lon="126.835687"><ele>20</ele></trkpt>
      <trkpt lat="37.6595286" lon="126.8357455"><ele>20</ele></trkpt>
      <trkpt lat="37.6600921" lon="126.8364094"><ele>20.01</ele></trkpt>
      <trkpt lat="37.6601047" lon="126.8364081"><ele>20.01</ele></trkpt>
      <trkpt lat="37.660121" lon="126.836425"><ele>20.01</ele></trkpt>
      <trkpt lat="37.6599826" lon="126.8366518"><ele>20</ele></trkpt>
      <trkpt lat="37.6599134" lon="126.8368441"><ele>17.65</ele></trkpt>
      <trkpt lat="37.6599045" lon="126.8368679"><ele>17.29</ele></trkpt>
      <trkpt lat="37.6599118" lon="126.8368849"><ele>17.14</ele></trkpt>
      <trkpt lat="37.6598477" lon="126.837017"><ele>15.23</ele></trkpt>
      <trkpt lat="37.6597407" lon="126.8372277"><ele>15</ele></trkpt>
      <trkpt lat="37.6595536" lon="126.8376125"><ele>15.25</ele></trkpt>
      <trkpt lat="37.659254" lon="126.8381889"><ele>16.58</ele></trkpt>
      <trkpt lat="37.6591202" lon="126.8384372"><ele>17.07</ele></trkpt>
      <trkpt lat="37.6589953" lon="126.8386832"><ele>17.7</ele></trkpt>
      <trkpt lat="37.6589811" lon="126.8387071"><ele>17.7</ele></trkpt>
      <trkpt lat="37.6589686" lon="126.8390621"><ele>18.56</ele></trkpt>
      <trkpt lat="37.6589383" lon="126.8391157"><ele>18.67</ele></trkpt>
      <trkpt lat="37.6586653" lon="126.8396249"><ele>19.7</ele></trkpt>
      <trkpt lat="37.6586377" lon="126.8396727"><ele>19.78</ele></trkpt>
      <trkpt lat="37.6581844" lon="126.8405066"><ele>20</ele></trkpt>
      <trkpt lat="37.6576236" lon="126.8415977"><ele>23.94</ele></trkpt>
      <trkpt lat="37.6576031" lon="126.8416387"><ele>23.94</ele></trkpt>
      <trkpt lat="37.6578775" lon="126.8418755"><ele>24.69</ele></trkpt>
      <trkpt lat="37.6580233" lon="126.8419966"><ele>24.96</ele></trkpt>
      <trkpt lat="37.6580813" lon="126.8420437"><ele>25</ele></trkpt>
      <trkpt lat="37.6580599" lon="126.842087"><ele>25</ele></trkpt>
      <trkpt lat="37.6580429" lon="126.8421212"><ele>25</ele></trkpt>
      <trkpt lat="37.6578235" lon="126.8425403"><ele>27.59</ele></trkpt>
      <trkpt lat="37.6575918" lon="126.8429981"><ele>30</ele></trkpt>
      <trkpt lat="37.6578444" lon="126.8432158"><ele>30</ele></trkpt>
      <trkpt lat="37.657878" lon="126.8432461"><ele>30</ele></trkpt>
      <trkpt lat="37.6579504" lon="126.8433011"><ele>30</ele></trkpt>
    </trkseg>
  </trk>
</gpx>