<?xml version='1.0' encoding='UTF-8' standalone='yes' ?>
<gpx version="1.1" creator="com.ngt.android.nadeuli" xsi:schemaLocation="http://www.topografix.com/GPX/1/1 http://www.topografix.com/gpx/1/1/gpx.xsd" xmlns="http://www.topografix.com/GPX/1/1" xmlns:xsi="http://www.w3.org/2001/XMLSchema-instance" xmlns:gpx10="http://www.topografix.com/GPX/1/0">
<metadata><time>2024-03-20T00:27:03Z</time></metadata>
<trk><name>북한산(우이역-백운대-용암문-도선사)20240320</name>
<trkseg>
<trkpt lat="37.6630149" lon="127.0123376"><ele>67.677986</ele><time>2024-03-20T00:27:04Z</time></trkpt>
<trkpt lat="37.6629984" lon="127.0122153"><ele>69.337166</ele><time>2024-03-20T00:27:15Z</time></trkpt>
<trkpt lat="37.6630024" lon="127.0120891"><ele>70.415596</ele><time>2024-03-20T00:27:24Z</time></trkpt>
<trkpt lat="37.6629586" lon="127.0119844"><ele>69.483955</ele><time>2024-03-20T00:27:33Z</time></trkpt>
<trkpt lat="37.6629317" lon="127.0118739"><ele>69.24995</ele><time>2024-03-20T00:27:43Z</time></trkpt>
<trkpt lat="37.6628917" lon="127.0117636"><ele>69.049324</ele><time>2024-03-20T00:27:54Z</time></trkpt>
<trkpt lat="37.6628278" lon="127.0116681"><ele>70.07392</ele><time>2024-03-20T00:28:04Z</time></trkpt>
<trkpt lat="37.6627924" lon="127.0115583"><ele>69.59974</ele><time>2024-03-20T00:28:12Z</time></trkpt>
<trkpt lat="37.6627662" lon="127.0114495"><ele>70.25959</ele><time>2024-03-20T00:28:20Z</time></trkpt>
<trkpt lat="37.6627459" lon="127.0113342"><ele>71.37934</ele><time>2024-03-20T00:28:28Z</time></trkpt>
<trkpt lat="37.6627312" lon="127.0112139"><ele>70.68012</ele><time>2024-03-20T00:28:37Z</time></trkpt>
<trkpt lat="37.6627253" lon="127.0110915"><ele>69.83039</ele><time>2024-03-20T00:28:47Z</time></trkpt>
<trkpt lat="37.6627166" lon="127.0109773"><ele>71.0481</ele><time>2024-03-20T00:28:55Z</time></trkpt>
<trkpt lat="37.662694" lon="127.0108671"><ele>73.43311</ele><time>2024-03-20T00:29:03Z</time></trkpt>
<trkpt lat="37.6626705" lon="127.0107484"><ele>75.33961</ele><time>2024-03-20T00:29:12Z</time></trkpt>
<trkpt lat="37.6626362" lon="127.0106386"><ele>76.4228</ele><time>2024-03-20T00:29:21Z</time></trkpt>
<trkpt lat="37.6626068" lon="127.0105309"><ele>76.37983</ele><time>2024-03-20T00:29:30Z</time></trkpt>
<trkpt lat="37.6625664" lon="127.0104248"><ele>76.69282</ele><time>2024-03-20T00:29:38Z</time></trkpt>
<trkpt lat="37.6625102" lon="127.0103241"><ele>76.75483</ele><time>2024-03-20T00:29:47Z</time></trkpt>
<trkpt lat="37.6624445" lon="127.0102436"><ele>77.70808</ele><time>2024-03-20T00:29:55Z</time></trkpt>
<trkpt lat="37.6624218" lon="127.0101302"><ele>81.61939</ele><time>2024-03-20T00:30:04Z</time></trkpt>
<trkpt lat="37.6623866" lon="127.0100183"><ele>82.81428</ele><time>2024-03-20T00:30:13Z</time></trkpt>
<trkpt lat="37.662359" lon="127.0099053"><ele>85.12043</ele><time>2024-03-20T00:30:22Z</time></trkpt>
<trkpt lat="37.6623177" lon="127.0098009"><ele>87.23786</ele><time>2024-03-20T00:30:30Z</time></trkpt>
<trkpt lat="37.6622678" lon="127.0096923"><ele>87.8697</ele><time>2024-03-20T00:30:40Z</time></trkpt>
<trkpt lat="37.6622032" lon="127.0095981"><ele>88.68714</ele><time>2024-03-20T00:30:48Z</time></trkpt>
<trkpt lat="37.662243" lon="127.0094934"><ele>87.05756</ele><time>2024-03-20T00:31:00Z</time></trkpt>
<trkpt lat="37.6622273" lon="127.0093727"><ele>85.416695</ele><time>2024-03-20T00:31:11Z</time></trkpt>
<trkpt lat="37.6621836" lon="127.0092678"><ele>84.28535</ele><time>2024-03-20T00:31:19Z</time></trkpt>
<trkpt lat="37.6621455" lon="127.0091548"><ele>86.11439</ele><time>2024-03-20T00:31:28Z</time></trkpt>
<trkpt lat="37.662132" lon="127.0090356"><ele>86.15089</ele><time>2024-03-20T00:31:36Z</time></trkpt>
<trkpt lat="37.6621247" lon="127.0089199"><ele>85.582466</ele><time>2024-03-20T00:31:44Z</time></trkpt>
<trkpt lat="37.6621239" lon="127.0088011"><ele>84.23084</ele><time>2024-03-20T00:31:52Z</time></trkpt>
<trkpt lat="37.6621026" lon="127.0086761"><ele>84.18537</ele><time>2024-03-20T00:32:00Z</time></trkpt>
<trkpt lat="37.6620799" lon="127.0085616"><ele>85.124825</ele><time>2024-03-20T00:32:08Z</time></trkpt>
<trkpt lat="37.6620541" lon="127.0084466"><ele>83.941536</ele><time>2024-03-20T00:32:16Z</time></trkpt>
<trkpt lat="37.6620086" lon="127.0083391"><ele>82.91712</ele><time>2024-03-20T00:32:25Z</time></trkpt>
<trkpt lat="37.6619497" lon="127.0082393"><ele>82.900764</ele><time>2024-03-20T00:32:33Z</time></trkpt>
<trkpt lat="37.6619535" lon="127.0081239"><ele>83.084236</ele><time>2024-03-20T00:32:41Z</time></trkpt>
<trkpt lat="37.6618581" lon="127.0081287"><ele>83.02155</ele><time>2024-03-20T00:33:28Z</time></trkpt>
<trkpt lat="37.6617855" lon="127.0080558"><ele>84.42182</ele><time>2024-03-20T00:33:38Z</time></trkpt>
<trkpt lat="37.6617173" lon="127.0079632"><ele>83.34309</ele><time>2024-03-20T00:33:46Z</time></trkpt>
<trkpt lat="37.6616694" lon="127.007865"><ele>84.203865</ele><time>2024-03-20T00:33:55Z</time></trkpt>
<trkpt lat="37.6615863" lon="127.0078038"><ele>85.950325</ele><time>2024-03-20T00:34:43Z</time></trkpt>
<trkpt lat="37.6615343" lon="127.0077106"><ele>87.51893</ele><time>2024-03-20T00:34:54Z</time></trkpt>
<trkpt lat="37.6614405" lon="127.0076814"><ele>85.90327</ele><time>2024-03-20T00:40:00Z</time></trkpt>
<trkpt lat="37.6613487" lon="127.00764"><ele>84.87641</ele><time>2024-03-20T00:40:10Z</time></trkpt>
<trkpt lat="37.6612674" lon="127.0075655"><ele>85.907234</ele><time>2024-03-20T00:40:19Z</time></trkpt>
<trkpt lat="37.6612015" lon="127.0074694"><ele>86.629585</ele><time>2024-03-20T00:40:28Z</time></trkpt>
<trkpt lat="37.661149" lon="127.0073625"><ele>87.61738</ele><time>2024-03-20T00:40:37Z</time></trkpt>
<trkpt lat="37.6611049" lon="127.0072585"><ele>88.13386</ele><time>2024-03-20T00:40:46Z</time></trkpt>
<trkpt lat="37.6610655" lon="127.0071525"><ele>88.53199</ele><time>2024-03-20T00:40:54Z</time></trkpt>
<trkpt lat="37.6610235" lon="127.0070385"><ele>88.095894</ele><time>2024-03-20T00:41:02Z</time></trkpt>
<trkpt lat="37.6609971" lon="127.0069222"><ele>87.31812</ele><time>2024-03-20T00:41:10Z</time></trkpt>
<trkpt lat="37.660971" lon="127.0068099"><ele>86.404</ele><time>2024-03-20T00:41:18Z</time></trkpt>
<trkpt lat="37.6609618" lon="127.0066925"><ele>86.887276</ele><time>2024-03-20T00:41:26Z</time></trkpt>
<trkpt lat="37.66097" lon="127.0065689"><ele>87.58814</ele><time>2024-03-20T00:41:35Z</time></trkpt>
<trkpt lat="37.6609347" lon="127.0064512"><ele>88.42768</ele><time>2024-03-20T00:41:47Z</time></trkpt>
<trkpt lat="37.6608841" lon="127.0063447"><ele>88.751045</ele><time>2024-03-20T00:41:57Z</time></trkpt>
<trkpt lat="37.6608339" lon="127.0062451"><ele>89.59168</ele><time>2024-03-20T00:42:06Z</time></trkpt>
<trkpt lat="37.6607952" lon="127.0061414"><ele>90.054756</ele><time>2024-03-20T00:42:14Z</time></trkpt>
<trkpt lat="37.6607541" lon="127.0060395"><ele>90.50642</ele><time>2024-03-20T00:42:22Z</time></trkpt>
<trkpt lat="37.6607015" lon="127.005941"><ele>91.411934</ele><time>2024-03-20T00:42:31Z</time></trkpt>
<trkpt lat="37.6606514" lon="127.0058382"><ele>92.52424</ele><time>2024-03-20T00:42:40Z</time></trkpt>
<trkpt lat="37.6606001" lon="127.0057355"><ele>92.03498</ele><time>2024-03-20T00:42:49Z</time></trkpt>
<trkpt lat="37.6605455" lon="127.005636"><ele>91.12592</ele><time>2024-03-20T00:42:58Z</time></trkpt>
<trkpt lat="37.6604794" lon="127.0055423"><ele>91.463875</ele><time>2024-03-20T00:43:07Z</time></trkpt>
<trkpt lat="37.6604086" lon="127.0054515"><ele>92.324104</ele><time>2024-03-20T00:43:16Z</time></trkpt>
<trkpt lat="37.6603359" lon="127.005361"><ele>92.28315</ele><time>2024-03-20T00:43:25Z</time></trkpt>
<trkpt lat="37.6602707" lon="127.0052792"><ele>94.631294</ele><time>2024-03-20T00:43:33Z</time></trkpt>
<trkpt lat="37.6602104" lon="127.0051871"><ele>94.10322</ele><time>2024-03-20T00:43:44Z</time></trkpt>
<trkpt lat="37.6601363" lon="127.005103"><ele>93.84022</ele><time>2024-03-20T00:43:54Z</time></trkpt>
<trkpt lat="37.660069" lon="127.0050202"><ele>93.89521</ele><time>2024-03-20T00:44:04Z</time></trkpt>
<trkpt lat="37.6599997" lon="127.0049428"><ele>93.97736</ele><time>2024-03-20T00:44:14Z</time></trkpt>
<trkpt lat="37.659931" lon="127.0048639"><ele>93.66706</ele><time>2024-03-20T00:44:24Z</time></trkpt>
<trkpt lat="37.6598634" lon="127.0047858"><ele>96.05183</ele><time>2024-03-20T00:44:33Z</time></trkpt>
<trkpt lat="37.6597956" lon="127.0046996"><ele>97.03925</ele><time>2024-03-20T00:44:43Z</time></trkpt>
<trkpt lat="37.6597241" lon="127.0046264"><ele>99.93037</ele><time>2024-03-20T00:44:52Z</time></trkpt>
<trkpt lat="37.6596579" lon="127.0045483"><ele>100.83228</ele><time>2024-03-20T00:45:01Z</time></trkpt>
<trkpt lat="37.659574" lon="127.0044814"><ele>99.99116</ele><time>2024-03-20T00:45:11Z</time></trkpt>
<trkpt lat="37.6594887" lon="127.0044237"><ele>100.84077</ele><time>2024-03-20T00:45:20Z</time></trkpt>
<trkpt lat="37.6594066" lon="127.0043645"><ele>104.15705</ele><time>2024-03-20T00:45:29Z</time></trkpt>
<trkpt lat="37.659306" lon="127.0043374"><ele>104.469734</ele><time>2024-03-20T00:45:37Z</time></trkpt>
<trkpt lat="37.6592056" lon="127.004326"><ele>105.566414</ele><time>2024-03-20T00:45:45Z</time></trkpt>
<trkpt lat="37.6591165" lon="127.0042992"><ele>106.001656</ele><time>2024-03-20T00:45:52Z</time></trkpt>
<trkpt lat="37.6590381" lon="127.0042358"><ele>106.34675</ele><time>2024-03-20T00:46:01Z</time></trkpt>
<trkpt lat="37.6589411" lon="127.0042108"><ele>107.17841</ele><time>2024-03-20T00:46:10Z</time></trkpt>
<trkpt lat="37.6588544" lon="127.0041581"><ele>107.14167</ele><time>2024-03-20T00:46:19Z</time></trkpt>
<trkpt lat="37.6587776" lon="127.0040839"><ele>106.647224</ele><time>2024-03-20T00:46:28Z</time></trkpt>
<trkpt lat="37.6586996" lon="127.0040025"><ele>108.338326</ele><time>2024-03-20T00:46:37Z</time></trkpt>
<trkpt lat="37.6586285" lon="127.0039165"><ele>109.030525</ele><time>2024-03-20T00:46:46Z</time></trkpt>
<trkpt lat="37.6585562" lon="127.0038282"><ele>108.55427</ele><time>2024-03-20T00:46:55Z</time></trkpt>
<trkpt lat="37.658496" lon="127.0037425"><ele>109.17597</ele><time>2024-03-20T00:47:03Z</time></trkpt>
<trkpt lat="37.6584429" lon="127.0036366"><ele>109.61231</ele><time>2024-03-20T00:47:12Z</time></trkpt>
<trkpt lat="37.6584001" lon="127.0035254"><ele>110.11457</ele><time>2024-03-20T00:47:21Z</time></trkpt>
<trkpt lat="37.6583774" lon="127.0034028"><ele>110.59815</ele><time>2024-03-20T00:47:30Z</time></trkpt>
<trkpt lat="37.6583861" lon="127.003278"><ele>111.88032</ele><time>2024-03-20T00:47:39Z</time></trkpt>
<trkpt lat="37.6584343" lon="127.003174"><ele>115.0481</ele><time>2024-03-20T00:47:48Z</time></trkpt>
<trkpt lat="37.6584236" lon="127.0030541"><ele>117.29627</ele><time>2024-03-20T00:48:03Z</time></trkpt>
<trkpt lat="37.6584163" lon="127.0029297"><ele>117.67988</ele><time>2024-03-20T00:48:13Z</time></trkpt>
<trkpt lat="37.6583809" lon="127.0028197"><ele>117.51423</ele><time>2024-03-20T00:48:23Z</time></trkpt>
<trkpt lat="37.6583127" lon="127.0027368"><ele>117.90119</ele><time>2024-03-20T00:48:33Z</time></trkpt>
<trkpt lat="37.6582614" lon="127.002642"><ele>117.43214</ele><time>2024-03-20T00:48:42Z</time></trkpt>
<trkpt lat="37.6582267" lon="127.0025331"><ele>117.84803</ele><time>2024-03-20T00:48:51Z</time></trkpt>
<trkpt lat="37.658184" lon="127.0024245"><ele>118.60615</ele><time>2024-03-20T00:49:00Z</time></trkpt>
<trkpt lat="37.6581401" lon="127.002317"><ele>119.378</ele><time>2024-03-20T00:49:09Z</time></trkpt>
<trkpt lat="37.6581145" lon="127.0022077"><ele>121.28712</ele><time>2024-03-20T00:49:18Z</time></trkpt>
<trkpt lat="37.6581074" lon="127.0020872"><ele>123.38746</ele><time>2024-03-20T00:49:30Z</time></trkpt>
<trkpt lat="37.6581874" lon="127.0020307"><ele>126.395454</ele><time>2024-03-20T00:49:41Z</time></trkpt>
<trkpt lat="37.6581389" lon="127.0019326"><ele>129.02716</ele><time>2024-03-20T00:49:58Z</time></trkpt>
<trkpt lat="37.658126" lon="127.001804"><ele>130.06598</ele><time>2024-03-20T00:50:19Z</time></trkpt>
<trkpt lat="37.6582167" lon="127.0017672"><ele>132.59021</ele><time>2024-03-20T00:50:55Z</time></trkpt>
<trkpt lat="37.6582618" lon="127.0018753"><ele>136.07245</ele><time>2024-03-20T00:51:12Z</time></trkpt>
<trkpt lat="37.6583485" lon="127.0018425"><ele>137.47821</ele><time>2024-03-20T00:51:25Z</time></trkpt>
<trkpt lat="37.6584375" lon="127.0018068"><ele>139.04547</ele><time>2024-03-20T00:51:39Z</time></trkpt>
<trkpt lat="37.6584209" lon="127.0016947"><ele>141.479</ele><time>2024-03-20T00:52:04Z</time></trkpt>
<trkpt lat="37.6583455" lon="127.0016244"><ele>148.2724</ele><time>2024-03-20T00:52:40Z</time></trkpt>
<trkpt lat="37.6582895" lon="127.0015348"><ele>152.0346</ele><time>2024-03-20T00:53:01Z</time></trkpt>
<trkpt lat="37.6582811" lon="127.00142"><ele>154.47113</ele><time>2024-03-20T00:53:14Z</time></trkpt>
<trkpt lat="37.6583526" lon="127.0013451"><ele>157.49335</ele><time>2024-03-20T00:53:27Z</time></trkpt>
<trkpt lat="37.6584339" lon="127.0012951"><ele>158.3432</ele><time>2024-03-20T00:53:39Z</time></trkpt>
<trkpt lat="37.6584183" lon="127.0011776"><ele>159.78845</ele><time>2024-03-20T00:53:56Z</time></trkpt>
<trkpt lat="37.6583886" lon="127.0010649"><ele>162.72272</ele><time>2024-03-20T00:54:12Z</time></trkpt>
<trkpt lat="37.6583485" lon="127.000959"><ele>163.46417</ele><time>2024-03-20T00:54:31Z</time></trkpt>
<trkpt lat="37.6582869" lon="127.0008704"><ele>164.93243</ele><time>2024-03-20T00:54:41Z</time></trkpt>
<trkpt lat="37.6582354" lon="127.0007685"><ele>166.12201</ele><time>2024-03-20T00:54:54Z</time></trkpt>
<trkpt lat="37.6581757" lon="127.000679"><ele>168.8111</ele><time>2024-03-20T00:55:08Z</time></trkpt>
<trkpt lat="37.6581943" lon="127.0005675"><ele>169.9397</ele><time>2024-03-20T00:55:20Z</time></trkpt>
<trkpt lat="37.658214" lon="127.0004488"><ele>174.01978</ele><time>2024-03-20T00:55:42Z</time></trkpt>
<trkpt lat="37.6582043" lon="127.0003314"><ele>173.63708</ele><time>2024-03-20T00:55:56Z</time></trkpt>
<trkpt lat="37.6581729" lon="127.0002242"><ele>174.29596</ele><time>2024-03-20T00:56:06Z</time></trkpt>
<trkpt lat="37.6581349" lon="127.0001206"><ele>175.5639</ele><time>2024-03-20T00:56:16Z</time></trkpt>
<trkpt lat="37.6581052" lon="127.0000115"><ele>177.38123</ele><time>2024-03-20T00:56:27Z</time></trkpt>
<trkpt lat="37.6580854" lon="126.9998931"><ele>179.66498</ele><time>2024-03-20T00:56:41Z</time></trkpt>
<trkpt lat="37.6580594" lon="126.9997793"><ele>182.34222</ele><time>2024-03-20T00:57:05Z</time></trkpt>
<trkpt lat="37.6580278" lon="126.999667"><ele>186.51581</ele><time>2024-03-20T01:01:09Z</time></trkpt>
<trkpt lat="37.6580246" lon="126.9995506"><ele>187.09619</ele><time>2024-03-20T01:04:38Z</time></trkpt>
<trkpt lat="37.6579787" lon="126.9994495"><ele>190.25043</ele><time>2024-03-20T01:04:51Z</time></trkpt>
<trkpt lat="37.6579171" lon="126.9993654"><ele>193.15503</ele><time>2024-03-20T01:05:12Z</time></trkpt>
<trkpt lat="37.6579341" lon="126.9992525"><ele>196.27252</ele><time>2024-03-20T01:05:31Z</time></trkpt>
<trkpt lat="37.6578932" lon="126.9991493"><ele>197.61145</ele><time>2024-03-20T01:05:49Z</time></trkpt>
<trkpt lat="37.6578208" lon="126.9990803"><ele>200.83636</ele><time>2024-03-20T01:06:08Z</time></trkpt>
<trkpt lat="37.6577387" lon="126.9990293"><ele>204.12347</ele><time>2024-03-20T01:06:33Z</time></trkpt>
<trkpt lat="37.6577033" lon="126.9989188"><ele>205.63599</ele><time>2024-03-20T01:06:48Z</time></trkpt>
<trkpt lat="37.6576537" lon="126.9988236"><ele>208.40277</ele><time>2024-03-20T01:07:08Z</time></trkpt>
<trkpt lat="37.6575798" lon="126.9987584"><ele>211.69543</ele><time>2024-03-20T01:07:29Z</time></trkpt>
<trkpt lat="37.657544" lon="126.9986504"><ele>215.03711</ele><time>2024-03-20T01:07:50Z</time></trkpt>
<trkpt lat="37.6574546" lon="126.9986118"><ele>217.83447</ele><time>2024-03-20T01:08:27Z</time></trkpt>
<trkpt lat="37.6573636" lon="126.9985952"><ele>222.9992</ele><time>2024-03-20T01:08:48Z</time></trkpt>
<trkpt lat="37.6572749" lon="126.9985687"><ele>224.06433</ele><time>2024-03-20T01:09:02Z</time></trkpt>
<trkpt lat="37.6572056" lon="126.9984851"><ele>226.05743</ele><time>2024-03-20T01:09:15Z</time></trkpt>
<trkpt lat="37.6572064" lon="126.9983663"><ele>226.63153</ele><time>2024-03-20T01:09:25Z</time></trkpt>
<trkpt lat="37.6571519" lon="126.9982667"><ele>229.03369</ele><time>2024-03-20T01:09:39Z</time></trkpt>
<trkpt lat="37.6571157" lon="126.9981618"><ele>229.91724</ele><time>2024-03-20T01:09:53Z</time></trkpt>
<trkpt lat="37.6570496" lon="126.9980848"><ele>231.08783</ele><time>2024-03-20T01:10:03Z</time></trkpt>
<trkpt lat="37.6569852" lon="126.9980012"><ele>231.94531</ele><time>2024-03-20T01:10:14Z</time></trkpt>
<trkpt lat="37.6569601" lon="126.9978886"><ele>232.49554</ele><time>2024-03-20T01:10:24Z</time></trkpt>
<trkpt lat="37.6569904" lon="126.9977756"><ele>231.05682</ele><time>2024-03-20T01:10:32Z</time></trkpt>
<trkpt lat="37.6569866" lon="126.997655"><ele>230.24908</ele><time>2024-03-20T01:10:40Z</time></trkpt>
<trkpt lat="37.657013" lon="126.997538"><ele>230.08673</ele><time>2024-03-20T01:10:49Z</time></trkpt>
<trkpt lat="37.6570357" lon="126.9974232"><ele>230.94702</ele><time>2024-03-20T01:10:58Z</time></trkpt>
<trkpt lat="37.6570062" lon="126.9973143"><ele>234.24213</ele><time>2024-03-20T01:11:14Z</time></trkpt>
<trkpt lat="37.657064" lon="126.9972195"><ele>237.7315</ele><time>2024-03-20T01:11:29Z</time></trkpt>
<trkpt lat="37.6571475" lon="126.9971694"><ele>239.10553</ele><time>2024-03-20T01:11:40Z</time></trkpt>
<trkpt lat="37.6572185" lon="126.9970899"><ele>239.8045</ele><time>2024-03-20T01:11:52Z</time></trkpt>
<trkpt lat="37.6572573" lon="126.9969812"><ele>239.03455</ele><time>2024-03-20T01:12:03Z</time></trkpt>
<trkpt lat="37.6571909" lon="126.9968879"><ele>236.66034</ele><time>2024-03-20T01:12:14Z</time></trkpt>
<trkpt lat="37.6571653" lon="126.9967693"><ele>235.39215</ele><time>2024-03-20T01:12:23Z</time></trkpt>
<trkpt lat="37.6571287" lon="126.9966596"><ele>235.7204</ele><time>2024-03-20T01:12:33Z</time></trkpt>
<trkpt lat="37.657113" lon="126.9965385"><ele>237.06696</ele><time>2024-03-20T01:12:43Z</time></trkpt>
<trkpt lat="37.6571225" lon="126.99642"><ele>239.71167</ele><time>2024-03-20T01:12:55Z</time></trkpt>
<trkpt lat="37.6570885" lon="126.9963097"><ele>241.35034</ele><time>2024-03-20T01:13:10Z</time></trkpt>
<trkpt lat="37.6570974" lon="126.9961955"><ele>242.86188</ele><time>2024-03-20T01:13:24Z</time></trkpt>
<trkpt lat="37.6571476" lon="126.9961001"><ele>244.85577</ele><time>2024-03-20T01:13:35Z</time></trkpt>
<trkpt lat="37.6570893" lon="126.9960112"><ele>245.80731</ele><time>2024-03-20T01:13:50Z</time></trkpt>
<trkpt lat="37.6570167" lon="126.9959366"><ele>250.75671</ele><time>2024-03-20T01:14:15Z</time></trkpt>
<trkpt lat="37.6570098" lon="126.9958185"><ele>253.98688</ele><time>2024-03-20T01:14:40Z</time></trkpt>
<trkpt lat="37.6569728" lon="126.9957112"><ele>257.91602</ele><time>2024-03-20T01:15:05Z</time></trkpt>
<trkpt lat="37.6569932" lon="126.995592"><ele>259.14374</ele><time>2024-03-20T01:15:22Z</time></trkpt>
<trkpt lat="37.6570174" lon="126.9954787"><ele>262.2232</ele><time>2024-03-20T01:15:39Z</time></trkpt>
<trkpt lat="37.6569715" lon="126.995376"><ele>266.4118</ele><time>2024-03-20T01:16:05Z</time></trkpt>
<trkpt lat="37.6570422" lon="126.9953047"><ele>269.06152</ele><time>2024-03-20T01:16:23Z</time></trkpt>
<trkpt lat="37.6571065" lon="126.995212"><ele>270.2083</ele><time>2024-03-20T01:16:36Z</time></trkpt>
<trkpt lat="37.6571893" lon="126.9951609"><ele>272.23663</ele><time>2024-03-20T01:16:46Z</time></trkpt>
<trkpt lat="37.6572745" lon="126.9951109"><ele>276.2353</ele><time>2024-03-20T01:17:06Z</time></trkpt>
<trkpt lat="37.6572971" lon="126.9949989"><ele>275.80853</ele><time>2024-03-20T01:17:29Z</time></trkpt>
<trkpt lat="37.6572907" lon="126.9948847"><ele>276.1931</ele><time>2024-03-20T01:17:38Z</time></trkpt>
<trkpt lat="37.657303" lon="126.9947663"><ele>277.41925</ele><time>2024-03-20T01:17:48Z</time></trkpt>
<trkpt lat="37.6573151" lon="126.9946517"><ele>280.63007</ele><time>2024-03-20T01:17:58Z</time></trkpt>
<trkpt lat="37.6573436" lon="126.9945413"><ele>280.7556</ele><time>2024-03-20T01:18:13Z</time></trkpt>
<trkpt lat="37.6573017" lon="126.9944319"><ele>284.39166</ele><time>2024-03-20T01:18:28Z</time></trkpt>
<trkpt lat="37.6573129" lon="126.9943156"><ele>287.06982</ele><time>2024-03-20T01:18:42Z</time></trkpt>
<trkpt lat="37.6572991" lon="126.9942017"><ele>287.12372</ele><time>2024-03-20T01:18:53Z</time></trkpt>
<trkpt lat="37.6572684" lon="126.994088"><ele>286.95752</ele><time>2024-03-20T01:19:03Z</time></trkpt>
<trkpt lat="37.6572256" lon="126.993988"><ele>289.4527</ele><time>2024-03-20T01:19:17Z</time></trkpt>
<trkpt lat="37.657221" lon="126.9938736"><ele>291.86523</ele><time>2024-03-20T01:19:33Z</time></trkpt>
<trkpt lat="37.657154" lon="126.9937869"><ele>293.6698</ele><time>2024-03-20T01:19:52Z</time></trkpt>
<trkpt lat="37.6570928" lon="126.9937022"><ele>297.50507</ele><time>2024-03-20T01:20:14Z</time></trkpt>
<trkpt lat="37.6570699" lon="126.9935865"><ele>300.0329</ele><time>2024-03-20T01:20:31Z</time></trkpt>
<trkpt lat="37.6570858" lon="126.9934703"><ele>304.3554</ele><time>2024-03-20T01:20:52Z</time></trkpt>
<trkpt lat="37.6570896" lon="126.9933565"><ele>307.30585</ele><time>2024-03-20T01:21:13Z</time></trkpt>
<trkpt lat="37.6571475" lon="126.9932605"><ele>307.29846</ele><time>2024-03-20T01:21:24Z</time></trkpt>
<trkpt lat="37.6572287" lon="126.9932058"><ele>307.84088</ele><time>2024-03-20T01:21:33Z</time></trkpt>
<trkpt lat="37.6573161" lon="126.9931751"><ele>309.1385</ele><time>2024-03-20T01:21:43Z</time></trkpt>
<trkpt lat="37.6573748" lon="126.9930844"><ele>308.44794</ele><time>2024-03-20T01:21:54Z</time></trkpt>
<trkpt lat="37.6574056" lon="126.992968"><ele>307.75018</ele><time>2024-03-20T01:22:04Z</time></trkpt>
<trkpt lat="37.6574282" lon="126.9928495"><ele>308.60284</ele><time>2024-03-20T01:22:13Z</time></trkpt>
<trkpt lat="37.6574869" lon="126.9927602"><ele>308.37897</ele><time>2024-03-20T01:22:22Z</time></trkpt>
<trkpt lat="37.6575364" lon="126.9926574"><ele>309.8106</ele><time>2024-03-20T01:22:31Z</time></trkpt>
<trkpt lat="37.6575887" lon="126.9925514"><ele>310.7439</ele><time>2024-03-20T01:22:41Z</time></trkpt>
<trkpt lat="37.657655" lon="126.9924603"><ele>310.53204</ele><time>2024-03-20T01:22:50Z</time></trkpt>
<trkpt lat="37.657719" lon="126.9923747"><ele>309.60107</ele><time>2024-03-20T01:22:58Z</time></trkpt>
<trkpt lat="37.6577962" lon="126.9923111"><ele>310.36737</ele><time>2024-03-20T01:23:06Z</time></trkpt>
<trkpt lat="37.6578736" lon="126.9922344"><ele>310.21112</ele><time>2024-03-20T01:23:15Z</time></trkpt>
<trkpt lat="37.6579478" lon="126.9921551"><ele>311.55743</ele><time>2024-03-20T01:23:23Z</time></trkpt>
<trkpt lat="37.6580237" lon="126.9920874"><ele>311.0285</ele><time>2024-03-20T01:23:31Z</time></trkpt>
<trkpt lat="37.6581142" lon="126.992103"><ele>311.82465</ele><time>2024-03-20T01:23:41Z</time></trkpt>
<trkpt lat="37.6582024" lon="126.9920786"><ele>312.51996</ele><time>2024-03-20T01:23:52Z</time></trkpt>
<trkpt lat="37.6582627" lon="126.9919884"><ele>313.86444</ele><time>2024-03-20T01:24:05Z</time></trkpt>
<trkpt lat="37.6582611" lon="126.9918722"><ele>315.13794</ele><time>2024-03-20T01:24:30Z</time></trkpt>
<trkpt lat="37.6583515" lon="126.9918448"><ele>316.7312</ele><time>2024-03-20T01:24:49Z</time></trkpt>
<trkpt lat="37.6584219" lon="126.9917682"><ele>318.83453</ele><time>2024-03-20T01:25:01Z</time></trkpt>
<trkpt lat="37.6584939" lon="126.9916987"><ele>319.90546</ele><time>2024-03-20T01:25:14Z</time></trkpt>
<trkpt lat="37.6585603" lon="126.9916217"><ele>321.97882</ele><time>2024-03-20T01:25:28Z</time></trkpt>
<trkpt lat="37.6586304" lon="126.9915474"><ele>325.88422</ele><time>2024-03-20T01:25:54Z</time></trkpt>
<trkpt lat="37.658657" lon="126.9914335"><ele>329.16913</ele><time>2024-03-20T01:26:10Z</time></trkpt>
<trkpt lat="37.6587002" lon="126.9913329"><ele>331.96405</ele><time>2024-03-20T01:26:26Z</time></trkpt>
<trkpt lat="37.6587406" lon="126.991224"><ele>333.6767</ele><time>2024-03-20T01:26:41Z</time></trkpt>
<trkpt lat="37.6588331" lon="126.9912259"><ele>337.73438</ele><time>2024-03-20T01:26:58Z</time></trkpt>
<trkpt lat="37.6588887" lon="126.9911273"><ele>338.37463</ele><time>2024-03-20T01:27:14Z</time></trkpt>
<trkpt lat="37.6589618" lon="126.9910455"><ele>340.136</ele><time>2024-03-20T01:27:27Z</time></trkpt>
<trkpt lat="37.6590406" lon="126.990982"><ele>340.13605</ele><time>2024-03-20T01:27:44Z</time></trkpt>
<trkpt lat="37.6590832" lon="126.9908691"><ele>343.66602</ele><time>2024-03-20T01:28:05Z</time></trkpt>
<trkpt lat="37.6591308" lon="126.99077"><ele>345.44507</ele><time>2024-03-20T01:28:17Z</time></trkpt>
<trkpt lat="37.6591669" lon="126.9906558"><ele>347.48328</ele><time>2024-03-20T01:28:30Z</time></trkpt>
<trkpt lat="37.6592278" lon="126.9905692"><ele>349.76385</ele><time>2024-03-20T01:28:45Z</time></trkpt>
<trkpt lat="37.6592648" lon="126.9904576"><ele>350.3028</ele><time>2024-03-20T01:28:58Z</time></trkpt>
<trkpt lat="37.6593239" lon="126.9903586"><ele>349.43176</ele><time>2024-03-20T01:29:10Z</time></trkpt>
<trkpt lat="37.6593934" lon="126.9902739"><ele>351.15326</ele><time>2024-03-20T01:29:21Z</time></trkpt>
<trkpt lat="37.659469" lon="126.9902097"><ele>352.044</ele><time>2024-03-20T01:29:34Z</time></trkpt>
<trkpt lat="37.65952" lon="126.9901075"><ele>352.57922</ele><time>2024-03-20T01:29:46Z</time></trkpt>
<trkpt lat="37.659575" lon="126.9900112"><ele>354.02368</ele><time>2024-03-20T01:29:58Z</time></trkpt>
<trkpt lat="37.6596371" lon="126.9899199"><ele>356.11108</ele><time>2024-03-20T01:30:15Z</time></trkpt>
<trkpt lat="37.6596838" lon="126.9898198"><ele>358.80353</ele><time>2024-03-20T01:30:32Z</time></trkpt>
<trkpt lat="37.6597023" lon="126.9897001"><ele>360.52423</ele><time>2024-03-20T01:30:46Z</time></trkpt>
<trkpt lat="37.6597531" lon="126.9895978"><ele>361.29095</ele><time>2024-03-20T01:30:57Z</time></trkpt>
<trkpt lat="37.659811" lon="126.989502"><ele>362.7121</ele><time>2024-03-20T01:31:11Z</time></trkpt>
<trkpt lat="37.6598294" lon="126.9893825"><ele>365.68164</ele><time>2024-03-20T01:31:39Z</time></trkpt>
<trkpt lat="37.6598528" lon="126.9892664"><ele>369.41766</ele><time>2024-03-20T01:32:03Z</time></trkpt>
<trkpt lat="37.6598869" lon="126.9891598"><ele>371.74268</ele><time>2024-03-20T01:32:17Z</time></trkpt>
<trkpt lat="37.6599325" lon="126.9890569"><ele>372.6916</ele><time>2024-03-20T01:32:30Z</time></trkpt>
<trkpt lat="37.6600112" lon="126.9889879"><ele>373.10693</ele><time>2024-03-20T01:32:44Z</time></trkpt>
<trkpt lat="37.6600984" lon="126.9889554"><ele>376.16315</ele><time>2024-03-20T01:33:04Z</time></trkpt>
<trkpt lat="37.6601498" lon="126.9888577"><ele>378.9721</ele><time>2024-03-20T01:33:27Z</time></trkpt>
<trkpt lat="37.6602283" lon="126.9887954"><ele>383.1529</ele><time>2024-03-20T01:33:55Z</time></trkpt>
<trkpt lat="37.6603079" lon="126.988741"><ele>385.75232</ele><time>2024-03-20T01:34:13Z</time></trkpt>
<trkpt lat="37.6603815" lon="126.9886726"><ele>388.72675</ele><time>2024-03-20T01:34:32Z</time></trkpt>
<trkpt lat="37.6604667" lon="126.9886219"><ele>391.07068</ele><time>2024-03-20T01:34:52Z</time></trkpt>
<trkpt lat="37.6605571" lon="126.9886029"><ele>394.88434</ele><time>2024-03-20T01:35:14Z</time></trkpt>
<trkpt lat="37.6606318" lon="126.988528"><ele>397.68768</ele><time>2024-03-20T01:35:34Z</time></trkpt>
<trkpt lat="37.660716" lon="126.9884713"><ele>399.81274</ele><time>2024-03-20T01:35:56Z</time></trkpt>
<trkpt lat="37.660805" lon="126.9884406"><ele>401.44183</ele><time>2024-03-20T01:36:12Z</time></trkpt>
<trkpt lat="37.660899" lon="126.9884342"><ele>404.75305</ele><time>2024-03-20T01:36:34Z</time></trkpt>
<trkpt lat="37.660971" lon="126.9883594"><ele>408.63007</ele><time>2024-03-20T01:36:57Z</time></trkpt>
<trkpt lat="37.6610373" lon="126.9882813"><ele>413.06476</ele><time>2024-03-20T01:37:25Z</time></trkpt>
<trkpt lat="37.6611293" lon="126.9882764"><ele>415.97528</ele><time>2024-03-20T01:37:46Z</time></trkpt>
<trkpt lat="37.6612052" lon="126.9882128"><ele>418.82953</ele><time>2024-03-20T01:38:05Z</time></trkpt>
<trkpt lat="37.6612862" lon="126.9881559"><ele>422.71088</ele><time>2024-03-20T01:38:27Z</time></trkpt>
<trkpt lat="37.6613462" lon="126.98807"><ele>425.03802</ele><time>2024-03-20T01:38:49Z</time></trkpt>
<trkpt lat="37.6614252" lon="126.9880068"><ele>428.28278</ele><time>2024-03-20T01:39:12Z</time></trkpt>
<trkpt lat="37.661519" lon="126.9880253"><ele>431.71405</ele><time>2024-03-20T01:39:32Z</time></trkpt>
<trkpt lat="37.6615847" lon="126.9879468"><ele>434.18964</ele><time>2024-03-20T01:39:52Z</time></trkpt>
<trkpt lat="37.6616777" lon="126.9879547"><ele>438.72443</ele><time>2024-03-20T01:40:18Z</time></trkpt>
<trkpt lat="37.6617514" lon="126.9878834"><ele>439.89764</ele><time>2024-03-20T01:40:50Z</time></trkpt>
<trkpt lat="37.6618082" lon="126.9877952"><ele>445.81824</ele><time>2024-03-20T01:41:10Z</time></trkpt>
<trkpt lat="37.6618766" lon="126.9877201"><ele>448.9162</ele><time>2024-03-20T01:41:33Z</time></trkpt>
<trkpt lat="37.661953" lon="126.987648"><ele>453.47235</ele><time>2024-03-20T01:41:55Z</time></trkpt>
<trkpt lat="37.6620263" lon="126.9875728"><ele>458.57977</ele><time>2024-03-20T01:42:28Z</time></trkpt>
<trkpt lat="37.6620365" lon="126.9874559"><ele>461.31464</ele><time>2024-03-20T01:42:50Z</time></trkpt>
<trkpt lat="37.662123" lon="126.9874197"><ele>464.73767</ele><time>2024-03-20T01:43:12Z</time></trkpt>
<trkpt lat="37.6621334" lon="126.9873065"><ele>469.8365</ele><time>2024-03-20T01:43:36Z</time></trkpt>
<trkpt lat="37.6622208" lon="126.9872753"><ele>473.98596</ele><time>2024-03-20T01:44:05Z</time></trkpt>
<trkpt lat="37.6622567" lon="126.9871697"><ele>478.97675</ele><time>2024-03-20T01:44:28Z</time></trkpt>
<trkpt lat="37.6622575" lon="126.9870539"><ele>482.47296</ele><time>2024-03-20T01:44:49Z</time></trkpt>
<trkpt lat="37.6622563" lon="126.9869377"><ele>482.08936</ele><time>2024-03-20T01:45:22Z</time></trkpt>
<trkpt lat="37.6622307" lon="126.9868189"><ele>481.4655</ele><time>2024-03-20T01:45:34Z</time></trkpt>
<trkpt lat="37.6622244" lon="126.9866999"><ele>478.9494</ele><time>2024-03-20T01:45:47Z</time></trkpt>
<trkpt lat="37.6621951" lon="126.9865925"><ele>476.96942</ele><time>2024-03-20T01:45:59Z</time></trkpt>
<trkpt lat="37.6621546" lon="126.9864821"><ele>475.83685</ele><time>2024-03-20T01:46:10Z</time></trkpt>
<trkpt lat="37.6621466" lon="126.9863633"><ele>477.61578</ele><time>2024-03-20T01:46:19Z</time></trkpt>
<trkpt lat="37.6621473" lon="126.9862379"><ele>477.06024</ele><time>2024-03-20T01:46:30Z</time></trkpt>
<trkpt lat="37.6621788" lon="126.9861264"><ele>475.85724</ele><time>2024-03-20T01:46:39Z</time></trkpt>
<trkpt lat="37.6622172" lon="126.9860221"><ele>474.1209</ele><time>2024-03-20T01:46:48Z</time></trkpt>
<trkpt lat="37.6622555" lon="126.9859058"><ele>475.55072</ele><time>2024-03-20T01:46:59Z</time></trkpt>
<trkpt lat="37.6622893" lon="126.9857887"><ele>475.27863</ele><time>2024-03-20T01:47:10Z</time></trkpt>
<trkpt lat="37.6623007" lon="126.9856718"><ele>473.16638</ele><time>2024-03-20T01:47:21Z</time></trkpt>
<trkpt lat="37.6622907" lon="126.9855501"><ele>473.5423</ele><time>2024-03-20T01:47:32Z</time></trkpt>
<trkpt lat="37.6622307" lon="126.9854583"><ele>473.04315</ele><time>2024-03-20T01:47:45Z</time></trkpt>
<trkpt lat="37.6621391" lon="126.9854784"><ele>474.41095</ele><time>2024-03-20T01:47:54Z</time></trkpt>
<trkpt lat="37.6620556" lon="126.9854297"><ele>470.601</ele><time>2024-03-20T01:48:11Z</time></trkpt>
<trkpt lat="37.6619594" lon="126.9854265"><ele>467.81244</ele><time>2024-03-20T01:48:27Z</time></trkpt>
<trkpt lat="37.6618751" lon="126.9853743"><ele>466.37665</ele><time>2024-03-20T01:48:41Z</time></trkpt>
<trkpt lat="37.6618033" lon="126.9852971"><ele>464.05353</ele><time>2024-03-20T01:48:55Z</time></trkpt>
<trkpt lat="37.6617205" lon="126.9852267"><ele>460.20618</ele><time>2024-03-20T01:49:11Z</time></trkpt>
<trkpt lat="37.6616838" lon="126.9851103"><ele>457.2082</ele><time>2024-03-20T01:49:22Z</time></trkpt>
<trkpt lat="37.661605" lon="126.9850444"><ele>459.4643</ele><time>2024-03-20T01:49:33Z</time></trkpt>
<trkpt lat="37.6615107" lon="126.9850286"><ele>462.9002</ele><time>2024-03-20T01:49:49Z</time></trkpt>
<trkpt lat="37.6614343" lon="126.9850952"><ele>465.2058</ele><time>2024-03-20T01:50:05Z</time></trkpt>
<trkpt lat="37.6613436" lon="126.9851008"><ele>467.34186</ele><time>2024-03-20T01:50:21Z</time></trkpt>
<trkpt lat="37.6612527" lon="126.9851004"><ele>468.44965</ele><time>2024-03-20T01:50:32Z</time></trkpt>
<trkpt lat="37.661171" lon="126.9851539"><ele>471.17017</ele><time>2024-03-20T01:50:48Z</time></trkpt>
<trkpt lat="37.6611042" lon="126.9850714"><ele>471.13214</ele><time>2024-03-20T01:51:00Z</time></trkpt>
<trkpt lat="37.6610102" lon="126.9850779"><ele>471.5666</ele><time>2024-03-20T01:51:24Z</time></trkpt>
<trkpt lat="37.6609239" lon="126.9850293"><ele>477.0551</ele><time>2024-03-20T01:51:48Z</time></trkpt>
<trkpt lat="37.6608301" lon="126.9850226"><ele>478.8719</ele><time>2024-03-20T01:52:07Z</time></trkpt>
<trkpt lat="37.6607588" lon="126.9849471"><ele>480.75275</ele><time>2024-03-20T01:52:24Z</time></trkpt>
<trkpt lat="37.6606766" lon="126.9849977"><ele>483.2942</ele><time>2024-03-20T01:52:44Z</time></trkpt>
<trkpt lat="37.6605826" lon="126.9849875"><ele>486.82086</ele><time>2024-03-20T01:53:12Z</time></trkpt>
<trkpt lat="37.6604951" lon="126.98494"><ele>488.44843</ele><time>2024-03-20T01:53:30Z</time></trkpt>
<trkpt lat="37.6604083" lon="126.984974"><ele>494.17816</ele><time>2024-03-20T01:53:55Z</time></trkpt>
<trkpt lat="37.6603158" lon="126.9849762"><ele>496.77728</ele><time>2024-03-20T01:54:16Z</time></trkpt>
<trkpt lat="37.6602251" lon="126.9849606"><ele>498.6573</ele><time>2024-03-20T01:54:30Z</time></trkpt>
<trkpt lat="37.660129" lon="126.9849675"><ele>498.9038</ele><time>2024-03-20T01:54:45Z</time></trkpt>
<trkpt lat="37.6600478" lon="126.9849159"><ele>501.05695</ele><time>2024-03-20T01:55:00Z</time></trkpt>
<trkpt lat="37.6599743" lon="126.9848437"><ele>504.65155</ele><time>2024-03-20T01:55:16Z</time></trkpt>
<trkpt lat="37.6598845" lon="126.9848134"><ele>505.0656</ele><time>2024-03-20T01:55:34Z</time></trkpt>
<trkpt lat="37.6597944" lon="126.9848327"><ele>508.2613</ele><time>2024-03-20T01:55:53Z</time></trkpt>
<trkpt lat="37.6597073" lon="126.9848726"><ele>509.5727</ele><time>2024-03-20T01:56:10Z</time></trkpt>
<trkpt lat="37.6596129" lon="126.9848975"><ele>514.83075</ele><time>2024-03-20T01:56:30Z</time></trkpt>
<trkpt lat="37.6595224" lon="126.984865"><ele>514.8254</ele><time>2024-03-20T01:56:42Z</time></trkpt>
<trkpt lat="37.6595231" lon="126.9847464"><ele>516.2321</ele><time>2024-03-20T01:56:52Z</time></trkpt>
<trkpt lat="37.6594868" lon="126.9846408"><ele>515.6862</ele><time>2024-03-20T01:57:06Z</time></trkpt>
<trkpt lat="37.6594479" lon="126.9845357"><ele>515.0793</ele><time>2024-03-20T01:57:21Z</time></trkpt>
<trkpt lat="37.6593791" lon="126.9844562"><ele>518.2839</ele><time>2024-03-20T01:57:37Z</time></trkpt>
<trkpt lat="37.6593836" lon="126.9843379"><ele>520.8156</ele><time>2024-03-20T01:57:58Z</time></trkpt>
<trkpt lat="37.6593022" lon="126.9842794"><ele>526.0212</ele><time>2024-03-20T01:58:23Z</time></trkpt>
<trkpt lat="37.6592277" lon="126.9842008"><ele>528.76666</ele><time>2024-03-20T01:58:42Z</time></trkpt>
<trkpt lat="37.6591966" lon="126.9840888"><ele>531.51556</ele><time>2024-03-20T01:58:56Z</time></trkpt>
<trkpt lat="37.6591751" lon="126.9839715"><ele>536.1386</ele><time>2024-03-20T01:59:18Z</time></trkpt>
<trkpt lat="37.6591224" lon="126.983878"><ele>539.70245</ele><time>2024-03-20T01:59:37Z</time></trkpt>
<trkpt lat="37.6590873" lon="126.9837717"><ele>539.38495</ele><time>2024-03-20T01:59:58Z</time></trkpt>
<trkpt lat="37.6590855" lon="126.9836548"><ele>541.1197</ele><time>2024-03-20T02:00:30Z</time></trkpt>
<trkpt lat="37.6590382" lon="126.9835551"><ele>548.9853</ele><time>2024-03-20T02:00:57Z</time></trkpt>
<trkpt lat="37.6590044" lon="126.9834456"><ele>554.19745</ele><time>2024-03-20T02:01:22Z</time></trkpt>
<trkpt lat="37.6589729" lon="126.9833367"><ele>561.512</ele><time>2024-03-20T02:01:51Z</time></trkpt>
<trkpt lat="37.6589373" lon="126.9832251"><ele>565.52264</ele><time>2024-03-20T02:02:14Z</time></trkpt>
<trkpt lat="37.6588941" lon="126.9831235"><ele>567.6834</ele><time>2024-03-20T02:02:32Z</time></trkpt>
<trkpt lat="37.6588491" lon="126.9830242"><ele>567.9936</ele><time>2024-03-20T02:02:56Z</time></trkpt>
<trkpt lat="37.6587623" lon="126.9829936"><ele>570.3786</ele><time>2024-03-20T02:03:17Z</time></trkpt>
<trkpt lat="37.6586941" lon="126.9829192"><ele>572.2365</ele><time>2024-03-20T02:03:40Z</time></trkpt>
<trkpt lat="37.6586442" lon="126.9828211"><ele>578.5754</ele><time>2024-03-20T02:04:08Z</time></trkpt>
<trkpt lat="37.6585751" lon="126.9827472"><ele>582.7463</ele><time>2024-03-20T02:04:34Z</time></trkpt>
<trkpt lat="37.6585562" lon="126.9826331"><ele>584.38275</ele><time>2024-03-20T02:04:54Z</time></trkpt>
<trkpt lat="37.6585524" lon="126.9825195"><ele>586.93353</ele><time>2024-03-20T02:05:14Z</time></trkpt>
<trkpt lat="37.6585051" lon="126.9824152"><ele>591.018</ele><time>2024-03-20T02:05:41Z</time></trkpt>
<trkpt lat="37.6584528" lon="126.9823181"><ele>594.3162</ele><time>2024-03-20T02:06:01Z</time></trkpt>
<trkpt lat="37.6583882" lon="126.9822342"><ele>599.11615</ele><time>2024-03-20T02:06:30Z</time></trkpt>
<trkpt lat="37.6583417" lon="126.9821368"><ele>602.97296</ele><time>2024-03-20T02:06:54Z</time></trkpt>
<trkpt lat="37.6583133" lon="126.9820269"><ele>607.36835</ele><time>2024-03-20T02:07:15Z</time></trkpt>
<trkpt lat="37.658362" lon="126.9819215"><ele>609.05634</ele><time>2024-03-20T02:07:33Z</time></trkpt>
<trkpt lat="37.6584459" lon="126.9818717"><ele>611.293</ele><time>2024-03-20T02:07:49Z</time></trkpt>
<trkpt lat="37.6583764" lon="126.9817968"><ele>613.76117</ele><time>2024-03-20T02:08:17Z</time></trkpt>
<trkpt lat="37.6583718" lon="126.9816833"><ele>619.26215</ele><time>2024-03-20T02:08:44Z</time></trkpt>
<trkpt lat="37.6583527" lon="126.9815695"><ele>624.9245</ele><time>2024-03-20T02:09:07Z</time></trkpt>
<trkpt lat="37.6584385" lon="126.9815319"><ele>628.15375</ele><time>2024-03-20T02:09:29Z</time></trkpt>
<trkpt lat="37.6584997" lon="126.9814421"><ele>634.0798</ele><time>2024-03-20T02:10:03Z</time></trkpt>
<trkpt lat="37.6585786" lon="126.9813809"><ele>639.58417</ele><time>2024-03-20T02:10:38Z</time></trkpt>
<trkpt lat="37.6585439" lon="126.9812757"><ele>640.88873</ele><time>2024-03-20T02:10:56Z</time></trkpt>
<trkpt lat="37.6584712" lon="126.9811992"><ele>640.86615</ele><time>2024-03-20T02:11:06Z</time></trkpt>
<trkpt lat="37.658446" lon="126.9810799"><ele>642.16315</ele><time>2024-03-20T02:11:16Z</time></trkpt>
<trkpt lat="37.6583733" lon="126.9810061"><ele>644.51166</ele><time>2024-03-20T02:11:38Z</time></trkpt>
<trkpt lat="37.6583282" lon="126.980903"><ele>648.3322</ele><time>2024-03-20T02:11:59Z</time></trkpt>
<trkpt lat="37.6582519" lon="126.9808389"><ele>654.945</ele><time>2024-03-20T02:12:48Z</time></trkpt>
<trkpt lat="37.6582326" lon="126.980727"><ele>657.2934</ele><time>2024-03-20T02:13:13Z</time></trkpt>
<trkpt lat="37.6581693" lon="126.9806405"><ele>658.5783</ele><time>2024-03-20T02:13:42Z</time></trkpt>
<trkpt lat="37.6580989" lon="126.9805665"><ele>668.0053</ele><time>2024-03-20T02:14:31Z</time></trkpt>
<trkpt lat="37.6580678" lon="126.9804552"><ele>670.4034</ele><time>2024-03-20T02:14:58Z</time></trkpt>
<trkpt lat="37.6581057" lon="126.9803507"><ele>675.45514</ele><time>2024-03-20T02:15:28Z</time></trkpt>
<trkpt lat="37.6580463" lon="126.9802626"><ele>681.84344</ele><time>2024-03-20T02:15:56Z</time></trkpt>
<trkpt lat="37.6579792" lon="126.9801852"><ele>682.89215</ele><time>2024-03-20T02:16:13Z</time></trkpt>
<trkpt lat="37.6578979" lon="126.9801299"><ele>684.309</ele><time>2024-03-20T02:16:26Z</time></trkpt>
<trkpt lat="37.657919" lon="126.9800192"><ele>687.80145</ele><time>2024-03-20T02:16:48Z</time></trkpt>
<trkpt lat="37.6578549" lon="126.9799386"><ele>689.72906</ele><time>2024-03-20T02:17:17Z</time></trkpt>
<trkpt lat="37.657891" lon="126.9798332"><ele>696.0457</ele><time>2024-03-20T02:17:51Z</time></trkpt>
<trkpt lat="37.6578608" lon="126.9797224"><ele>704.22675</ele><time>2024-03-20T02:18:34Z</time></trkpt>
<trkpt lat="37.6578048" lon="126.9796324"><ele>706.3006</ele><time>2024-03-20T02:18:57Z</time></trkpt>
<trkpt lat="37.6577134" lon="126.9795912"><ele>707.3403</ele><time>2024-03-20T02:19:23Z</time></trkpt>
<trkpt lat="37.6577651" lon="126.9794943"><ele>714.1392</ele><time>2024-03-20T02:25:04Z</time></trkpt>
<trkpt lat="37.6578506" lon="126.9794505"><ele>714.42426</ele><time>2024-03-20T02:25:16Z</time></trkpt>
<trkpt lat="37.6579358" lon="126.9794118"><ele>721.3831</ele><time>2024-03-20T02:25:34Z</time></trkpt>
<trkpt lat="37.6580262" lon="126.9794346"><ele>723.7342</ele><time>2024-03-20T02:26:00Z</time></trkpt>
<trkpt lat="37.6580782" lon="126.97934"><ele>726.93463</ele><time>2024-03-20T02:26:25Z</time></trkpt>
<trkpt lat="37.6581081" lon="126.9792313"><ele>733.47797</ele><time>2024-03-20T02:26:57Z</time></trkpt>
<trkpt lat="37.6580314" lon="126.9791622"><ele>741.2834</ele><time>2024-03-20T02:27:32Z</time></trkpt>
<trkpt lat="37.6579976" lon="126.979057"><ele>743.0798</ele><time>2024-03-20T02:27:56Z</time></trkpt>
<trkpt lat="37.6580107" lon="126.9789441"><ele>749.4809</ele><time>2024-03-20T02:28:29Z</time></trkpt>
<trkpt lat="37.6580876" lon="126.9788713"><ele>754.1783</ele><time>2024-03-20T02:29:00Z</time></trkpt>
<trkpt lat="37.6581381" lon="126.9787735"><ele>757.94293</ele><time>2024-03-20T02:29:28Z</time></trkpt>
<trkpt lat="37.6581638" lon="126.9786629"><ele>765.0617</ele><time>2024-03-20T02:30:07Z</time></trkpt>
<trkpt lat="37.6582074" lon="126.9785611"><ele>767.38544</ele><time>2024-03-20T02:30:38Z</time></trkpt>
<trkpt lat="37.6582533" lon="126.9784607"><ele>776.59</ele><time>2024-03-20T02:31:11Z</time></trkpt>
<trkpt lat="37.6583295" lon="126.9783977"><ele>788.288</ele><time>2024-03-20T02:32:02Z</time></trkpt>
<trkpt lat="37.6584183" lon="126.9783737"><ele>798.43134</ele><time>2024-03-20T02:33:02Z</time></trkpt>
<trkpt lat="37.6584953" lon="126.9784397"><ele>798.8962</ele><time>2024-03-20T02:33:24Z</time></trkpt>
<trkpt lat="37.6585617" lon="126.9785207"><ele>799.2734</ele><time>2024-03-20T02:33:37Z</time></trkpt>
<trkpt lat="37.6586292" lon="126.978596"><ele>799.4057</ele><time>2024-03-20T02:33:52Z</time></trkpt>
<trkpt lat="37.6587018" lon="126.9785228"><ele>807.7332</ele><time>2024-03-20T02:34:25Z</time></trkpt>
<trkpt lat="37.6587572" lon="126.9784333"><ele>808.9089</ele><time>2024-03-20T02:34:47Z</time></trkpt>
<trkpt lat="37.6588389" lon="126.9783785"><ele>812.19354</ele><time>2024-03-20T02:35:05Z</time></trkpt>
<trkpt lat="37.658788" lon="126.9782818"><ele>817.4897</ele><time>2024-03-20T02:35:34Z</time></trkpt>
<trkpt lat="37.6586976" lon="126.9782662"><ele>823.45026</ele><time>2024-03-20T02:35:59Z</time></trkpt>
<trkpt lat="37.6587271" lon="126.9781591"><ele>826.83856</ele><time>2024-03-20T02:36:35Z</time></trkpt>
<trkpt lat="37.6586942" lon="126.9780506"><ele>833.11163</ele><time>2024-03-20T02:37:12Z</time></trkpt>
<trkpt lat="37.658742" lon="126.9781484"><ele>825.9295</ele><time>2024-03-20T02:41:11Z</time></trkpt>
<trkpt lat="37.6586519" lon="126.9781836"><ele>828.3901</ele><time>2024-03-20T02:41:36Z</time></trkpt>
<trkpt lat="37.6587382" lon="126.978226"><ele>822.12445</ele><time>2024-03-20T02:44:34Z</time></trkpt>
<trkpt lat="37.6588214" lon="126.978275"><ele>820.2177</ele><time>2024-03-20T02:44:50Z</time></trkpt>
<trkpt lat="37.658881" lon="126.9783618"><ele>813.9379</ele><time>2024-03-20T02:45:10Z</time></trkpt>
<trkpt lat="37.6588154" lon="126.978447"><ele>810.94257</ele><time>2024-03-20T02:45:30Z</time></trkpt>
<trkpt lat="37.6587239" lon="126.978477"><ele>810.24506</ele><time>2024-03-20T02:45:42Z</time></trkpt>
<trkpt lat="37.6586731" lon="126.978571"><ele>804.164</ele><time>2024-03-20T02:46:11Z</time></trkpt>
<trkpt lat="37.6585768" lon="126.9785748"><ele>800.7109</ele><time>2024-03-20T02:46:34Z</time></trkpt>
<trkpt lat="37.6585164" lon="126.9784894"><ele>801.4661</ele><time>2024-03-20T02:46:58Z</time></trkpt>
<trkpt lat="37.6584477" lon="126.978416"><ele>802.10565</ele><time>2024-03-20T02:47:11Z</time></trkpt>
<trkpt lat="37.6584124" lon="126.9783076"><ele>796.2459</ele><time>2024-03-20T02:47:40Z</time></trkpt>
<trkpt lat="37.6584121" lon="126.978422"><ele>767.93524</ele><time>2024-03-20T02:48:46Z</time></trkpt>
<trkpt lat="37.6583136" lon="126.9784438"><ele>768.4766</ele><time>2024-03-20T02:48:58Z</time></trkpt>
<trkpt lat="37.6582578" lon="126.9785328"><ele>773.4605</ele><time>2024-03-20T02:49:10Z</time></trkpt>
<trkpt lat="37.6582059" lon="126.978627"><ele>769.46136</ele><time>2024-03-20T02:50:12Z</time></trkpt>
<trkpt lat="37.6581454" lon="126.9787159"><ele>763.76825</ele><time>2024-03-20T02:50:48Z</time></trkpt>
<trkpt lat="37.6581121" lon="126.9788251"><ele>759.1319</ele><time>2024-03-20T02:51:10Z</time></trkpt>
<trkpt lat="37.6580389" lon="126.9789028"><ele>755.7719</ele><time>2024-03-20T02:51:34Z</time></trkpt>
<trkpt lat="37.658024" lon="126.9790179"><ele>748.1026</ele><time>2024-03-20T02:52:30Z</time></trkpt>
<trkpt lat="37.6580208" lon="126.9791368"><ele>740.6115</ele><time>2024-03-20T02:52:57Z</time></trkpt>
<trkpt lat="37.6580925" lon="126.9792117"><ele>736.3735</ele><time>2024-03-20T02:53:14Z</time></trkpt>
<trkpt lat="37.6580608" lon="126.97932"><ele>730.7878</ele><time>2024-03-20T02:53:41Z</time></trkpt>
<trkpt lat="37.658006" lon="126.9794142"><ele>725.25287</ele><time>2024-03-20T02:54:03Z</time></trkpt>
<trkpt lat="37.6579142" lon="126.9794165"><ele>720.36334</ele><time>2024-03-20T02:55:59Z</time></trkpt>
<trkpt lat="37.6578323" lon="126.9794667"><ele>718.2309</ele><time>2024-03-20T02:56:17Z</time></trkpt>
<trkpt lat="37.6577452" lon="126.9795212"><ele>715.3554</ele><time>2024-03-20T02:56:31Z</time></trkpt>
<trkpt lat="37.657654" lon="126.979482"><ele>712.5395</ele><time>2024-03-20T02:56:59Z</time></trkpt>
<trkpt lat="37.6576343" lon="126.9793656"><ele>708.7421</ele><time>2024-03-20T02:57:18Z</time></trkpt>
<trkpt lat="37.6576206" lon="126.979253"><ele>705.72943</ele><time>2024-03-20T02:57:39Z</time></trkpt>
<trkpt lat="37.6575487" lon="126.9791825"><ele>702.51605</ele><time>2024-03-20T02:58:02Z</time></trkpt>
<trkpt lat="37.657458" lon="126.9791833"><ele>670.11127</ele><time>2024-03-20T02:59:12Z</time></trkpt>
<trkpt lat="37.6573792" lon="126.9791183"><ele>676.1369</ele><time>2024-03-20T02:59:19Z</time></trkpt>
<trkpt lat="37.6573115" lon="126.9790435"><ele>679.46954</ele><time>2024-03-20T02:59:27Z</time></trkpt>
<trkpt lat="37.6572213" lon="126.9789863"><ele>682.5162</ele><time>2024-03-20T02:59:38Z</time></trkpt>
<trkpt lat="37.6571478" lon="126.9789107"><ele>682.175</ele><time>2024-03-20T02:59:49Z</time></trkpt>
<trkpt lat="37.657074" lon="126.9788381"><ele>680.8984</ele><time>2024-03-20T03:00:02Z</time></trkpt>
<trkpt lat="37.6569903" lon="126.9788829"><ele>677.13434</ele><time>2024-03-20T03:00:26Z</time></trkpt>
<trkpt lat="37.6568982" lon="126.9788577"><ele>678.7629</ele><time>2024-03-20T03:00:41Z</time></trkpt>
<trkpt lat="37.6568619" lon="126.9787499"><ele>684.2088</ele><time>2024-03-20T03:01:08Z</time></trkpt>
<trkpt lat="37.6567757" lon="126.9786981"><ele>685.4223</ele><time>2024-03-20T03:01:22Z</time></trkpt>
<trkpt lat="37.6566885" lon="126.9786577"><ele>685.7581</ele><time>2024-03-20T03:01:34Z</time></trkpt>
<trkpt lat="37.6566011" lon="126.9786862"><ele>689.30646</ele><time>2024-03-20T03:01:56Z</time></trkpt>
<trkpt lat="37.6565092" lon="126.9786578"><ele>691.8715</ele><time>2024-03-20T03:02:22Z</time></trkpt>
<trkpt lat="37.6564227" lon="126.978625"><ele>690.524</ele><time>2024-03-20T03:02:36Z</time></trkpt>
<trkpt lat="37.656352" lon="126.9785517"><ele>688.77875</ele><time>2024-03-20T03:02:53Z</time></trkpt>
<trkpt lat="37.6562592" lon="126.9785524"><ele>694.0041</ele><time>2024-03-20T03:03:13Z</time></trkpt>
<trkpt lat="37.6561699" lon="126.9785201"><ele>695.0485</ele><time>2024-03-20T03:03:39Z</time></trkpt>
<trkpt lat="37.6560774" lon="126.9785337"><ele>698.72296</ele><time>2024-03-20T03:04:02Z</time></trkpt>
<trkpt lat="37.6559862" lon="126.9785534"><ele>703.8067</ele><time>2024-03-20T03:04:27Z</time></trkpt>
<trkpt lat="37.6559" lon="126.9785985"><ele>707.33185</ele><time>2024-03-20T03:04:44Z</time></trkpt>
<trkpt lat="37.655808" lon="126.97859"><ele>708.01385</ele><time>2024-03-20T03:04:58Z</time></trkpt>
<trkpt lat="37.6557174" lon="126.9786286"><ele>710.4897</ele><time>2024-03-20T03:05:20Z</time></trkpt>
<trkpt lat="37.6556288" lon="126.9786609"><ele>714.3073</ele><time>2024-03-20T03:05:42Z</time></trkpt>
<trkpt lat="37.6555504" lon="126.9787196"><ele>716.96967</ele><time>2024-03-20T03:05:58Z</time></trkpt>
<trkpt lat="37.6554604" lon="126.9787668"><ele>719.158</ele><time>2024-03-20T03:06:15Z</time></trkpt>
<trkpt lat="37.6553688" lon="126.9787995"><ele>719.5821</ele><time>2024-03-20T03:06:31Z</time></trkpt>
<trkpt lat="37.6552969" lon="126.9788688"><ele>715.5756</ele><time>2024-03-20T03:06:53Z</time></trkpt>
<trkpt lat="37.6552183" lon="126.9789315"><ele>712.96844</ele><time>2024-03-20T03:07:15Z</time></trkpt>
<trkpt lat="37.655176" lon="126.9790318"><ele>711.29926</ele><time>2024-03-20T03:07:32Z</time></trkpt>
<trkpt lat="37.6550887" lon="126.9790865"><ele>711.7211</ele><time>2024-03-20T03:07:58Z</time></trkpt>
<trkpt lat="37.6550093" lon="126.9791493"><ele>714.52386</ele><time>2024-03-20T03:08:15Z</time></trkpt>
<trkpt lat="37.6549144" lon="126.9791868"><ele>717.08905</ele><time>2024-03-20T03:08:35Z</time></trkpt>
<trkpt lat="37.6548555" lon="126.9790995"><ele>705.85614</ele><time>2024-03-20T03:09:20Z</time></trkpt>
<trkpt lat="37.6547614" lon="126.9790611"><ele>703.34515</ele><time>2024-03-20T03:09:36Z</time></trkpt>
<trkpt lat="37.6546867" lon="126.9789937"><ele>699.01044</ele><time>2024-03-20T03:10:02Z</time></trkpt>
<trkpt lat="37.6546182" lon="126.97891"><ele>697.80475</ele><time>2024-03-20T03:10:19Z</time></trkpt>
<trkpt lat="37.6545312" lon="126.978859"><ele>696.51276</ele><time>2024-03-20T03:10:35Z</time></trkpt>
<trkpt lat="37.6544397" lon="126.9788371"><ele>699.3958</ele><time>2024-03-20T03:10:56Z</time></trkpt>
<trkpt lat="37.6544841" lon="126.9787311"><ele>680.9687</ele><time>2024-03-20T03:11:40Z</time></trkpt>
<trkpt lat="37.6544999" lon="126.9788443"><ele>676.99554</ele><time>2024-03-20T03:11:55Z</time></trkpt>
<trkpt lat="37.6544014" lon="126.9788226"><ele>662.83417</ele><time>2024-03-20T03:12:17Z</time></trkpt>
<trkpt lat="37.6543238" lon="126.9787555"><ele>665.164</ele><time>2024-03-20T03:12:24Z</time></trkpt>
<trkpt lat="37.6542487" lon="126.9786821"><ele>667.45416</ele><time>2024-03-20T03:12:32Z</time></trkpt>
<trkpt lat="37.654171" lon="126.9786161"><ele>667.95746</ele><time>2024-03-20T03:12:40Z</time></trkpt>
<trkpt lat="37.6540814" lon="126.978596"><ele>671.48566</ele><time>2024-03-20T03:12:49Z</time></trkpt>
<trkpt lat="37.6539884" lon="126.9785906"><ele>673.5888</ele><time>2024-03-20T03:13:00Z</time></trkpt>
<trkpt lat="37.6539176" lon="126.9785183"><ele>670.15375</ele><time>2024-03-20T03:13:15Z</time></trkpt>
<trkpt lat="37.6539546" lon="126.9784121"><ele>667.81195</ele><time>2024-03-20T03:13:25Z</time></trkpt>
<trkpt lat="37.6538857" lon="126.9783255"><ele>666.19794</ele><time>2024-03-20T03:13:36Z</time></trkpt>
<trkpt lat="37.6537992" lon="126.9782737"><ele>663.1845</ele><time>2024-03-20T03:13:48Z</time></trkpt>
<trkpt lat="37.6537622" lon="126.978161"><ele>659.9493</ele><time>2024-03-20T03:14:03Z</time></trkpt>
<trkpt lat="37.6536878" lon="126.9782344"><ele>654.44403</ele><time>2024-03-20T03:14:19Z</time></trkpt>
<trkpt lat="37.6536429" lon="126.9783408"><ele>655.67975</ele><time>2024-03-20T03:14:32Z</time></trkpt>
<trkpt lat="37.6535812" lon="126.9784333"><ele>656.0778</ele><time>2024-03-20T03:14:48Z</time></trkpt>
<trkpt lat="37.653566" lon="126.9785499"><ele>653.7326</ele><time>2024-03-20T03:15:01Z</time></trkpt>
<trkpt lat="37.6535123" lon="126.9786421"><ele>652.1955</ele><time>2024-03-20T03:15:13Z</time></trkpt>
<trkpt lat="37.6535116" lon="126.9787562"><ele>649.8752</ele><time>2024-03-20T03:15:24Z</time></trkpt>
<trkpt lat="37.6534894" lon="126.9788705"><ele>648.9654</ele><time>2024-03-20T03:15:34Z</time></trkpt>
<trkpt lat="37.6534905" lon="126.9789861"><ele>650.02484</ele><time>2024-03-20T03:15:47Z</time></trkpt>
<trkpt lat="37.6534385" lon="126.9790798"><ele>649.1313</ele><time>2024-03-20T03:16:10Z</time></trkpt>
<trkpt lat="37.6533858" lon="126.9791739"><ele>643.4489</ele><time>2024-03-20T03:16:29Z</time></trkpt>
<trkpt lat="37.653345" lon="126.9792763"><ele>636.3549</ele><time>2024-03-20T03:16:52Z</time></trkpt>
<trkpt lat="37.6533004" lon="126.9793837"><ele>629.6281</ele><time>2024-03-20T03:17:10Z</time></trkpt>
<trkpt lat="37.6532836" lon="126.9794982"><ele>625.12286</ele><time>2024-03-20T03:17:32Z</time></trkpt>
<trkpt lat="37.6531955" lon="126.979555"><ele>631.1811</ele><time>2024-03-20T03:17:42Z</time></trkpt>
<trkpt lat="37.6531157" lon="126.9796136"><ele>632.30853</ele><time>2024-03-20T03:17:54Z</time></trkpt>
<trkpt lat="37.6530495" lon="126.979704"><ele>632.1174</ele><time>2024-03-20T03:18:16Z</time></trkpt>
<trkpt lat="37.6530431" lon="126.9798265"><ele>626.9931</ele><time>2024-03-20T03:18:29Z</time></trkpt>
<trkpt lat="37.6530515" lon="126.9799472"><ele>625.02606</ele><time>2024-03-20T03:18:41Z</time></trkpt>
<trkpt lat="37.65304" lon="126.980064"><ele>628.4101</ele><time>2024-03-20T03:18:51Z</time></trkpt>
<trkpt lat="37.6529682" lon="126.9801408"><ele>632.7917</ele><time>2024-03-20T03:19:02Z</time></trkpt>
<trkpt lat="37.6528809" lon="126.9801094"><ele>628.64105</ele><time>2024-03-20T03:19:18Z</time></trkpt>
<trkpt lat="37.6527879" lon="126.980109"><ele>623.32</ele><time>2024-03-20T03:19:33Z</time></trkpt>
<trkpt lat="37.6526931" lon="126.9801245"><ele>621.8881</ele><time>2024-03-20T03:19:45Z</time></trkpt>
<trkpt lat="37.6526046" lon="126.9801797"><ele>622.31024</ele><time>2024-03-20T03:19:54Z</time></trkpt>
<trkpt lat="37.6525273" lon="126.9802424"><ele>622.4819</ele><time>2024-03-20T03:20:02Z</time></trkpt>
<trkpt lat="37.6524527" lon="126.9803163"><ele>623.43195</ele><time>2024-03-20T03:20:13Z</time></trkpt>
<trkpt lat="37.6523715" lon="126.9803809"><ele>626.39813</ele><time>2024-03-20T03:20:24Z</time></trkpt>
<trkpt lat="37.6522772" lon="126.9803805"><ele>619.8116</ele><time>2024-03-20T03:20:38Z</time></trkpt>
<trkpt lat="37.6522551" lon="126.9804942"><ele>618.47064</ele><time>2024-03-20T03:20:49Z</time></trkpt>
<trkpt lat="37.6521815" lon="126.9805678"><ele>616.75116</ele><time>2024-03-20T03:21:01Z</time></trkpt>
<trkpt lat="37.6521137" lon="126.980653"><ele>616.347</ele><time>2024-03-20T03:21:12Z</time></trkpt>
<trkpt lat="37.6520207" lon="126.9806422"><ele>614.3471</ele><time>2024-03-20T03:21:26Z</time></trkpt>
<trkpt lat="37.6519602" lon="126.9807377"><ele>610.1922</ele><time>2024-03-20T03:21:36Z</time></trkpt>
<trkpt lat="37.6518703" lon="126.980721"><ele>606.982</ele><time>2024-03-20T03:21:46Z</time></trkpt>
<trkpt lat="37.6517883" lon="126.9806661"><ele>607.08636</ele><time>2024-03-20T03:21:55Z</time></trkpt>
<trkpt lat="37.6516905" lon="126.9806476"><ele>589.0827</ele><time>2024-03-20T03:22:54Z</time></trkpt>
<trkpt lat="37.6515905" lon="126.980661"><ele>589.1364</ele><time>2024-03-20T03:23:03Z</time></trkpt>
<trkpt lat="37.6515003" lon="126.9806941"><ele>588.78925</ele><time>2024-03-20T03:23:10Z</time></trkpt>
<trkpt lat="37.6514213" lon="126.9807538"><ele>589.69965</ele><time>2024-03-20T03:23:18Z</time></trkpt>
<trkpt lat="37.6513284" lon="126.9807836"><ele>588.2756</ele><time>2024-03-20T03:23:28Z</time></trkpt>
<trkpt lat="37.6512533" lon="126.9807064"><ele>589.1313</ele><time>2024-03-20T03:23:38Z</time></trkpt>
<trkpt lat="37.6511625" lon="126.9807172"><ele>592.0163</ele><time>2024-03-20T03:24:01Z</time></trkpt>
<trkpt lat="37.6510712" lon="126.9807184"><ele>592.44916</ele><time>2024-03-20T03:24:14Z</time></trkpt>
<trkpt lat="37.6509896" lon="126.9807691"><ele>591.15814</ele><time>2024-03-20T03:24:27Z</time></trkpt>
<trkpt lat="37.6509057" lon="126.9808156"><ele>593.9211</ele><time>2024-03-20T03:24:38Z</time></trkpt>
<trkpt lat="37.6508103" lon="126.9808412"><ele>592.8737</ele><time>2024-03-20T03:24:49Z</time></trkpt>
<trkpt lat="37.6507357" lon="126.9809192"><ele>589.88934</ele><time>2024-03-20T03:25:03Z</time></trkpt>
<trkpt lat="37.6507473" lon="126.9810418"><ele>587.8791</ele><time>2024-03-20T03:25:12Z</time></trkpt>
<trkpt lat="37.6507546" lon="126.9811564"><ele>589.02936</ele><time>2024-03-20T03:25:21Z</time></trkpt>
<trkpt lat="37.6508121" lon="126.9812519"><ele>588.6711</ele><time>2024-03-20T03:25:30Z</time></trkpt>
<trkpt lat="37.6507877" lon="126.9813635"><ele>589.7858</ele><time>2024-03-20T03:25:39Z</time></trkpt>
<trkpt lat="37.650795" lon="126.9814862"><ele>591.29706</ele><time>2024-03-20T03:25:49Z</time></trkpt>
<trkpt lat="37.650803" lon="126.9816008"><ele>590.27875</ele><time>2024-03-20T03:25:59Z</time></trkpt>
<trkpt lat="37.6507966" lon="126.9817147"><ele>591.6036</ele><time>2024-03-20T03:26:11Z</time></trkpt>
<trkpt lat="37.6508178" lon="126.9818332"><ele>585.9272</ele><time>2024-03-20T03:26:25Z</time></trkpt>
<trkpt lat="37.6508798" lon="126.9819231"><ele>584.1772</ele><time>2024-03-20T03:26:35Z</time></trkpt>
<trkpt lat="37.6509183" lon="126.9820363"><ele>579.87225</ele><time>2024-03-20T03:26:45Z</time></trkpt>
<trkpt lat="37.6509408" lon="126.9821566"><ele>580.84076</ele><time>2024-03-20T03:26:54Z</time></trkpt>
<trkpt lat="37.6509774" lon="126.9822653"><ele>585.8221</ele><time>2024-03-20T03:27:07Z</time></trkpt>
<trkpt lat="37.6509358" lon="126.98237"><ele>585.9804</ele><time>2024-03-20T03:27:20Z</time></trkpt>
<trkpt lat="37.6509006" lon="126.9824789"><ele>581.4003</ele><time>2024-03-20T03:27:37Z</time></trkpt>
<trkpt lat="37.6509892" lon="126.9825232"><ele>578.95355</ele><time>2024-03-20T03:27:50Z</time></trkpt>
<trkpt lat="37.6510491" lon="126.9826098"><ele>577.37726</ele><time>2024-03-20T03:28:04Z</time></trkpt>
<trkpt lat="37.6509583" lon="126.9826372"><ele>574.227</ele><time>2024-03-20T03:31:21Z</time></trkpt>
<trkpt lat="37.6508817" lon="126.9827038"><ele>570.4616</ele><time>2024-03-20T03:31:37Z</time></trkpt>
<trkpt lat="37.6507974" lon="126.9827489"><ele>565.8254</ele><time>2024-03-20T03:31:53Z</time></trkpt>
<trkpt lat="37.6508506" lon="126.9828409"><ele>559.7238</ele><time>2024-03-20T03:32:09Z</time></trkpt>
<trkpt lat="37.6508888" lon="126.982944"><ele>551.0744</ele><time>2024-03-20T03:32:29Z</time></trkpt>
<trkpt lat="37.6509634" lon="126.9830089"><ele>545.47797</ele><time>2024-03-20T03:32:51Z</time></trkpt>
<trkpt lat="37.6510352" lon="126.9830816"><ele>540.2514</ele><time>2024-03-20T03:33:11Z</time></trkpt>
<trkpt lat="37.651112" lon="126.983153"><ele>537.764</ele><time>2024-03-20T03:33:28Z</time></trkpt>
<trkpt lat="37.6511097" lon="126.9832694"><ele>533.6269</ele><time>2024-03-20T03:33:51Z</time></trkpt>
<trkpt lat="37.651163" lon="126.9833661"><ele>528.6147</ele><time>2024-03-20T03:34:12Z</time></trkpt>
<trkpt lat="37.6512407" lon="126.9834305"><ele>527.4145</ele><time>2024-03-20T03:34:31Z</time></trkpt>
<trkpt lat="37.6512674" lon="126.9835412"><ele>522.6005</ele><time>2024-03-20T03:34:51Z</time></trkpt>
<trkpt lat="37.6513108" lon="126.9836504"><ele>518.71625</ele><time>2024-03-20T03:35:10Z</time></trkpt>
<trkpt lat="37.6513742" lon="126.983737"><ele>510.99078</ele><time>2024-03-20T03:35:38Z</time></trkpt>
<trkpt lat="37.6513639" lon="126.9838526"><ele>508.55988</ele><time>2024-03-20T03:35:56Z</time></trkpt>
<trkpt lat="37.6514315" lon="126.9839283"><ele>503.96942</ele><time>2024-03-20T03:36:14Z</time></trkpt>
<trkpt lat="37.6514796" lon="126.9840248"><ele>500.01788</ele><time>2024-03-20T03:36:30Z</time></trkpt>
<trkpt lat="37.6515656" lon="126.98406"><ele>493.386</ele><time>2024-03-20T03:36:50Z</time></trkpt>
<trkpt lat="37.6516333" lon="126.9841409"><ele>489.94598</ele><time>2024-03-20T03:37:05Z</time></trkpt>
<trkpt lat="37.651699" lon="126.9842269"><ele>487.3266</ele><time>2024-03-20T03:37:23Z</time></trkpt>
<trkpt lat="37.6517718" lon="126.9843007"><ele>482.12408</ele><time>2024-03-20T03:37:42Z</time></trkpt>
<trkpt lat="37.6518465" lon="126.9843744"><ele>479.38104</ele><time>2024-03-20T03:37:56Z</time></trkpt>
<trkpt lat="37.6519212" lon="126.9844528"><ele>477.96893</ele><time>2024-03-20T03:38:09Z</time></trkpt>
<trkpt lat="37.6520071" lon="126.9844135"><ele>476.82172</ele><time>2024-03-20T03:38:21Z</time></trkpt>
<trkpt lat="37.6519645" lon="126.9845189"><ele>471.6809</ele><time>2024-03-20T03:38:42Z</time></trkpt>
<trkpt lat="37.6518887" lon="126.9845846"><ele>466.47974</ele><time>2024-03-20T03:39:06Z</time></trkpt>
<trkpt lat="37.6519442" lon="126.9846817"><ele>460.86017</ele><time>2024-03-20T03:39:32Z</time></trkpt>
<trkpt lat="37.6520165" lon="126.98475"><ele>459.69568</ele><time>2024-03-20T03:39:42Z</time></trkpt>
<trkpt lat="37.6521052" lon="126.9847708"><ele>456.4897</ele><time>2024-03-20T03:39:56Z</time></trkpt>
<trkpt lat="37.6521747" lon="126.9848548"><ele>453.3405</ele><time>2024-03-20T03:40:09Z</time></trkpt>
<trkpt lat="37.6522516" lon="126.9849148"><ele>450.45526</ele><time>2024-03-20T03:40:25Z</time></trkpt>
<trkpt lat="37.6523402" lon="126.984954"><ele>449.42218</ele><time>2024-03-20T03:40:37Z</time></trkpt>
<trkpt lat="37.6524221" lon="126.9850171"><ele>444.53424</ele><time>2024-03-20T03:40:51Z</time></trkpt>
<trkpt lat="37.6524903" lon="126.9850966"><ele>443.98126</ele><time>2024-03-20T03:41:02Z</time></trkpt>
<trkpt lat="37.6525115" lon="126.9852075"><ele>440.77216</ele><time>2024-03-20T03:41:17Z</time></trkpt>
<trkpt lat="37.6526014" lon="126.9852303"><ele>438.21844</ele><time>2024-03-20T03:41:29Z</time></trkpt>
<trkpt lat="37.6526641" lon="126.9853144"><ele>432.34595</ele><time>2024-03-20T03:41:55Z</time></trkpt>
<trkpt lat="37.6526716" lon="126.9854299"><ele>425.75934</ele><time>2024-03-20T03:42:14Z</time></trkpt>
<trkpt lat="37.652733" lon="126.9855173"><ele>420.7636</ele><time>2024-03-20T03:42:42Z</time></trkpt>
<trkpt lat="37.6527881" lon="126.9856153"><ele>420.02545</ele><time>2024-03-20T03:42:57Z</time></trkpt>
<trkpt lat="37.6528607" lon="126.9856914"><ele>415.99866</ele><time>2024-03-20T03:43:18Z</time></trkpt>
<trkpt lat="37.6529523" lon="126.985722"><ele>413.7566</ele><time>2024-03-20T03:44:09Z</time></trkpt>
<trkpt lat="37.6530135" lon="126.9858107"><ele>409.5816</ele><time>2024-03-20T03:44:32Z</time></trkpt>
<trkpt lat="37.6530942" lon="126.9858689"><ele>403.6693</ele><time>2024-03-20T03:44:49Z</time></trkpt>
<trkpt lat="37.6531818" lon="126.9859026"><ele>402.1106</ele><time>2024-03-20T03:45:00Z</time></trkpt>
<trkpt lat="37.6532293" lon="126.9860069"><ele>402.80902</ele><time>2024-03-20T03:45:09Z</time></trkpt>
<trkpt lat="37.6532621" lon="126.9861169"><ele>404.55518</ele><time>2024-03-20T03:45:17Z</time></trkpt>
<trkpt lat="37.6533162" lon="126.986209"><ele>400.451</ele><time>2024-03-20T03:45:43Z</time></trkpt>
<trkpt lat="37.6533373" lon="126.9863252"><ele>395.08868</ele><time>2024-03-20T03:45:54Z</time></trkpt>
<trkpt lat="37.6533609" lon="126.9864347"><ele>392.49237</ele><time>2024-03-20T03:46:13Z</time></trkpt>
<trkpt lat="37.6533882" lon="126.9865493"><ele>394.99707</ele><time>2024-03-20T03:46:24Z</time></trkpt>
<trkpt lat="37.6533691" lon="126.9866635"><ele>395.60284</ele><time>2024-03-20T03:46:38Z</time></trkpt>
<trkpt lat="37.6533729" lon="126.9867845"><ele>389.35706</ele><time>2024-03-20T03:46:56Z</time></trkpt>
<trkpt lat="37.6533837" lon="126.9868974"><ele>386.53046</ele><time>2024-03-20T03:47:12Z</time></trkpt>
<trkpt lat="37.6534109" lon="126.9870057"><ele>379.56525</ele><time>2024-03-20T03:47:25Z</time></trkpt>
<trkpt lat="37.6534776" lon="126.9870874"><ele>377.78717</ele><time>2024-03-20T03:47:35Z</time></trkpt>
<trkpt lat="37.6535376" lon="126.9871932"><ele>375.62323</ele><time>2024-03-20T03:47:46Z</time></trkpt>
<trkpt lat="37.6536082" lon="126.987267"><ele>374.63</ele><time>2024-03-20T03:47:55Z</time></trkpt>
<trkpt lat="37.6536871" lon="126.9873393"><ele>376.00177</ele><time>2024-03-20T03:48:05Z</time></trkpt>
<trkpt lat="37.6536775" lon="126.9874568"><ele>378.05054</ele><time>2024-03-20T03:48:34Z</time></trkpt>
<trkpt lat="37.6537342" lon="126.9875552"><ele>374.35455</ele><time>2024-03-20T03:49:15Z</time></trkpt>
<trkpt lat="37.6537853" lon="126.9876487"><ele>374.29486</ele><time>2024-03-20T03:49:26Z</time></trkpt>
<trkpt lat="37.6538558" lon="126.9877282"><ele>374.17987</ele><time>2024-03-20T03:49:38Z</time></trkpt>
<trkpt lat="37.6538944" lon="126.9878372"><ele>373.37946</ele><time>2024-03-20T03:49:50Z</time></trkpt>
<trkpt lat="37.6539467" lon="126.9879314"><ele>371.47784</ele><time>2024-03-20T03:50:07Z</time></trkpt>
<trkpt lat="37.6539354" lon="126.9880447"><ele>367.07178</ele><time>2024-03-20T03:50:22Z</time></trkpt>
<trkpt lat="37.6538953" lon="126.9881488"><ele>363.69025</ele><time>2024-03-20T03:50:36Z</time></trkpt>
<trkpt lat="37.6539065" lon="126.9882631"><ele>355.2442</ele><time>2024-03-20T03:50:58Z</time></trkpt>
<trkpt lat="37.6539252" lon="126.9883824"><ele>351.68842</ele><time>2024-03-20T03:51:10Z</time></trkpt>
<trkpt lat="37.653917" lon="126.9885075"><ele>352.24054</ele><time>2024-03-20T03:51:19Z</time></trkpt>
<trkpt lat="37.6539202" lon="126.988621"><ele>348.63788</ele><time>2024-03-20T03:51:30Z</time></trkpt>
<trkpt lat="37.6539225" lon="126.9887411"><ele>348.61407</ele><time>2024-03-20T03:51:40Z</time></trkpt>
<trkpt lat="37.6539315" lon="126.9888632"><ele>348.29022</ele><time>2024-03-20T03:51:49Z</time></trkpt>
<trkpt lat="37.6539772" lon="126.9889611"><ele>348.03583</ele><time>2024-03-20T03:51:59Z</time></trkpt>
<trkpt lat="37.6540327" lon="126.9890564"><ele>346.0595</ele><time>2024-03-20T03:52:13Z</time></trkpt>
<trkpt lat="37.6540948" lon="126.9891405"><ele>343.19562</ele><time>2024-03-20T03:52:22Z</time></trkpt>
<trkpt lat="37.6541484" lon="126.9892335"><ele>341.35052</ele><time>2024-03-20T03:52:31Z</time></trkpt>
<trkpt lat="37.6542087" lon="126.9893304"><ele>338.44342</ele><time>2024-03-20T03:52:41Z</time></trkpt>
<trkpt lat="37.6542505" lon="126.989441"><ele>343.49164</ele><time>2024-03-20T03:52:54Z</time></trkpt>
<trkpt lat="37.6542963" lon="126.9895412"><ele>344.90253</ele><time>2024-03-20T03:53:10Z</time></trkpt>
<trkpt lat="37.6543416" lon="126.9896421"><ele>344.3382</ele><time>2024-03-20T03:53:24Z</time></trkpt>
<trkpt lat="37.6544244" lon="126.9897042"><ele>342.71545</ele><time>2024-03-20T03:53:34Z</time></trkpt>
<trkpt lat="37.6544896" lon="126.9897861"><ele>339.498</ele><time>2024-03-20T03:53:43Z</time></trkpt>
<trkpt lat="37.6545514" lon="126.989872"><ele>337.76312</ele><time>2024-03-20T03:53:53Z</time></trkpt>
<trkpt lat="37.6545848" lon="126.9899848"><ele>338.46857</ele><time>2024-03-20T03:54:04Z</time></trkpt>
<trkpt lat="37.6546008" lon="126.9901059"><ele>338.54694</ele><time>2024-03-20T03:54:14Z</time></trkpt>
<trkpt lat="37.6545689" lon="126.9902183"><ele>341.58466</ele><time>2024-03-20T03:54:24Z</time></trkpt>
<trkpt lat="37.6546511" lon="126.9902845"><ele>341.09424</ele><time>2024-03-20T03:54:37Z</time></trkpt>
<trkpt lat="37.6546537" lon="126.9904089"><ele>337.99683</ele><time>2024-03-20T03:54:47Z</time></trkpt>
<trkpt lat="37.6546648" lon="126.9905254"><ele>338.4201</ele><time>2024-03-20T03:54:57Z</time></trkpt>
<trkpt lat="37.6547427" lon="126.9905824"><ele>340.07672</ele><time>2024-03-20T03:55:12Z</time></trkpt>
<trkpt lat="37.6548351" lon="126.9905752"><ele>338.08685</ele><time>2024-03-20T03:55:27Z</time></trkpt>
<trkpt lat="37.6548014" lon="126.9904601"><ele>335.07086</ele><time>2024-03-20T03:55:41Z</time></trkpt>
<trkpt lat="37.6548262" lon="126.9903467"><ele>336.23004</ele><time>2024-03-20T03:55:53Z</time></trkpt>
<trkpt lat="37.6549058" lon="126.9904039"><ele>329.2968</ele><time>2024-03-20T03:56:03Z</time></trkpt>
<trkpt lat="37.6549488" lon="126.9902967"><ele>325.93182</ele><time>2024-03-20T03:56:15Z</time></trkpt>
<trkpt lat="37.6550105" lon="126.9903853"><ele>322.42767</ele><time>2024-03-20T03:56:22Z</time></trkpt>
<trkpt lat="37.6551011" lon="126.9903998"><ele>320.39508</ele><time>2024-03-20T03:56:35Z</time></trkpt>
<trkpt lat="37.655195" lon="126.9903719"><ele>314.37103</ele><time>2024-03-20T03:56:51Z</time></trkpt>
<trkpt lat="37.655266" lon="126.9904502"><ele>311.4887</ele><time>2024-03-20T03:57:00Z</time></trkpt>
<trkpt lat="37.6553268" lon="126.9905369"><ele>309.92914</ele><time>2024-03-20T03:57:08Z</time></trkpt>
<trkpt lat="37.6552906" lon="126.990417"><ele>306.58722</ele><time>2024-03-20T03:57:35Z</time></trkpt>
<trkpt lat="37.6553571" lon="126.9903274"><ele>307.26758</ele><time>2024-03-20T03:57:43Z</time></trkpt>
<trkpt lat="37.655458" lon="126.9903323"><ele>303.7945</ele><time>2024-03-20T03:57:54Z</time></trkpt>
<trkpt lat="37.6555518" lon="126.9903589"><ele>304.35834</ele><time>2024-03-20T03:58:02Z</time></trkpt>
<trkpt lat="37.6556326" lon="126.9904134"><ele>302.6668</ele><time>2024-03-20T03:58:12Z</time></trkpt>
<trkpt lat="37.6557263" lon="126.9903803"><ele>303.9392</ele><time>2024-03-20T03:58:20Z</time></trkpt>
<trkpt lat="37.6559974" lon="126.9930221"><ele>256.24585</ele><time>2024-03-20T04:08:46Z</time></trkpt>
<trkpt lat="37.6559805" lon="126.993141"><ele>256.03442</ele><time>2024-03-20T04:09:01Z</time></trkpt>
<trkpt lat="37.6559288" lon="126.9932464"><ele>247.2973</ele><time>2024-03-20T04:09:39Z</time></trkpt>
<trkpt lat="37.6558613" lon="126.9933359"><ele>246.69196</ele><time>2024-03-20T04:09:47Z</time></trkpt>
<trkpt lat="37.6557816" lon="126.9933994"><ele>244.1748</ele><time>2024-03-20T04:10:13Z</time></trkpt>
<trkpt lat="37.6558055" lon="126.9935202"><ele>241.6203</ele><time>2024-03-20T04:10:40Z</time></trkpt>
<trkpt lat="37.6557965" lon="126.9936463"><ele>238.67072</ele><time>2024-03-20T04:10:49Z</time></trkpt>
<trkpt lat="37.6557612" lon="126.9937653"><ele>236.0376</ele><time>2024-03-20T04:10:57Z</time></trkpt>
<trkpt lat="37.655726" lon="126.9938827"><ele>235.46417</ele><time>2024-03-20T04:11:05Z</time></trkpt>
<trkpt lat="37.6556957" lon="126.9939927"><ele>234.27594</ele><time>2024-03-20T04:11:13Z</time></trkpt>
<trkpt lat="37.6556549" lon="126.9941003"><ele>233.23071</ele><time>2024-03-20T04:11:20Z</time></trkpt>
<trkpt lat="37.6556444" lon="126.9942225"><ele>232.74335</ele><time>2024-03-20T04:11:27Z</time></trkpt>
<trkpt lat="37.6556364" lon="126.9943541"><ele>229.98004</ele><time>2024-03-20T04:11:34Z</time></trkpt>
<trkpt lat="37.655616" lon="126.9944766"><ele>226.91748</ele><time>2024-03-20T04:11:41Z</time></trkpt>
<trkpt lat="37.6556057" lon="126.9946042"><ele>227.89392</ele><time>2024-03-20T04:11:48Z</time></trkpt>
<trkpt lat="37.6555742" lon="126.9947172"><ele>227.04327</ele><time>2024-03-20T04:11:55Z</time></trkpt>
<trkpt lat="37.65554" lon="126.9948406"><ele>227.44934</ele><time>2024-03-20T04:12:02Z</time></trkpt>
<trkpt lat="37.6555059" lon="126.9949524"><ele>223.60553</ele><time>2024-03-20T04:12:12Z</time></trkpt>
<trkpt lat="37.6554529" lon="126.9950469"><ele>221.21552</ele><time>2024-03-20T04:12:18Z</time></trkpt>
<trkpt lat="37.6554434" lon="126.9951618"><ele>220.607</ele><time>2024-03-20T04:12:24Z</time></trkpt>
<trkpt lat="37.6554567" lon="126.9952875"><ele>220.76404</ele><time>2024-03-20T04:12:31Z</time></trkpt>
<trkpt lat="37.6554843" lon="126.9954022"><ele>220.83917</ele><time>2024-03-20T04:12:38Z</time></trkpt>
<trkpt lat="37.6555114" lon="126.9955121"><ele>218.11237</ele><time>2024-03-20T04:12:45Z</time></trkpt>
<trkpt lat="37.6555342" lon="126.9956282"><ele>213.14966</ele><time>2024-03-20T04:12:53Z</time></trkpt>
<trkpt lat="37.6555692" lon="126.9957451"><ele>210.2818</ele><time>2024-03-20T04:13:01Z</time></trkpt>
<trkpt lat="37.6555956" lon="126.9958631"><ele>208.7359</ele><time>2024-03-20T04:13:09Z</time></trkpt>
<trkpt lat="37.6556045" lon="126.9959811"><ele>207.52734</ele><time>2024-03-20T04:13:16Z</time></trkpt>
<trkpt lat="37.6556132" lon="126.9960988"><ele>206.70471</ele><time>2024-03-20T04:13:23Z</time></trkpt>
<trkpt lat="37.6556448" lon="126.9962097"><ele>203.36023</ele><time>2024-03-20T04:13:30Z</time></trkpt>
<trkpt lat="37.6556862" lon="126.9963178"><ele>201.82831</ele><time>2024-03-20T04:13:37Z</time></trkpt>
<trkpt lat="37.6557338" lon="126.9964146"><ele>200.31891</ele><time>2024-03-20T04:13:44Z</time></trkpt>
<trkpt lat="37.6557824" lon="126.9965114"><ele>195.6355</ele><time>2024-03-20T04:13:51Z</time></trkpt>
<trkpt lat="37.6558281" lon="126.9966145"><ele>192.9068</ele><time>2024-03-20T04:13:58Z</time></trkpt>
<trkpt lat="37.6558703" lon="126.9967249"><ele>191.38629</ele><time>2024-03-20T04:14:05Z</time></trkpt>
<trkpt lat="37.6559103" lon="126.9968297"><ele>190.05249</ele><time>2024-03-20T04:14:12Z</time></trkpt>
<trkpt lat="37.6559374" lon="126.9969379"><ele>190.57855</ele><time>2024-03-20T04:14:19Z</time></trkpt>
<trkpt lat="37.6559777" lon="126.9970507"><ele>191.5163</ele><time>2024-03-20T04:14:26Z</time></trkpt>
<trkpt lat="37.6560343" lon="126.9971614"><ele>192.26288</ele><time>2024-03-20T04:14:33Z</time></trkpt>
<trkpt lat="37.6560842" lon="126.997259"><ele>192.28516</ele><time>2024-03-20T04:14:39Z</time></trkpt>
<trkpt lat="37.656115" lon="126.9973733"><ele>194.77612</ele><time>2024-03-20T04:14:46Z</time></trkpt>
<trkpt lat="37.6561151" lon="126.9974893"><ele>195.94208</ele><time>2024-03-20T04:14:53Z</time></trkpt>
<trkpt lat="37.6561023" lon="126.9976052"><ele>197.48975</ele><time>2024-03-20T04:15:00Z</time></trkpt>
<trkpt lat="37.656083" lon="126.9977284"><ele>193.31018</ele><time>2024-03-20T04:15:08Z</time></trkpt>
<trkpt lat="37.6560778" lon="126.9978428"><ele>194.39282</ele><time>2024-03-20T04:15:15Z</time></trkpt>
<trkpt lat="37.6560602" lon="126.9979587"><ele>192.58289</ele><time>2024-03-20T04:15:22Z</time></trkpt>
<trkpt lat="37.6560559" lon="126.9980771"><ele>190.38641</ele><time>2024-03-20T04:15:29Z</time></trkpt>
<trkpt lat="37.65606" lon="126.9982049"><ele>186.51862</ele><time>2024-03-20T04:15:37Z</time></trkpt>
<trkpt lat="37.6560575" lon="126.9983261"><ele>188.09973</ele><time>2024-03-20T04:15:44Z</time></trkpt>
<trkpt lat="37.656066" lon="126.9984409"><ele>190.46466</ele><time>2024-03-20T04:15:52Z</time></trkpt>
<trkpt lat="37.656049" lon="126.9985545"><ele>190.38892</ele><time>2024-03-20T04:15:59Z</time></trkpt>
<trkpt lat="37.6560242" lon="126.998664"><ele>189.72955</ele><time>2024-03-20T04:16:05Z</time></trkpt>
<trkpt lat="37.6560221" lon="126.9987929"><ele>186.97766</ele><time>2024-03-20T04:16:13Z</time></trkpt>
<trkpt lat="37.6560294" lon="126.9989158"><ele>185.49908</ele><time>2024-03-20T04:16:20Z</time></trkpt>
<trkpt lat="37.6560495" lon="126.9990267"><ele>184.03088</ele><time>2024-03-20T04:16:26Z</time></trkpt>
<trkpt lat="37.6560582" lon="126.9991425"><ele>180.7248</ele><time>2024-03-20T04:16:33Z</time></trkpt>
<trkpt lat="37.656095" lon="126.9992568"><ele>179.15741</ele><time>2024-03-20T04:16:40Z</time></trkpt>
<trkpt lat="37.6561275" lon="126.9993696"><ele>177.54297</ele><time>2024-03-20T04:16:47Z</time></trkpt>
<trkpt lat="37.6561648" lon="126.9994884"><ele>178.47021</ele><time>2024-03-20T04:16:55Z</time></trkpt>
<trkpt lat="37.6561936" lon="126.9995987"><ele>175.81842</ele><time>2024-03-20T04:17:02Z</time></trkpt>
<trkpt lat="37.656222" lon="126.9997104"><ele>173.49725</ele><time>2024-03-20T04:17:09Z</time></trkpt>
<trkpt lat="37.6562457" lon="126.9998203"><ele>174.05109</ele><time>2024-03-20T04:17:16Z</time></trkpt>
<trkpt lat="37.6562855" lon="126.9999366"><ele>174.90393</ele><time>2024-03-20T04:17:24Z</time></trkpt>
<trkpt lat="37.6563331" lon="127.0000338"><ele>170.69257</ele><time>2024-03-20T04:17:32Z</time></trkpt>
<trkpt lat="37.6563952" lon="127.0001374"><ele>167.31207</ele><time>2024-03-20T04:17:40Z</time></trkpt>
<trkpt lat="37.6564577" lon="127.0002327"><ele>164.58612</ele><time>2024-03-20T04:17:47Z</time></trkpt>
<trkpt lat="37.6565223" lon="127.0003176"><ele>162.63165</ele><time>2024-03-20T04:17:53Z</time></trkpt>
<trkpt lat="37.6565757" lon="127.0004172"><ele>160.9018</ele><time>2024-03-20T04:18:00Z</time></trkpt>
<trkpt lat="37.6566454" lon="127.0005106"><ele>158.32837</ele><time>2024-03-20T04:18:08Z</time></trkpt>
<trkpt lat="37.6567269" lon="127.0005822"><ele>155.70917</ele><time>2024-03-20T04:18:16Z</time></trkpt>
<trkpt lat="37.6568137" lon="127.0006372"><ele>154.98022</ele><time>2024-03-20T04:18:23Z</time></trkpt>
<trkpt lat="37.6569088" lon="127.0006808"><ele>153.83649</ele><time>2024-03-20T04:18:31Z</time></trkpt>
<trkpt lat="37.6569994" lon="127.0007262"><ele>152.4024</ele><time>2024-03-20T04:18:38Z</time></trkpt>
<trkpt lat="37.6570906" lon="127.0007641"><ele>151.32416</ele><time>2024-03-20T04:18:45Z</time></trkpt>
<trkpt lat="37.65718" lon="127.0008094"><ele>148.23969</ele><time>2024-03-20T04:18:52Z</time></trkpt>
<trkpt lat="37.6572715" lon="127.0008536"><ele>143.4148</ele><time>2024-03-20T04:18:59Z</time></trkpt>
<trkpt lat="37.6573712" lon="127.0008785"><ele>140.73419</ele><time>2024-03-20T04:19:07Z</time></trkpt>
<trkpt lat="37.6574593" lon="127.0009187"><ele>138.2055</ele><time>2024-03-20T04:19:14Z</time></trkpt>
<trkpt lat="37.6575545" lon="127.0009554"><ele>138.72675</ele><time>2024-03-20T04:19:22Z</time></trkpt>
<trkpt lat="37.6576308" lon="127.0010186"><ele>138.7514</ele><time>2024-03-20T04:19:28Z</time></trkpt>
<trkpt lat="37.657691" lon="127.0011173"><ele>135.7619</ele><time>2024-03-20T04:19:35Z</time></trkpt>
<trkpt lat="37.6577524" lon="127.0012125"><ele>134.2237</ele><time>2024-03-20T04:19:42Z</time></trkpt>
<trkpt lat="37.6578113" lon="127.0013121"><ele>133.63043</ele><time>2024-03-20T04:19:49Z</time></trkpt>
<trkpt lat="37.6578748" lon="127.0014106"><ele>131.9851</ele><time>2024-03-20T04:19:56Z</time></trkpt>
<trkpt lat="37.6579253" lon="127.0015084"><ele>130.55829</ele><time>2024-03-20T04:20:02Z</time></trkpt>
<trkpt lat="37.6579778" lon="127.001602"><ele>127.33369</ele><time>2024-03-20T04:20:08Z</time></trkpt>
<trkpt lat="37.6580392" lon="127.0017063"><ele>125.99024</ele><time>2024-03-20T04:20:15Z</time></trkpt>
<trkpt lat="37.6580844" lon="127.0018228"><ele>122.64106</ele><time>2024-03-20T04:20:22Z</time></trkpt>
<trkpt lat="37.6580841" lon="127.0019399"><ele>120.410835</ele><time>2024-03-20T04:20:28Z</time></trkpt>
<trkpt lat="37.6580653" lon="127.002057"><ele>119.27973</ele><time>2024-03-20T04:20:34Z</time></trkpt>
<trkpt lat="37.6581125" lon="127.002166"><ele>118.79072</ele><time>2024-03-20T04:20:41Z</time></trkpt>
<trkpt lat="37.658165" lon="127.0022602"><ele>118.60456</ele><time>2024-03-20T04:20:47Z</time></trkpt>
<trkpt lat="37.6582006" lon="127.0023737"><ele>116.033455</ele><time>2024-03-20T04:20:54Z</time></trkpt>
<trkpt lat="37.6582404" lon="127.0024825"><ele>116.43049</ele><time>2024-03-20T04:21:01Z</time></trkpt>
<trkpt lat="37.6582872" lon="127.0025852"><ele>115.56165</ele><time>2024-03-20T04:21:08Z</time></trkpt>
<trkpt lat="37.6583301" lon="127.0026955"><ele>115.074715</ele><time>2024-03-20T04:21:15Z</time></trkpt>
<trkpt lat="37.6583837" lon="127.0027883"><ele>114.927315</ele><time>2024-03-20T04:21:21Z</time></trkpt>
<trkpt lat="37.6584409" lon="127.0028861"><ele>110.71754</ele><time>2024-03-20T04:21:28Z</time></trkpt>
<trkpt lat="37.6584573" lon="127.0030099"><ele>110.69953</ele><time>2024-03-20T04:21:35Z</time></trkpt>
<trkpt lat="37.658455" lon="127.0031304"><ele>110.11823</ele><time>2024-03-20T04:21:42Z</time></trkpt>
<trkpt lat="37.6584472" lon="127.0032518"><ele>110.88752</ele><time>2024-03-20T04:21:49Z</time></trkpt>
<trkpt lat="37.6584306" lon="127.0033741"><ele>111.229805</ele><time>2024-03-20T04:21:56Z</time></trkpt>
<trkpt lat="37.6584482" lon="127.0035039"><ele>110.04139</ele><time>2024-03-20T04:22:03Z</time></trkpt>
<trkpt lat="37.6584867" lon="127.0036235"><ele>109.03724</ele><time>2024-03-20T04:22:11Z</time></trkpt>
<trkpt lat="37.6585376" lon="127.003732"><ele>107.70991</ele><time>2024-03-20T04:22:18Z</time></trkpt>
<trkpt lat="37.658594" lon="127.0038225"><ele>106.16938</ele><time>2024-03-20T04:22:25Z</time></trkpt>
<trkpt lat="37.6586578" lon="127.0039135"><ele>102.77314</ele><time>2024-03-20T04:22:32Z</time></trkpt>
<trkpt lat="37.6587255" lon="127.0040014"><ele>101.8758</ele><time>2024-03-20T04:22:39Z</time></trkpt>
<trkpt lat="37.658799" lon="127.0040824"><ele>101.99952</ele><time>2024-03-20T04:22:46Z</time></trkpt>
<trkpt lat="37.6588738" lon="127.0041616"><ele>101.11347</ele><time>2024-03-20T04:22:53Z</time></trkpt>
<trkpt lat="37.6589702" lon="127.004212"><ele>101.26356</ele><time>2024-03-20T04:23:00Z</time></trkpt>
<trkpt lat="37.6590696" lon="127.0042357"><ele>100.69038</ele><time>2024-03-20T04:23:07Z</time></trkpt>
<trkpt lat="37.6591633" lon="127.0042519"><ele>100.77058</ele><time>2024-03-20T04:23:13Z</time></trkpt>
<trkpt lat="37.6592568" lon="127.0042711"><ele>102.41486</ele><time>2024-03-20T04:23:21Z</time></trkpt>
<trkpt lat="37.6593549" lon="127.0042926"><ele>103.50849</ele><time>2024-03-20T04:23:30Z</time></trkpt>
<trkpt lat="37.659444" lon="127.0043594"><ele>98.36347</ele><time>2024-03-20T04:23:37Z</time></trkpt>
<trkpt lat="37.6595242" lon="127.0044416"><ele>97.2273</ele><time>2024-03-20T04:23:44Z</time></trkpt>
<trkpt lat="37.6595943" lon="127.0045267"><ele>96.95051</ele><time>2024-03-20T04:23:51Z</time></trkpt>
<trkpt lat="37.6596672" lon="127.004594"><ele>94.54719</ele><time>2024-03-20T04:23:57Z</time></trkpt>
<trkpt lat="37.659741" lon="127.0046631"><ele>95.14808</ele><time>2024-03-20T04:24:03Z</time></trkpt>
<trkpt lat="37.6598126" lon="127.0047369"><ele>92.821785</ele><time>2024-03-20T04:24:10Z</time></trkpt>
<trkpt lat="37.6598903" lon="127.0048224"><ele>91.11518</ele><time>2024-03-20T04:24:17Z</time></trkpt>
<trkpt lat="37.6599584" lon="127.0049163"><ele>89.64515</ele><time>2024-03-20T04:24:24Z</time></trkpt>
<trkpt lat="37.6600316" lon="127.0050016"><ele>89.73353</ele><time>2024-03-20T04:24:31Z</time></trkpt>
<trkpt lat="37.6601081" lon="127.0050921"><ele>90.075874</ele><time>2024-03-20T04:24:44Z</time></trkpt>
<trkpt lat="37.6601748" lon="127.005192"><ele>86.926704</ele><time>2024-03-20T04:24:49Z</time></trkpt>
<trkpt lat="37.6602503" lon="127.0052609"><ele>84.32099</ele><time>2024-03-20T04:24:54Z</time></trkpt>
<trkpt lat="37.660334" lon="127.0053383"><ele>84.55866</ele><time>2024-03-20T04:25:00Z</time></trkpt>
<trkpt lat="37.6604061" lon="127.0054082"><ele>83.61555</ele><time>2024-03-20T04:25:06Z</time></trkpt>
<trkpt lat="37.6604909" lon="127.0054826"><ele>84.79261</ele><time>2024-03-20T04:25:12Z</time></trkpt>
<trkpt lat="37.6605652" lon="127.0055667"><ele>83.240364</ele><time>2024-03-20T04:25:19Z</time></trkpt>
<trkpt lat="37.6606088" lon="127.0056666"><ele>83.336555</ele><time>2024-03-20T04:25:26Z</time></trkpt>
<trkpt lat="37.6606556" lon="127.0057731"><ele>80.42695</ele><time>2024-03-20T04:26:20Z</time></trkpt>
<trkpt lat="37.6607232" lon="127.0058793"><ele>82.790535</ele><time>2024-03-20T04:26:26Z</time></trkpt>
<trkpt lat="37.6607663" lon="127.0059909"><ele>81.75153</ele><time>2024-03-20T04:26:32Z</time></trkpt>
<trkpt lat="37.6608227" lon="127.0061005"><ele>81.471504</ele><time>2024-03-20T04:26:39Z</time></trkpt>
<trkpt lat="37.6608671" lon="127.0062086"><ele>83.45277</ele><time>2024-03-20T04:26:45Z</time></trkpt>
<trkpt lat="37.6608904" lon="127.0063223"><ele>83.025154</ele><time>2024-03-20T04:26:51Z</time></trkpt>
<trkpt lat="37.6608836" lon="127.0064539"><ele>85.34553</ele><time>2024-03-20T04:26:57Z</time></trkpt>
<trkpt lat="37.6609181" lon="127.0065715"><ele>86.21516</ele><time>2024-03-20T04:27:03Z</time></trkpt>
<trkpt lat="37.6609577" lon="127.0066776"><ele>88.32575</ele><time>2024-03-20T04:27:09Z</time></trkpt>
<trkpt lat="37.6609878" lon="127.0067964"><ele>86.02357</ele><time>2024-03-20T04:27:16Z</time></trkpt>
<trkpt lat="37.6610311" lon="127.0069035"><ele>88.37061</ele><time>2024-03-20T04:27:22Z</time></trkpt>
<trkpt lat="37.6610584" lon="127.0070269"><ele>87.16712</ele><time>2024-03-20T04:27:29Z</time></trkpt>
<trkpt lat="37.6610893" lon="127.0071398"><ele>87.292305</ele><time>2024-03-20T04:27:36Z</time></trkpt>
<trkpt lat="37.6611337" lon="127.0072486"><ele>87.279366</ele><time>2024-03-20T04:27:43Z</time></trkpt>
<trkpt lat="37.6611766" lon="127.0073571"><ele>84.7364</ele><time>2024-03-20T04:27:50Z</time></trkpt>
<trkpt lat="37.6612308" lon="127.0074623"><ele>84.817635</ele><time>2024-03-20T04:27:57Z</time></trkpt>
<trkpt lat="37.6612988" lon="127.0075401"><ele>83.051216</ele><time>2024-03-20T04:28:04Z</time></trkpt>
<trkpt lat="37.661375" lon="127.0076117"><ele>81.63581</ele><time>2024-03-20T04:28:11Z</time></trkpt>
<trkpt lat="37.6614485" lon="127.0076822"><ele>80.858955</ele><time>2024-03-20T04:28:18Z</time></trkpt>
<trkpt lat="37.6615344" lon="127.0077374"><ele>80.262764</ele><time>2024-03-20T04:28:25Z</time></trkpt>
<trkpt lat="37.6616147" lon="127.0078002"><ele>79.80891</ele><time>2024-03-20T04:28:32Z</time></trkpt>
<trkpt lat="37.6617017" lon="127.0078656"><ele>80.10047</ele><time>2024-03-20T04:28:39Z</time></trkpt>
<trkpt lat="37.6617893" lon="127.007892"><ele>79.025154</ele><time>2024-03-20T04:28:46Z</time></trkpt>
<trkpt lat="37.6616996" lon="127.0079626"><ele>83.107</ele><time>2024-03-20T04:29:25Z</time></trkpt>
<trkpt lat="37.6616365" lon="127.0078587"><ele>83.35981</ele><time>2024-03-20T04:29:31Z</time></trkpt>
<trkpt lat="37.6615649" lon="127.0077801"><ele>84.20777</ele><time>2024-03-20T04:29:38Z</time></trkpt>
<trkpt lat="37.6615785" lon="127.0076619"><ele>84.99775</ele><time>2024-03-20T04:29:48Z</time></trkpt>
<trkpt lat="37.6615301" lon="127.0075636"><ele>84.95789</ele><time>2024-03-20T04:30:08Z</time></trkpt>
<trkpt lat="37.6616049" lon="127.0076455"><ele>84.50379</ele><time>2024-03-20T04:38:18Z</time></trkpt>
<trkpt lat="37.6615843" lon="127.0077622"><ele>82.62574</ele><time>2024-03-20T04:38:27Z</time></trkpt>
<trkpt lat="37.6616591" lon="127.0078412"><ele>80.58283</ele><time>2024-03-20T04:38:36Z</time></trkpt>
<trkpt lat="37.6617291" lon="127.0079133"><ele>79.195015</ele><time>2024-03-20T04:38:44Z</time></trkpt>
<trkpt lat="37.6617881" lon="127.0080027"><ele>78.9502</ele><time>2024-03-20T04:38:51Z</time></trkpt>
<trkpt lat="37.6618532" lon="127.0080863"><ele>78.22468</ele><time>2024-03-20T04:38:58Z</time></trkpt>
<trkpt lat="37.6619346" lon="127.0081565"><ele>78.6778</ele><time>2024-03-20T04:39:06Z</time></trkpt>
<trkpt lat="37.661983" lon="127.00827"><ele>78.711006</ele><time>2024-03-20T04:39:13Z</time></trkpt>
<trkpt lat="37.6620325" lon="127.0083722"><ele>78.06843</ele><time>2024-03-20T04:39:20Z</time></trkpt>
<trkpt lat="37.6620743" lon="127.0084845"><ele>78.23957</ele><time>2024-03-20T04:39:27Z</time></trkpt>
<trkpt lat="37.6621244" lon="127.0085947"><ele>78.601814</ele><time>2024-03-20T04:39:34Z</time></trkpt>
<trkpt lat="37.6621391" lon="127.0087158"><ele>77.60139</ele><time>2024-03-20T04:39:41Z</time></trkpt>
<trkpt lat="37.6621581" lon="127.0088373"><ele>76.44294</ele><time>2024-03-20T04:39:48Z</time></trkpt>
<trkpt lat="37.6621673" lon="127.0089552"><ele>76.40211</ele><time>2024-03-20T04:39:55Z</time></trkpt>
<trkpt lat="37.662171" lon="127.0090744"><ele>79.31562</ele><time>2024-03-20T04:40:03Z</time></trkpt>
<trkpt lat="37.6621884" lon="127.0091929"><ele>83.224556</ele><time>2024-03-20T04:40:10Z</time></trkpt>
<trkpt lat="37.662197" lon="127.0093187"><ele>84.04841</ele><time>2024-03-20T04:40:18Z</time></trkpt>
<trkpt lat="37.6622001" lon="127.0094389"><ele>88.15693</ele><time>2024-03-20T04:40:25Z</time></trkpt>
<trkpt lat="37.6622285" lon="127.0095604"><ele>86.960396</ele><time>2024-03-20T04:40:33Z</time></trkpt>
<trkpt lat="37.6622836" lon="127.00967"><ele>84.74934</ele><time>2024-03-20T04:40:40Z</time></trkpt>
<trkpt lat="37.6623415" lon="127.009775"><ele>82.861885</ele><time>2024-03-20T04:40:48Z</time></trkpt>
<trkpt lat="37.6623846" lon="127.0098818"><ele>81.64759</ele><time>2024-03-20T04:40:56Z</time></trkpt>
<trkpt lat="37.6624506" lon="127.0099845"><ele>79.22346</ele><time>2024-03-20T04:41:04Z</time></trkpt>
<trkpt lat="37.6625122" lon="127.0100782"><ele>76.32618</ele><time>2024-03-20T04:41:11Z</time></trkpt>
<trkpt lat="37.6625765" lon="127.010178"><ele>74.620674</ele><time>2024-03-20T04:41:19Z</time></trkpt>
<trkpt lat="37.6626384" lon="127.0102709"><ele>73.0373</ele><time>2024-03-20T04:41:27Z</time></trkpt>
<trkpt lat="37.6626861" lon="127.0103765"><ele>72.84205</ele><time>2024-03-20T04:41:34Z</time></trkpt>
<trkpt lat="37.662724" lon="127.0104837"><ele>73.778145</ele><time>2024-03-20T04:41:42Z</time></trkpt>
<trkpt lat="37.6627511" lon="127.0106031"><ele>72.16047</ele><time>2024-03-20T04:41:51Z</time></trkpt>
<trkpt lat="37.6627741" lon="127.0107202"><ele>74.183235</ele><time>2024-03-20T04:41:58Z</time></trkpt>
</trkseg>
</trk>
</gpx>