<?xml version="1.0" encoding="UTF-8"?>
<gpx version="1.1" creator="네이버지도" xmlns="http://www.topografix.com/GPX/1/1" xmlns:nmap="https://map.naver.com/gpx/1" xmlns:xsi="http://www.w3.org/2001/XMLSchema-instance" xsi:schemaLocation="http://www.topografix.com/GPX/1/1 http://www.topografix.com/GPX/1/1/gpx.xsd">
  <metadata>
    <name>북한산성탐방지원센터-북한산_260714</name>
    <desc>북한산성탐방지원센터-경기 고양시 덕양구 북한동 573-경기 고양시 덕양구 대서문길 197-북한산</desc>
    <author><name>네이버지도</name></author>
    <link href="https://map.naver.com"><text>네이버지도</text></link>
    <time>2026-07-14T11:36:06.235Z</time>
    <bounds minlat="37.6523671" minlon="126.9492563" maxlat="37.6588718" maxlon="126.9794499"/>
    <extensions>
      <nmap:walkCourse schemaVersion="1.0">
        <nmap:distance>3897</nmap:distance>
        <nmap:duration>8562.1</nmap:duration>
        <nmap:stepCount>6090</nmap:stepCount>
        <nmap:calories>213</nmap:calories>
        <nmap:totalAscent>836</nmap:totalAscent>
        <nmap:totalDescent>67</nmap:totalDescent>
        <nmap:altMin>64</nmap:altMin>
        <nmap:altMax>834</nmap:altMax>
      </nmap:walkCourse>
    </extensions>
  </metadata>
  <wpt lat="37.6550982" lon="126.9492563">
    <name>북한산성탐방지원센터</name>
    <desc>서울 은평구 진관동</desc>
  </wpt>
  <wpt lat="37.6523836" lon="126.9625898">
    <name>경유지 #1</name>
    <desc>경기 고양시 덕양구 북한동 573</desc>
  </wpt>
  <wpt lat="37.6573941" lon="126.9790505">
    <name>경유지 #2</name>
    <desc>경기 고양시 덕양구 대서문길 197</desc>
  </wpt>
  <wpt lat="37.6586865" lon="126.9780109">
    <name>북한산</name>
    <desc>경기 고양시 덕양구 대서문길 375</desc>
  </wpt>
  <rte>
    <name>북한산성탐방지원센터-북한산_260714</name>
    <desc>북한산성탐방지원센터-경기 고양시 덕양구 북한동 573-경기 고양시 덕양구 대서문길 197-북한산</desc>
    <type>walking</type>
    <rtept lat="37.6550982" lon="126.9492563">
      <name>북한산성탐방지원센터</name>
      <desc>서울 은평구 진관동</desc>
      <type>start</type>
    </rtept>
    <rtept lat="37.6523836" lon="126.9625898">
      <name>경유지 #1</name>
      <desc>경기 고양시 덕양구 북한동 573</desc>
      <type>waypoint</type>
    </rtept>
    <rtept lat="37.6573941" lon="126.9790505">
      <name>경유지 #2</name>
      <desc>경기 고양시 덕양구 대서문길 197</desc>
      <type>waypoint</type>
    </rtept>
    <rtept lat="37.6586865" lon="126.9780109">
      <name>북한산</name>
      <desc>경기 고양시 덕양구 대서문길 375</desc>
      <type>goal</type>
    </rtept>
  </rte>
  <trk>
    <name>북한산성탐방지원센터-북한산_260714</name>
    <desc>북한산성탐방지원센터-경기 고양시 덕양구 북한동 573-경기 고양시 덕양구 대서문길 197-북한산</desc>
    <type>walking</type>
    <trkseg>
      <trkpt lat="37.6550982" lon="126.9492563"><ele>64.04</ele></trkpt>
      <trkpt lat="37.6550857" lon="126.9492745"><ele>64.05</ele></trkpt>
      <trkpt lat="37.6550732" lon="126.9493018"><ele>64.31</ele></trkpt>
      <trkpt lat="37.655067" lon="126.9493268"><ele>64.32</ele></trkpt>
      <trkpt lat="37.6550772" lon="126.9493811"><ele>64.08</ele></trkpt>
      <trkpt lat="37.655038" lon="126.9494914"><ele>64.58</ele></trkpt>
      <trkpt lat="37.6547833" lon="126.9505249"><ele>69.75</ele></trkpt>
      <trkpt lat="37.6547576" lon="126.9506124"><ele>69.94</ele></trkpt>
      <trkpt lat="37.654712" lon="126.9507114"><ele>70.86</ele></trkpt>
      <trkpt lat="37.654679" lon="126.9507853"><ele>71.34</ele></trkpt>
      <trkpt lat="37.6545104" lon="126.9509543"><ele>72.82</ele></trkpt>
      <trkpt lat="37.6544053" lon="126.9510356"><ele>73.9</ele></trkpt>
      <trkpt lat="37.6541329" lon="126.9511872"><ele>75.51</ele></trkpt>
      <trkpt lat="37.6538336" lon="126.9513651"><ele>79.87</ele></trkpt>
      <trkpt lat="37.6536528" lon="126.9514583"><ele>81.17</ele></trkpt>
      <trkpt lat="37.653545" lon="126.9515146"><ele>83.35</ele></trkpt>
      <trkpt lat="37.6534441" lon="126.9515347"><ele>84.48</ele></trkpt>
      <trkpt lat="37.6531595" lon="126.9515798"><ele>88.67</ele></trkpt>
      <trkpt lat="37.6530397" lon="126.9516091"><ele>91.09</ele></trkpt>
      <trkpt lat="37.6529776" lon="126.9516299"><ele>91.91</ele></trkpt>
      <trkpt lat="37.6529471" lon="126.9516403"><ele>92.45</ele></trkpt>
      <trkpt lat="37.6529417" lon="126.9516461"><ele>92.45</ele></trkpt>
      <trkpt lat="37.6528645" lon="126.951718"><ele>94.29</ele></trkpt>
      <trkpt lat="37.6528075" lon="126.9518624"><ele>94.6</ele></trkpt>
      <trkpt lat="37.6527541" lon="126.9522063"><ele>97.36</ele></trkpt>
      <trkpt lat="37.6527333" lon="126.9523935"><ele>98.8</ele></trkpt>
      <trkpt lat="37.6527327" lon="126.9524491"><ele>100.4</ele></trkpt>
      <trkpt lat="37.6527493" lon="126.9525249"><ele>101.13</ele></trkpt>
      <trkpt lat="37.6527829" lon="126.952587"><ele>102.11</ele></trkpt>
      <trkpt lat="37.6528497" lon="126.9526115"><ele>101.74</ele></trkpt>
      <trkpt lat="37.6529164" lon="126.9526121"><ele>102.5</ele></trkpt>
      <trkpt lat="37.6529829" lon="126.9525617"><ele>103.4</ele></trkpt>
      <trkpt lat="37.6530958" lon="126.9524237"><ele>106.07</ele></trkpt>
      <trkpt lat="37.6531622" lon="126.9523666"><ele>107.47</ele></trkpt>
      <trkpt lat="37.6532162" lon="126.9523367"><ele>106.74</ele></trkpt>
      <trkpt lat="37.6533416" lon="126.9523619"><ele>108.4</ele></trkpt>
      <trkpt lat="37.6534355" lon="126.9524065"><ele>108.85</ele></trkpt>
      <trkpt lat="37.6534745" lon="126.9524618"><ele>108.95</ele></trkpt>
      <trkpt lat="37.6534992" lon="126.9525364"><ele>108.8</ele></trkpt>
      <trkpt lat="37.6535042" lon="126.9526282"><ele>110.97</ele></trkpt>
      <trkpt lat="37.6534936" lon="126.9526918"><ele>111.95</ele></trkpt>
      <trkpt lat="37.6534743" lon="126.9527996"><ele>113.36</ele></trkpt>
      <trkpt lat="37.6533247" lon="126.9531997"><ele>114.82</ele></trkpt>
      <trkpt lat="37.653274" lon="126.9533339"><ele>115.77</ele></trkpt>
      <trkpt lat="37.6532193" lon="126.9533932"><ele>117.48</ele></trkpt>
      <trkpt lat="37.6531554" lon="126.9534107"><ele>118.11</ele></trkpt>
      <trkpt lat="37.6530076" lon="126.9534243"><ele>120.02</ele></trkpt>
      <trkpt lat="37.6528419" lon="126.9534504"><ele>120.78</ele></trkpt>
      <trkpt lat="37.6527925" lon="126.9534825"><ele>121.33</ele></trkpt>
      <trkpt lat="37.6527664" lon="126.9534997"><ele>121.33</ele></trkpt>
      <trkpt lat="37.6527324" lon="126.9535499"><ele>121.93</ele></trkpt>
      <trkpt lat="37.6527083" lon="126.9535999"><ele>122.57</ele></trkpt>
      <trkpt lat="37.6526828" lon="126.9537497"><ele>125.04</ele></trkpt>
      <trkpt lat="37.6526637" lon="126.9539041"><ele>127.56</ele></trkpt>
      <trkpt lat="37.6527221" lon="126.9544376"><ele>131.15</ele></trkpt>
      <trkpt lat="37.6528099" lon="126.9547271"><ele>133.95</ele></trkpt>
      <trkpt lat="37.6528473" lon="126.954813"><ele>135.76</ele></trkpt>
      <trkpt lat="37.652874" lon="126.9549353"><ele>137.17</ele></trkpt>
      <trkpt lat="37.6528735" lon="126.9550248"><ele>137.87</ele></trkpt>
      <trkpt lat="37.6528622" lon="126.9551099"><ele>139.04</ele></trkpt>
      <trkpt lat="37.6528337" lon="126.9551929"><ele>140.19</ele></trkpt>
      <trkpt lat="37.6527409" lon="126.9553931"><ele>143.07</ele></trkpt>
      <trkpt lat="37.6527018" lon="126.9555124"><ele>144.48</ele></trkpt>
      <trkpt lat="37.6526834" lon="126.9556214"><ele>146.49</ele></trkpt>
      <trkpt lat="37.6526729" lon="126.955685"><ele>147.23</ele></trkpt>
      <trkpt lat="37.6526769" lon="126.9557824"><ele>147.91</ele></trkpt>
      <trkpt lat="37.6527016" lon="126.9558559"><ele>147.47</ele></trkpt>
      <trkpt lat="37.6527488" lon="126.955927"><ele>148.05</ele></trkpt>
      <trkpt lat="37.6528266" lon="126.9559933"><ele>148.16</ele></trkpt>
      <trkpt lat="37.6528853" lon="126.9560156"><ele>149.31</ele></trkpt>
      <trkpt lat="37.6529907" lon="126.9560035"><ele>151.07</ele></trkpt>
      <trkpt lat="37.653255" lon="126.9558655"><ele>153.12</ele></trkpt>
      <trkpt lat="37.6533765" lon="126.9558249"><ele>154.54</ele></trkpt>
      <trkpt lat="37.6534207" lon="126.9558303"><ele>155.12</ele></trkpt>
      <trkpt lat="37.6534622" lon="126.9558345"><ele>155.48</ele></trkpt>
      <trkpt lat="37.6535644" lon="126.9559131"><ele>157.44</ele></trkpt>
      <trkpt lat="37.6535909" lon="126.9559855"><ele>157.84</ele></trkpt>
      <trkpt lat="37.6536164" lon="126.9560522"><ele>159.09</ele></trkpt>
      <trkpt lat="37.6536051" lon="126.9561429"><ele>159.6</ele></trkpt>
      <trkpt lat="37.6535847" lon="126.9562134"><ele>159.78</ele></trkpt>
      <trkpt lat="37.6535862" lon="126.9563415"><ele>161.29</ele></trkpt>
      <trkpt lat="37.6536065" lon="126.9564445"><ele>163.07</ele></trkpt>
      <trkpt lat="37.6536385" lon="126.9565281"><ele>164.12</ele></trkpt>
      <trkpt lat="37.6537302" lon="126.956676"><ele>167.77</ele></trkpt>
      <trkpt lat="37.653823" lon="126.9568703"><ele>169.21</ele></trkpt>
      <trkpt lat="37.653846" lon="126.9569597"><ele>169.71</ele></trkpt>
      <trkpt lat="37.6538545" lon="126.9570469"><ele>171.35</ele></trkpt>
      <trkpt lat="37.6538524" lon="126.9571818"><ele>172.82</ele></trkpt>
      <trkpt lat="37.6538647" lon="126.9573133"><ele>174.08</ele></trkpt>
      <trkpt lat="37.6539052" lon="126.9575023"><ele>175.9</ele></trkpt>
      <trkpt lat="37.6539507" lon="126.9575802"><ele>177.28</ele></trkpt>
      <trkpt lat="37.6539698" lon="126.9576186"><ele>178.06</ele></trkpt>
      <trkpt lat="37.6540034" lon="126.9576841"><ele>178.39</ele></trkpt>
      <trkpt lat="37.6540299" lon="126.9577531"><ele>178.43</ele></trkpt>
      <trkpt lat="37.6540383" lon="126.9578256"><ele>178.48</ele></trkpt>
      <trkpt lat="37.6540169" lon="126.9578813"><ele>178.22</ele></trkpt>
      <trkpt lat="37.6539425" lon="126.9579612"><ele>177.51</ele></trkpt>
      <trkpt lat="37.6538015" lon="126.9580699"><ele>175.75</ele></trkpt>
      <trkpt lat="37.6536641" lon="126.9581763"><ele>176.59</ele></trkpt>
      <trkpt lat="37.6535817" lon="126.9582903"><ele>175.3</ele></trkpt>
      <trkpt lat="37.6535404" lon="126.9583371"><ele>176.23</ele></trkpt>
      <trkpt lat="37.6534741" lon="126.9584101"><ele>177.15</ele></trkpt>
      <trkpt lat="37.6534409" lon="126.9584557"><ele>176.28</ele></trkpt>
      <trkpt lat="37.6534276" lon="126.9584955"><ele>177.31</ele></trkpt>
      <trkpt lat="37.6534269" lon="126.9585419"><ele>177.24</ele></trkpt>
      <trkpt lat="37.6534317" lon="126.9586009"><ele>177.29</ele></trkpt>
      <trkpt lat="37.6534472" lon="126.9586484"><ele>176.96</ele></trkpt>
      <trkpt lat="37.6534654" lon="126.9586777"><ele>176.96</ele></trkpt>
      <trkpt lat="37.6534988" lon="126.958699"><ele>177.56</ele></trkpt>
      <trkpt lat="37.6535394" lon="126.95871"><ele>177.26</ele></trkpt>
      <trkpt lat="37.6536422" lon="126.9587195"><ele>174.88</ele></trkpt>
      <trkpt lat="37.6537539" lon="126.9586892"><ele>173.64</ele></trkpt>
      <trkpt lat="37.653798" lon="126.9586764"><ele>173.38</ele></trkpt>
      <trkpt lat="37.6538728" lon="126.9586827"><ele>172.81</ele></trkpt>
      <trkpt lat="37.6539036" lon="126.9587063"><ele>173.2</ele></trkpt>
      <trkpt lat="37.6539372" lon="126.9587684"><ele>172.81</ele></trkpt>
      <trkpt lat="37.653945" lon="126.9588941"><ele>172.79</ele></trkpt>
      <trkpt lat="37.6539077" lon="126.9590305"><ele>172.27</ele></trkpt>
      <trkpt lat="37.6538624" lon="126.9591759"><ele>172.54</ele></trkpt>
      <trkpt lat="37.6538341" lon="126.9592838"><ele>170.25</ele></trkpt>
      <trkpt lat="37.6537748" lon="126.9595121"><ele>170.8</ele></trkpt>
      <trkpt lat="37.6537162" lon="126.959712"><ele>171.44</ele></trkpt>
      <trkpt lat="37.6536548" lon="126.9598916"><ele>171.38</ele></trkpt>
      <trkpt lat="37.6535716" lon="126.9600169"><ele>173.67</ele></trkpt>
      <trkpt lat="37.6533867" lon="126.9601996"><ele>176.54</ele></trkpt>
      <trkpt lat="37.6532829" lon="126.9603648"><ele>178.03</ele></trkpt>
      <trkpt lat="37.6531909" lon="126.9605366"><ele>180.09</ele></trkpt>
      <trkpt lat="37.6530656" lon="126.9607302"><ele>183.21</ele></trkpt>
      <trkpt lat="37.6530137" lon="126.960827"><ele>183.36</ele></trkpt>
      <trkpt lat="37.6529744" lon="126.9608998"><ele>185.37</ele></trkpt>
      <trkpt lat="37.6529326" lon="126.9610271"><ele>187.03</ele></trkpt>
      <trkpt lat="37.6528997" lon="126.9613119"><ele>187.42</ele></trkpt>
      <trkpt lat="37.6528892" lon="126.9615863"><ele>187.22</ele></trkpt>
      <trkpt lat="37.6528771" lon="126.9616952"><ele>186.21</ele></trkpt>
      <trkpt lat="37.6528503" lon="126.9617442"><ele>186.18</ele></trkpt>
      <trkpt lat="37.6527991" lon="126.9617989"><ele>185.16</ele></trkpt>
      <trkpt lat="37.6526187" lon="126.961951"><ele>184.35</ele></trkpt>
      <trkpt lat="37.6525266" lon="126.9621195"><ele>183.64</ele></trkpt>
      <trkpt lat="37.6523863" lon="126.9623778"><ele>184.82</ele></trkpt>
      <trkpt lat="37.6523671" lon="126.9625185"><ele>185.02</ele></trkpt>
      <trkpt lat="37.6523836" lon="126.9625898"><ele>185.32</ele></trkpt>
      <trkpt lat="37.6523836" lon="126.9625887"><ele>185.31</ele></trkpt>
      <trkpt lat="37.6524085" lon="126.9626962"><ele>185.76</ele></trkpt>
      <trkpt lat="37.6524294" lon="126.9627437"><ele>186.29</ele></trkpt>
      <trkpt lat="37.6524557" lon="126.9627877"><ele>187.17</ele></trkpt>
      <trkpt lat="37.6524873" lon="126.9627977"><ele>187.69</ele></trkpt>
      <trkpt lat="37.6525135" lon="126.9627997"><ele>187.69</ele></trkpt>
      <trkpt lat="37.6526547" lon="126.9627443"><ele>190.38</ele></trkpt>
      <trkpt lat="37.6528184" lon="126.9626513"><ele>192.08</ele></trkpt>
      <trkpt lat="37.6529755" lon="126.9625164"><ele>191.93</ele></trkpt>
      <trkpt lat="37.6530186" lon="126.9624753"><ele>191.65</ele></trkpt>
      <trkpt lat="37.6530852" lon="126.9624555"><ele>191.09</ele></trkpt>
      <trkpt lat="37.6531413" lon="126.962522"><ele>191.92</ele></trkpt>
      <trkpt lat="37.6531751" lon="126.9626147"><ele>192.85</ele></trkpt>
      <trkpt lat="37.6532646" lon="126.9632648"><ele>206.2</ele></trkpt>
      <trkpt lat="37.6532833" lon="126.9634018"><ele>209.45</ele></trkpt>
      <trkpt lat="37.6532763" lon="126.9634631"><ele>212.16</ele></trkpt>
      <trkpt lat="37.6532587" lon="126.963546"><ele>218.33</ele></trkpt>
      <trkpt lat="37.6532119" lon="126.9637663"><ele>227.29</ele></trkpt>
      <trkpt lat="37.6531819" lon="126.9639093"><ele>232.44</ele></trkpt>
      <trkpt lat="37.6531769" lon="126.9640034"><ele>234.43</ele></trkpt>
      <trkpt lat="37.6531916" lon="126.9640679"><ele>233.91</ele></trkpt>
      <trkpt lat="37.6532135" lon="126.9641154"><ele>235.01</ele></trkpt>
      <trkpt lat="37.6532226" lon="126.9641357"><ele>236.13</ele></trkpt>
      <trkpt lat="37.653269" lon="126.9642397"><ele>234.89</ele></trkpt>
      <trkpt lat="37.6532818" lon="126.964268"><ele>236</ele></trkpt>
      <trkpt lat="37.6533328" lon="126.9643968"><ele>237.77</ele></trkpt>
      <trkpt lat="37.6533629" lon="126.9644748"><ele>237.18</ele></trkpt>
      <trkpt lat="37.6533913" lon="126.9645631"><ele>237.81</ele></trkpt>
      <trkpt lat="37.6534288" lon="126.9646796"><ele>240.15</ele></trkpt>
      <trkpt lat="37.6534644" lon="126.9647927"><ele>241.96</ele></trkpt>
      <trkpt lat="37.6534798" lon="126.9648107"><ele>242.17</ele></trkpt>
      <trkpt lat="37.6536095" lon="126.9649753"><ele>242.95</ele></trkpt>
      <trkpt lat="37.6536557" lon="126.9650418"><ele>242.8</ele></trkpt>
      <trkpt lat="37.6536949" lon="126.9651402"><ele>243.74</ele></trkpt>
      <trkpt lat="37.6536969" lon="126.9651662"><ele>245.16</ele></trkpt>
      <trkpt lat="37.6537036" lon="126.9652558"><ele>247.8</ele></trkpt>
      <trkpt lat="37.6537219" lon="126.9653112"><ele>247.33</ele></trkpt>
      <trkpt lat="37.6537409" lon="126.9653326"><ele>246.86</ele></trkpt>
      <trkpt lat="37.6537681" lon="126.9653619"><ele>246.73</ele></trkpt>
      <trkpt lat="37.6538505" lon="126.965452"><ele>247.84</ele></trkpt>
      <trkpt lat="37.6539057" lon="126.9655116"><ele>248.69</ele></trkpt>
      <trkpt lat="37.6539537" lon="126.9655634"><ele>249.54</ele></trkpt>
      <trkpt lat="37.653973" lon="126.9656336"><ele>251.51</ele></trkpt>
      <trkpt lat="37.6539688" lon="126.9657107"><ele>255.21</ele></trkpt>
      <trkpt lat="37.653946" lon="126.9658379"><ele>260.92</ele></trkpt>
      <trkpt lat="37.6539122" lon="126.9659435"><ele>266.49</ele></trkpt>
      <trkpt lat="37.6539133" lon="126.9659843"><ele>268.37</ele></trkpt>
      <trkpt lat="37.6539233" lon="126.9660149"><ele>268.27</ele></trkpt>
      <trkpt lat="37.6539406" lon="126.9660522"><ele>270.9</ele></trkpt>
      <trkpt lat="37.6539679" lon="126.966112"><ele>271.59</ele></trkpt>
      <trkpt lat="37.6539728" lon="126.9661959"><ele>272.82</ele></trkpt>
      <trkpt lat="37.6539278" lon="126.9664105"><ele>281.2</ele></trkpt>
      <trkpt lat="37.6539343" lon="126.9664433"><ele>282.24</ele></trkpt>
      <trkpt lat="37.6539445" lon="126.9664988"><ele>282.23</ele></trkpt>
      <trkpt lat="37.6539691" lon="126.9665689"><ele>285.08</ele></trkpt>
      <trkpt lat="37.6539909" lon="126.9666028"><ele>285.62</ele></trkpt>
      <trkpt lat="37.6541025" lon="126.966772"><ele>287.36</ele></trkpt>
      <trkpt lat="37.6542225" lon="126.966999"><ele>290.99</ele></trkpt>
      <trkpt lat="37.6542554" lon="126.9671031"><ele>295.02</ele></trkpt>
      <trkpt lat="37.6542737" lon="126.9671596"><ele>294.84</ele></trkpt>
      <trkpt lat="37.6543281" lon="126.9672159"><ele>294.65</ele></trkpt>
      <trkpt lat="37.6544095" lon="126.9672766"><ele>293.16</ele></trkpt>
      <trkpt lat="37.654462" lon="126.9673374"><ele>293.01</ele></trkpt>
      <trkpt lat="37.6544458" lon="126.9673443"><ele>293.01</ele></trkpt>
      <trkpt lat="37.6544288" lon="126.9673773"><ele>295.59</ele></trkpt>
      <trkpt lat="37.6544246" lon="126.9674374"><ele>296.92</ele></trkpt>
      <trkpt lat="37.6544456" lon="126.9675042"><ele>298.57</ele></trkpt>
      <trkpt lat="37.6545032" lon="126.9676829"><ele>302.7</ele></trkpt>
      <trkpt lat="37.654516" lon="126.9677225"><ele>302.41</ele></trkpt>
      <trkpt lat="37.6545606" lon="126.9678174"><ele>303.14</ele></trkpt>
      <trkpt lat="37.6545726" lon="126.9678672"><ele>304.12</ele></trkpt>
      <trkpt lat="37.6545799" lon="126.9678989"><ele>303.79</ele></trkpt>
      <trkpt lat="37.6546015" lon="126.9680982"><ele>307.88</ele></trkpt>
      <trkpt lat="37.654578" lon="126.9682809"><ele>310.82</ele></trkpt>
      <trkpt lat="37.654585" lon="126.9686357"><ele>318.7</ele></trkpt>
      <trkpt lat="37.6546111" lon="126.9688169"><ele>324.13</ele></trkpt>
      <trkpt lat="37.654644" lon="126.9689165"><ele>323.79</ele></trkpt>
      <trkpt lat="37.6546585" lon="126.9689447"><ele>322.11</ele></trkpt>
      <trkpt lat="37.6546903" lon="126.9690034"><ele>320.2</ele></trkpt>
      <trkpt lat="37.6547284" lon="126.9690474"><ele>318.26</ele></trkpt>
      <trkpt lat="37.6547665" lon="126.9690913"><ele>316.23</ele></trkpt>
      <trkpt lat="37.6547911" lon="126.9691557"><ele>316.86</ele></trkpt>
      <trkpt lat="37.6548185" lon="126.9692304"><ele>314.66</ele></trkpt>
      <trkpt lat="37.6548736" lon="126.9692753"><ele>314.93</ele></trkpt>
      <trkpt lat="37.6549144" lon="126.9693102"><ele>315.01</ele></trkpt>
      <trkpt lat="37.6549343" lon="126.969327"><ele>314.9</ele></trkpt>
      <trkpt lat="37.6549705" lon="126.9693676"><ele>315</ele></trkpt>
      <trkpt lat="37.6549977" lon="126.969398"><ele>315.08</ele></trkpt>
      <trkpt lat="37.6550486" lon="126.9695054"><ele>317.99</ele></trkpt>
      <trkpt lat="37.6550878" lon="126.9695878"><ele>319.71</ele></trkpt>
      <trkpt lat="37.6551295" lon="126.9696454"><ele>319.99</ele></trkpt>
      <trkpt lat="37.6551829" lon="126.9696892"><ele>322.72</ele></trkpt>
      <trkpt lat="37.6552347" lon="126.9697886"><ele>324.91</ele></trkpt>
      <trkpt lat="37.6552874" lon="126.9698891"><ele>326.95</ele></trkpt>
      <trkpt lat="37.6553562" lon="126.9699646"><ele>331.85</ele></trkpt>
      <trkpt lat="37.6553915" lon="126.9699757"><ele>334.5</ele></trkpt>
      <trkpt lat="37.6554132" lon="126.9699959"><ele>337.01</ele></trkpt>
      <trkpt lat="37.6554567" lon="126.9700546"><ele>339.76</ele></trkpt>
      <trkpt lat="37.6554968" lon="126.9701461"><ele>342.82</ele></trkpt>
      <trkpt lat="37.6555632" lon="126.9702964"><ele>347.89</ele></trkpt>
      <trkpt lat="37.6555832" lon="126.9703246"><ele>350.31</ele></trkpt>
      <trkpt lat="37.6555888" lon="126.9703597"><ele>350.31</ele></trkpt>
      <trkpt lat="37.6555848" lon="126.9704777"><ele>350.53</ele></trkpt>
      <trkpt lat="37.6555815" lon="126.9705457"><ele>350.69</ele></trkpt>
      <trkpt lat="37.655603" lon="126.9707167"><ele>353.06</ele></trkpt>
      <trkpt lat="37.6556008" lon="126.9708267"><ele>355.41</ele></trkpt>
      <trkpt lat="37.6556256" lon="126.9709433"><ele>359.16</ele></trkpt>
      <trkpt lat="37.6556267" lon="126.9709705"><ele>359.93</ele></trkpt>
      <trkpt lat="37.6556307" lon="126.9712686"><ele>366.6</ele></trkpt>
      <trkpt lat="37.6556631" lon="126.9714645"><ele>374.09</ele></trkpt>
      <trkpt lat="37.6556761" lon="126.9715461"><ele>377.05</ele></trkpt>
      <trkpt lat="37.6556299" lon="126.9716972"><ele>377.87</ele></trkpt>
      <trkpt lat="37.6556273" lon="126.9717244"><ele>378.45</ele></trkpt>
      <trkpt lat="37.655623" lon="126.9717698"><ele>378.86</ele></trkpt>
      <trkpt lat="37.6556162" lon="126.9718447"><ele>379.13</ele></trkpt>
      <trkpt lat="37.6556272" lon="126.9718877"><ele>379.37</ele></trkpt>
      <trkpt lat="37.6556753" lon="126.9719621"><ele>381.91</ele></trkpt>
      <trkpt lat="37.6557192" lon="126.9721092"><ele>385.97</ele></trkpt>
      <trkpt lat="37.6557311" lon="126.9721499"><ele>385.85</ele></trkpt>
      <trkpt lat="37.6557154" lon="126.9722793"><ele>386.21</ele></trkpt>
      <trkpt lat="37.6557231" lon="126.9723869"><ele>388.03</ele></trkpt>
      <trkpt lat="37.655701" lon="126.9724869"><ele>391.91</ele></trkpt>
      <trkpt lat="37.6557012" lon="126.9725311"><ele>393.57</ele></trkpt>
      <trkpt lat="37.6558661" lon="126.9727034"><ele>404.92</ele></trkpt>
      <trkpt lat="37.6559413" lon="126.9728071"><ele>413.06</ele></trkpt>
      <trkpt lat="37.6560309" lon="126.9728859"><ele>419.12</ele></trkpt>
      <trkpt lat="37.6561352" lon="126.9730223"><ele>428.25</ele></trkpt>
      <trkpt lat="37.6561795" lon="126.9730571"><ele>429.55</ele></trkpt>
      <trkpt lat="37.6561977" lon="126.9730956"><ele>431.93</ele></trkpt>
      <trkpt lat="37.6561771" lon="126.9731161"><ele>433.73</ele></trkpt>
      <trkpt lat="37.6561104" lon="126.9731336"><ele>432.93</ele></trkpt>
      <trkpt lat="37.6560879" lon="126.9731394"><ele>432</ele></trkpt>
      <trkpt lat="37.6560691" lon="126.9731565"><ele>433.01</ele></trkpt>
      <trkpt lat="37.6560856" lon="126.9732199"><ele>436.47</ele></trkpt>
      <trkpt lat="37.6560336" lon="126.9732883"><ele>435.61</ele></trkpt>
      <trkpt lat="37.6559832" lon="126.9735143"><ele>442.41</ele></trkpt>
      <trkpt lat="37.6559779" lon="126.9735381"><ele>442.41</ele></trkpt>
      <trkpt lat="37.6560085" lon="126.9737193"><ele>449.29</ele></trkpt>
      <trkpt lat="37.6560043" lon="126.9737805"><ele>450.18</ele></trkpt>
      <trkpt lat="37.6559906" lon="126.9739405"><ele>451.2</ele></trkpt>
      <trkpt lat="37.6560109" lon="126.9740503"><ele>455.63</ele></trkpt>
      <trkpt lat="37.6560405" lon="126.9742156"><ele>462.95</ele></trkpt>
      <trkpt lat="37.656031" lon="126.9743291"><ele>464.14</ele></trkpt>
      <trkpt lat="37.6560379" lon="126.9744447"><ele>468.13</ele></trkpt>
      <trkpt lat="37.6560544" lon="126.9745069"><ele>469.64</ele></trkpt>
      <trkpt lat="37.6560423" lon="126.974626"><ele>471.2</ele></trkpt>
      <trkpt lat="37.6560574" lon="126.974974"><ele>478.29</ele></trkpt>
      <trkpt lat="37.6560894" lon="126.9750758"><ele>482.18</ele></trkpt>
      <trkpt lat="37.6561287" lon="126.9752025"><ele>486.71</ele></trkpt>
      <trkpt lat="37.6561424" lon="126.9752477"><ele>490.1</ele></trkpt>
      <trkpt lat="37.6561696" lon="126.9752736"><ele>490.62</ele></trkpt>
      <trkpt lat="37.6562211" lon="126.9753208"><ele>497.17</ele></trkpt>
      <trkpt lat="37.6562606" lon="126.9754827"><ele>502.68</ele></trkpt>
      <trkpt lat="37.6562737" lon="126.9755937"><ele>504.36</ele></trkpt>
      <trkpt lat="37.6562938" lon="126.9756389"><ele>507.5</ele></trkpt>
      <trkpt lat="37.6563499" lon="126.9756873"><ele>510.56</ele></trkpt>
      <trkpt lat="37.6564168" lon="126.9757457"><ele>516.03</ele></trkpt>
      <trkpt lat="37.6565379" lon="126.975822"><ele>526.46</ele></trkpt>
      <trkpt lat="37.6565696" lon="126.9758422"><ele>529.13</ele></trkpt>
      <trkpt lat="37.656708" lon="126.9759636"><ele>535.27</ele></trkpt>
      <trkpt lat="37.656763" lon="126.9759746"><ele>540</ele></trkpt>
      <trkpt lat="37.656854" lon="126.9759501"><ele>547.09</ele></trkpt>
      <trkpt lat="37.6568973" lon="126.9759646"><ele>547.8</ele></trkpt>
      <trkpt lat="37.6569128" lon="126.976003"><ele>548.51</ele></trkpt>
      <trkpt lat="37.6569274" lon="126.9760392"><ele>549.92</ele></trkpt>
      <trkpt lat="37.6569483" lon="126.9760923"><ele>549.04</ele></trkpt>
      <trkpt lat="37.6569541" lon="126.9761728"><ele>547.77</ele></trkpt>
      <trkpt lat="37.6569255" lon="126.9762172"><ele>547.31</ele></trkpt>
      <trkpt lat="37.6568984" lon="126.9762242"><ele>545.27</ele></trkpt>
      <trkpt lat="37.656848" lon="126.9762381"><ele>541.32</ele></trkpt>
      <trkpt lat="37.6568184" lon="126.9762656"><ele>541.59</ele></trkpt>
      <trkpt lat="37.6568114" lon="126.9763144"><ele>540.77</ele></trkpt>
      <trkpt lat="37.6568237" lon="126.9764515"><ele>546.78</ele></trkpt>
      <trkpt lat="37.6567729" lon="126.9765799"><ele>549.8</ele></trkpt>
      <trkpt lat="37.6567624" lon="126.9766355"><ele>551.99</ele></trkpt>
      <trkpt lat="37.6567351" lon="126.976782"><ele>557.41</ele></trkpt>
      <trkpt lat="37.6567128" lon="126.976849"><ele>561.52</ele></trkpt>
      <trkpt lat="37.656763" lon="126.9769745"><ele>568.78</ele></trkpt>
      <trkpt lat="37.6567748" lon="126.9770028"><ele>568.78</ele></trkpt>
      <trkpt lat="37.6568075" lon="126.9770479"><ele>572.35</ele></trkpt>
      <trkpt lat="37.6567775" lon="126.9771955"><ele>575.98</ele></trkpt>
      <trkpt lat="37.6567902" lon="126.9772169"><ele>580.44</ele></trkpt>
      <trkpt lat="37.6568401" lon="126.977305"><ele>587.21</ele></trkpt>
      <trkpt lat="37.6568479" lon="126.9774365"><ele>593.72</ele></trkpt>
      <trkpt lat="37.6568799" lon="126.9775315"><ele>600.06</ele></trkpt>
      <trkpt lat="37.656909" lon="126.9775846"><ele>603.61</ele></trkpt>
      <trkpt lat="37.6569272" lon="126.9776184"><ele>607.01</ele></trkpt>
      <trkpt lat="37.6570071" lon="126.9777641"><ele>615.26</ele></trkpt>
      <trkpt lat="37.6570255" lon="126.97784"><ele>618.89</ele></trkpt>
      <trkpt lat="37.6570599" lon="126.9778794"><ele>622.3</ele></trkpt>
      <trkpt lat="37.657071" lon="126.9779394"><ele>625.97</ele></trkpt>
      <trkpt lat="37.6570982" lon="126.9779789"><ele>628.57</ele></trkpt>
      <trkpt lat="37.6571022" lon="126.9780605"><ele>635.68</ele></trkpt>
      <trkpt lat="37.6571168" lon="126.9780955"><ele>636.93</ele></trkpt>
      <trkpt lat="37.6571332" lon="126.9781351"><ele>636.93</ele></trkpt>
      <trkpt lat="37.6571645" lon="126.9782902"><ele>644.04</ele></trkpt>
      <trkpt lat="37.657161" lon="126.9783174"><ele>644.04</ele></trkpt>
      <trkpt lat="37.6571288" lon="126.978363"><ele>644.53</ele></trkpt>
      <trkpt lat="37.6571288" lon="126.97838"><ele>646.5</ele></trkpt>
      <trkpt lat="37.6571587" lon="126.9784059"><ele>647.49</ele></trkpt>
      <trkpt lat="37.6572679" lon="126.9784448"><ele>654.84</ele></trkpt>
      <trkpt lat="37.6572851" lon="126.9784651"><ele>659.07</ele></trkpt>
      <trkpt lat="37.6572838" lon="126.9785705"><ele>661.88</ele></trkpt>
      <trkpt lat="37.657305" lon="126.978686"><ele>667.3</ele></trkpt>
      <trkpt lat="37.6573511" lon="126.9787129"><ele>671.03</ele></trkpt>
      <trkpt lat="37.6573755" lon="126.9787275"><ele>672.61</ele></trkpt>
      <trkpt lat="37.6574138" lon="126.9788179"><ele>679.1</ele></trkpt>
      <trkpt lat="37.6574247" lon="126.9788439"><ele>681.83</ele></trkpt>
      <trkpt lat="37.6574303" lon="126.978887"><ele>684.19</ele></trkpt>
      <trkpt lat="37.6574208" lon="126.9789789"><ele>686.46</ele></trkpt>
      <trkpt lat="37.6574797" lon="126.9790465"><ele>696.05</ele></trkpt>
      <trkpt lat="37.6574821" lon="126.9791893"><ele>701.99</ele></trkpt>
      <trkpt lat="37.6573941" lon="126.9790505"><ele>689.9</ele></trkpt>
      <trkpt lat="37.6573932" lon="126.9790482"><ele>689.73</ele></trkpt>
      <trkpt lat="37.6574821" lon="126.9791893"><ele>701.99</ele></trkpt>
      <trkpt lat="37.6577283" lon="126.9794245"><ele>719.8</ele></trkpt>
      <trkpt lat="37.6578249" lon="126.9794499"><ele>718.18</ele></trkpt>
      <trkpt lat="37.6579282" lon="126.9793857"><ele>723.51</ele></trkpt>
      <trkpt lat="37.6579643" lon="126.9793957"><ele>722.88</ele></trkpt>
      <trkpt lat="37.6579905" lon="126.9794034"><ele>722.25</ele></trkpt>
      <trkpt lat="37.658047" lon="126.9793395"><ele>730.67</ele></trkpt>
      <trkpt lat="37.6580914" lon="126.9791952"><ele>740.07</ele></trkpt>
      <trkpt lat="37.6580849" lon="126.9791488"><ele>743.03</ele></trkpt>
      <trkpt lat="37.6580677" lon="126.9791138"><ele>744.01</ele></trkpt>
      <trkpt lat="37.6580558" lon="126.9790889"><ele>744.98</ele></trkpt>
      <trkpt lat="37.6580313" lon="126.9790381"><ele>750.48</ele></trkpt>
      <trkpt lat="37.6580282" lon="126.9789531"><ele>752.64</ele></trkpt>
      <trkpt lat="37.6580414" lon="126.9788918"><ele>756.93</ele></trkpt>
      <trkpt lat="37.6581807" lon="126.978596"><ele>772.56</ele></trkpt>
      <trkpt lat="37.6582057" lon="126.9785437"><ele>779.1</ele></trkpt>
      <trkpt lat="37.658289" lon="126.9784116"><ele>788.14</ele></trkpt>
      <trkpt lat="37.6583266" lon="126.9783512"><ele>796.36</ele></trkpt>
      <trkpt lat="37.6583706" lon="126.9783305"><ele>798.35</ele></trkpt>
      <trkpt lat="37.6584022" lon="126.9783394"><ele>800.92</ele></trkpt>
      <trkpt lat="37.6585345" lon="126.9784915"><ele>806.27</ele></trkpt>
      <trkpt lat="37.6585716" lon="126.9785343"><ele>805.22</ele></trkpt>
      <trkpt lat="37.6586023" lon="126.9785477"><ele>803.15</ele></trkpt>
      <trkpt lat="37.6586466" lon="126.9785655"><ele>803.78</ele></trkpt>
      <trkpt lat="37.6586709" lon="126.978554"><ele>804.22</ele></trkpt>
      <trkpt lat="37.6587006" lon="126.9785414"><ele>807.93</ele></trkpt>
      <trkpt lat="37.6587552" lon="126.9784639"><ele>810.4</ele></trkpt>
      <trkpt lat="37.6588397" lon="126.9784055"><ele>815.37</ele></trkpt>
      <trkpt lat="37.6588657" lon="126.9783724"><ele>815.32</ele></trkpt>
      <trkpt lat="37.6588718" lon="126.9783395"><ele>818.43</ele></trkpt>
      <trkpt lat="37.6588645" lon="126.978318"><ele>820.5</ele></trkpt>
      <trkpt lat="37.6588572" lon="126.9782965"><ele>820.5</ele></trkpt>
      <trkpt lat="37.6587548" lon="126.9781668"><ele>827.06</ele></trkpt>
      <trkpt lat="37.6587272" lon="126.9780378"><ele>832.42</ele></trkpt>
      <trkpt lat="37.6586865" lon="126.9780109"><ele>833.63</ele></trkpt>
    </trkseg>
  </trk>
</gpx>