<?xml version="1.0" encoding="UTF-8"?>
<gpx creator="Ramblr - http://www.ramblr.com" version="1.1" xmlns="http://www.topografix.com/GPX/1/1">
<metadata>
<name>우이동-히루재-백운대-용암문-도선사</name>
<desc>Bientus, Inc. - www.ramblr.com - Share your outdoor stories on a map!</desc>
<author>
<name>lipspig</name>
</author>
<link href="https://www.ramblr.com/web/mymap/trip/916665/6699390"></link>
<time>2024-03-20T00:26:40Z</time>
</metadata>
<trk>
<name>우이동-히루재-백운대-용암문-도선사</name>
<trkseg>
<trkpt lat="37.66304747" lon="127.01243609"><ele>92.80810546875</ele><time>2024-03-20T00:26:41Z</time></trkpt>
<trkpt lat="37.6630118" lon="127.01232868"><ele>91.415283203125</ele><time>2024-03-20T00:27:05Z</time></trkpt>
<trkpt lat="37.66299848" lon="127.01221532"><ele>92.73492431640625</ele><time>2024-03-20T00:27:15Z</time></trkpt>
<trkpt lat="37.66300245" lon="127.01208918"><ele>93.8133544921875</ele><time>2024-03-20T00:27:24Z</time></trkpt>
<trkpt lat="37.6629586" lon="127.01198443"><ele>92.8817138671875</ele><time>2024-03-20T00:27:33Z</time></trkpt>
<trkpt lat="37.6629317" lon="127.01187394"><ele>92.647705078125</ele><time>2024-03-20T00:27:43Z</time></trkpt>
<trkpt lat="37.66289179" lon="127.01176363"><ele>92.44708251953125</ele><time>2024-03-20T00:27:54Z</time></trkpt>
<trkpt lat="37.66282783" lon="127.0116681"><ele>93.4716796875</ele><time>2024-03-20T00:28:04Z</time></trkpt>
<trkpt lat="37.66279248" lon="127.01155838"><ele>92.99749755859375</ele><time>2024-03-20T00:28:12Z</time></trkpt>
<trkpt lat="37.66276629" lon="127.01144957"><ele>93.6573486328125</ele><time>2024-03-20T00:28:20Z</time></trkpt>
<trkpt lat="37.66274599" lon="127.01133422"><ele>94.777099609375</ele><time>2024-03-20T00:28:28Z</time></trkpt>
<trkpt lat="37.66273124" lon="127.01121394"><ele>94.077880859375</ele><time>2024-03-20T00:28:37Z</time></trkpt>
<trkpt lat="37.66272537" lon="127.01109155"><ele>93.2281494140625</ele><time>2024-03-20T00:28:47Z</time></trkpt>
<trkpt lat="37.6627166" lon="127.01097734"><ele>94.44586181640625</ele><time>2024-03-20T00:28:55Z</time></trkpt>
<trkpt lat="37.66269407" lon="127.01086719"><ele>96.83087158203125</ele><time>2024-03-20T00:29:03Z</time></trkpt>
<trkpt lat="37.66267051" lon="127.01074842"><ele>98.73736572265625</ele><time>2024-03-20T00:29:12Z</time></trkpt>
<trkpt lat="37.66263625" lon="127.01063861"><ele>99.820556640625</ele><time>2024-03-20T00:29:21Z</time></trkpt>
<trkpt lat="37.66260684" lon="127.0105309"><ele>99.777587890625</ele><time>2024-03-20T00:29:30Z</time></trkpt>
<trkpt lat="37.6625665" lon="127.01042487"><ele>100.090576171875</ele><time>2024-03-20T00:29:38Z</time></trkpt>
<trkpt lat="37.66251029" lon="127.0103241"><ele>100.152587890625</ele><time>2024-03-20T00:29:47Z</time></trkpt>
<trkpt lat="37.66244455" lon="127.0102436"><ele>101.1058349609375</ele><time>2024-03-20T00:29:55Z</time></trkpt>
<trkpt lat="37.66242182" lon="127.01013023"><ele>105.01715087890625</ele><time>2024-03-20T00:30:04Z</time></trkpt>
<trkpt lat="37.66238663" lon="127.01001838"><ele>106.2120361328125</ele><time>2024-03-20T00:30:13Z</time></trkpt>
<trkpt lat="37.66235907" lon="127.00990533"><ele>108.5181884765625</ele><time>2024-03-20T00:30:22Z</time></trkpt>
<trkpt lat="37.66231772" lon="127.00980093"><ele>110.6356201171875</ele><time>2024-03-20T00:30:30Z</time></trkpt>
<trkpt lat="37.66226783" lon="127.00969231"><ele>111.2674560546875</ele><time>2024-03-20T00:30:40Z</time></trkpt>
<trkpt lat="37.6622032" lon="127.0095981"><ele>112.08489990234375</ele><time>2024-03-20T00:30:48Z</time></trkpt>
<trkpt lat="37.66224303" lon="127.00949347"><ele>110.455322265625</ele><time>2024-03-20T00:31:00Z</time></trkpt>
<trkpt lat="37.66222732" lon="127.0093727"><ele>108.814453125</ele><time>2024-03-20T00:31:11Z</time></trkpt>
<trkpt lat="37.66218363" lon="127.00926782"><ele>107.68310546875</ele><time>2024-03-20T00:31:19Z</time></trkpt>
<trkpt lat="37.66214557" lon="127.00915489"><ele>109.51214599609375</ele><time>2024-03-20T00:31:28Z</time></trkpt>
<trkpt lat="37.66213201" lon="127.00903564"><ele>109.54864501953125</ele><time>2024-03-20T00:31:36Z</time></trkpt>
<trkpt lat="37.66212478" lon="127.00891997"><ele>108.980224609375</ele><time>2024-03-20T00:31:44Z</time></trkpt>
<trkpt lat="37.66212395" lon="127.00880111"><ele>107.62860107421875</ele><time>2024-03-20T00:31:52Z</time></trkpt>
<trkpt lat="37.66210269" lon="127.00867616"><ele>107.5831298828125</ele><time>2024-03-20T00:32:00Z</time></trkpt>
<trkpt lat="37.66207997" lon="127.0085616"><ele>108.5225830078125</ele><time>2024-03-20T00:32:08Z</time></trkpt>
<trkpt lat="37.66205417" lon="127.00844661"><ele>107.33929443359375</ele><time>2024-03-20T00:32:16Z</time></trkpt>
<trkpt lat="37.66200863" lon="127.00833915"><ele>106.31488037109375</ele><time>2024-03-20T00:32:25Z</time></trkpt>
<trkpt lat="37.66194977" lon="127.00823937"><ele>106.29852294921875</ele><time>2024-03-20T00:32:33Z</time></trkpt>
<trkpt lat="37.66195353" lon="127.00812397"><ele>106.48199462890625</ele><time>2024-03-20T00:32:41Z</time></trkpt>
<trkpt lat="37.66185818" lon="127.00812872"><ele>106.4193115234375</ele><time>2024-03-20T00:33:28Z</time></trkpt>
<trkpt lat="37.66178551" lon="127.0080558"><ele>107.819580078125</ele><time>2024-03-20T00:33:38Z</time></trkpt>
<trkpt lat="37.66171731" lon="127.00796329"><ele>106.7408447265625</ele><time>2024-03-20T00:33:46Z</time></trkpt>
<trkpt lat="37.66166949" lon="127.00786509"><ele>107.60162353515625</ele><time>2024-03-20T00:33:55Z</time></trkpt>
<trkpt lat="37.66158639" lon="127.00780381"><ele>109.34808349609375</ele><time>2024-03-20T00:34:43Z</time></trkpt>
<trkpt lat="37.66153435" lon="127.00771066"><ele>110.91668701171875</ele><time>2024-03-20T00:34:54Z</time></trkpt>
</trkseg>
<trkseg>
<trkpt lat="37.66153435" lon="127.00771066"><ele>110.917</ele><time>2024-03-20T00:40:00Z</time></trkpt>
<trkpt lat="37.66144052" lon="127.0076814"><ele>109.301025390625</ele><time>2024-03-20T00:40:00Z</time></trkpt>
<trkpt lat="37.66134872" lon="127.00764007"><ele>108.274169921875</ele><time>2024-03-20T00:40:10Z</time></trkpt>
<trkpt lat="37.66126744" lon="127.00756553"><ele>109.30499267578125</ele><time>2024-03-20T00:40:19Z</time></trkpt>
<trkpt lat="37.66120154" lon="127.00746946"><ele>110.02734375</ele><time>2024-03-20T00:40:28Z</time></trkpt>
<trkpt lat="37.66114905" lon="127.0073625"><ele>111.01513671875</ele><time>2024-03-20T00:40:37Z</time></trkpt>
<trkpt lat="37.66114402" lon="127.00735067"><ele>110.86199951171875</ele><time>2024-03-20T00:40:38Z</time></trkpt>
<trkpt lat="37.66113931" lon="127.00734036"><ele>110.8531494140625</ele><time>2024-03-20T00:40:39Z</time></trkpt>
<trkpt lat="37.661096" lon="127.00723408"><ele>111.4462890625</ele><time>2024-03-20T00:40:48Z</time></trkpt>
<trkpt lat="37.6610518" lon="127.00712161"><ele>112.11419677734375</ele><time>2024-03-20T00:40:56Z</time></trkpt>
<trkpt lat="37.66101322" lon="127.00701009"><ele>111.04925537109375</ele><time>2024-03-20T00:41:04Z</time></trkpt>
<trkpt lat="37.66099117" lon="127.00689406"><ele>110.50738525390625</ele><time>2024-03-20T00:41:12Z</time></trkpt>
<trkpt lat="37.66096653" lon="127.00678008"><ele>109.97900390625</ele><time>2024-03-20T00:41:20Z</time></trkpt>
<trkpt lat="37.66096876" lon="127.00666319"><ele>110.2474365234375</ele><time>2024-03-20T00:41:28Z</time></trkpt>
<trkpt lat="37.66097164" lon="127.00654844"><ele>111.39910888671875</ele><time>2024-03-20T00:41:37Z</time></trkpt>
<trkpt lat="37.66093047" lon="127.00643915"><ele>111.69140625</ele><time>2024-03-20T00:41:48Z</time></trkpt>
<trkpt lat="37.66087923" lon="127.00633358"><ele>112.3154296875</ele><time>2024-03-20T00:41:58Z</time></trkpt>
<trkpt lat="37.66082696" lon="127.00623485"><ele>113.000244140625</ele><time>2024-03-20T00:42:07Z</time></trkpt>
<trkpt lat="37.66079082" lon="127.00612585"><ele>113.45001220703125</ele><time>2024-03-20T00:42:15Z</time></trkpt>
<trkpt lat="37.66074137" lon="127.00601825"><ele>114.55548095703125</ele><time>2024-03-20T00:42:24Z</time></trkpt>
<trkpt lat="37.66068988" lon="127.0059182"><ele>115.12811279296875</ele><time>2024-03-20T00:42:33Z</time></trkpt>
<trkpt lat="37.66064028" lon="127.00581814"><ele>116.0240478515625</ele><time>2024-03-20T00:42:42Z</time></trkpt>
<trkpt lat="37.6605909" lon="127.00571406"><ele>115.09423828125</ele><time>2024-03-20T00:42:51Z</time></trkpt>
<trkpt lat="37.66053161" lon="127.0056151"><ele>114.18585205078125</ele><time>2024-03-20T00:43:00Z</time></trkpt>
<trkpt lat="37.66046373" lon="127.00552122"><ele>114.96331787109375</ele><time>2024-03-20T00:43:09Z</time></trkpt>
<trkpt lat="37.66039571" lon="127.00543299"><ele>115.2564697265625</ele><time>2024-03-20T00:43:18Z</time></trkpt>
<trkpt lat="37.66032816" lon="127.00534866"><ele>115.552490234375</ele><time>2024-03-20T00:43:26Z</time></trkpt>
<trkpt lat="37.66025566" lon="127.0052689"><ele>117.557373046875</ele><time>2024-03-20T00:43:35Z</time></trkpt>
<trkpt lat="37.66019472" lon="127.00516918"><ele>117.2578125</ele><time>2024-03-20T00:43:46Z</time></trkpt>
<trkpt lat="37.66012311" lon="127.00508476"><ele>117.12469482421875</ele><time>2024-03-20T00:43:56Z</time></trkpt>
<trkpt lat="37.66005414" lon="127.00500582"><ele>117.343994140625</ele><time>2024-03-20T00:44:06Z</time></trkpt>
<trkpt lat="37.65998503" lon="127.00492797"><ele>117.250732421875</ele><time>2024-03-20T00:44:16Z</time></trkpt>
<trkpt lat="37.65991829" lon="127.00484592"><ele>116.88934326171875</ele><time>2024-03-20T00:44:26Z</time></trkpt>
<trkpt lat="37.65984773" lon="127.0047663"><ele>120.012451171875</ele><time>2024-03-20T00:44:35Z</time></trkpt>
<trkpt lat="37.65978079" lon="127.00468364"><ele>121.29296875</ele><time>2024-03-20T00:44:45Z</time></trkpt>
<trkpt lat="37.65970685" lon="127.00460997"><ele>123.3814697265625</ele><time>2024-03-20T00:44:54Z</time></trkpt>
<trkpt lat="37.65963587" lon="127.00452269"><ele>124.40386962890625</ele><time>2024-03-20T00:45:04Z</time></trkpt>
<trkpt lat="37.65954684" lon="127.00446629"><ele>124.43829345703125</ele><time>2024-03-20T00:45:14Z</time></trkpt>
<trkpt lat="37.65945831" lon="127.00440603"><ele>125.10345458984375</ele><time>2024-03-20T00:45:23Z</time></trkpt>
<trkpt lat="37.65937579" lon="127.00435262"><ele>126.87896728515625</ele><time>2024-03-20T00:45:32Z</time></trkpt>
<trkpt lat="37.65928133" lon="127.00432987"><ele>128.0821533203125</ele><time>2024-03-20T00:45:39Z</time></trkpt>
<trkpt lat="37.65918008" lon="127.00432386"><ele>128.4417724609375</ele><time>2024-03-20T00:45:47Z</time></trkpt>
<trkpt lat="37.65908713" lon="127.00428245"><ele>129.38983154296875</ele><time>2024-03-20T00:45:55Z</time></trkpt>
<trkpt lat="37.6590057" lon="127.00422971"><ele>130.3253173828125</ele><time>2024-03-20T00:46:04Z</time></trkpt>
<trkpt lat="37.65890883" lon="127.00419979"><ele>130.83660888671875</ele><time>2024-03-20T00:46:13Z</time></trkpt>
<trkpt lat="37.65882861" lon="127.00413479"><ele>130.53167724609375</ele><time>2024-03-20T00:46:22Z</time></trkpt>
<trkpt lat="37.65875143" lon="127.00405777"><ele>130.756591796875</ele><time>2024-03-20T00:46:31Z</time></trkpt>
<trkpt lat="37.65867561" lon="127.00397405"><ele>131.87384033203125</ele><time>2024-03-20T00:46:40Z</time></trkpt>
<trkpt lat="37.65860425" lon="127.00388901"><ele>132.335693359375</ele><time>2024-03-20T00:46:49Z</time></trkpt>
<trkpt lat="37.65853857" lon="127.00380986"><ele>131.90557861328125</ele><time>2024-03-20T00:46:57Z</time></trkpt>
<trkpt lat="37.65848269" lon="127.00371952"><ele>132.9144287109375</ele><time>2024-03-20T00:47:05Z</time></trkpt>
<trkpt lat="37.65843339" lon="127.0036117"><ele>133.13983154296875</ele><time>2024-03-20T00:47:14Z</time></trkpt>
<trkpt lat="37.65839085" lon="127.00349969"><ele>133.60504150390625</ele><time>2024-03-20T00:47:23Z</time></trkpt>
<trkpt lat="37.65837628" lon="127.00337492"><ele>134.185302734375</ele><time>2024-03-20T00:47:32Z</time></trkpt>
<trkpt lat="37.65838896" lon="127.00325022"><ele>135.967529296875</ele><time>2024-03-20T00:47:41Z</time></trkpt>
<trkpt lat="37.6584357" lon="127.00315124"><ele>140.38946533203125</ele><time>2024-03-20T00:47:51Z</time></trkpt>
<trkpt lat="37.65842288" lon="127.00303122"><ele>140.69073486328125</ele><time>2024-03-20T00:48:05Z</time></trkpt>
<trkpt lat="37.65841458" lon="127.00291775"><ele>141.109375</ele><time>2024-03-20T00:48:14Z</time></trkpt>
<trkpt lat="37.65837363" lon="127.00281176"><ele>140.845947265625</ele><time>2024-03-20T00:48:24Z</time></trkpt>
<trkpt lat="37.65830551" lon="127.00272812"><ele>141.36688232421875</ele><time>2024-03-20T00:48:34Z</time></trkpt>
<trkpt lat="37.65825848" lon="127.00262907"><ele>140.866943359375</ele><time>2024-03-20T00:48:43Z</time></trkpt>
<trkpt lat="37.65822131" lon="127.00252228"><ele>141.19268798828125</ele><time>2024-03-20T00:48:52Z</time></trkpt>
<trkpt lat="37.65818038" lon="127.00241266"><ele>142.2569580078125</ele><time>2024-03-20T00:49:01Z</time></trkpt>
<trkpt lat="37.65813455" lon="127.00230552"><ele>143.10406494140625</ele><time>2024-03-20T00:49:10Z</time></trkpt>
<trkpt lat="37.65810593" lon="127.00218637"><ele>144.42156982421875</ele><time>2024-03-20T00:49:20Z</time></trkpt>
<trkpt lat="37.65812101" lon="127.00206976"><ele>147.079833984375</ele><time>2024-03-20T00:49:32Z</time></trkpt>
<trkpt lat="37.65814929" lon="127.00195209"><ele>150.49017333984375</ele><time>2024-03-20T00:49:55Z</time></trkpt>
<trkpt lat="37.65812407" lon="127.0018351"><ele>153.9915771484375</ele><time>2024-03-20T00:50:16Z</time></trkpt>
<trkpt lat="37.65820063" lon="127.00177143"><ele>154.29742431640625</ele><time>2024-03-20T00:50:49Z</time></trkpt>
<trkpt lat="37.65826063" lon="127.00186564"><ele>159.2757568359375</ele><time>2024-03-20T00:51:11Z</time></trkpt>
<trkpt lat="37.65835748" lon="127.00184474"><ele>161.2354736328125</ele><time>2024-03-20T00:51:26Z</time></trkpt>
<trkpt lat="37.65844226" lon="127.0017997"><ele>162.6326904296875</ele><time>2024-03-20T00:51:40Z</time></trkpt>
<trkpt lat="37.65843081" lon="127.0016857"><ele>164.980224609375</ele><time>2024-03-20T00:52:06Z</time></trkpt>
<trkpt lat="37.65834845" lon="127.00162844"><ele>171.4547119140625</ele><time>2024-03-20T00:52:39Z</time></trkpt>
<trkpt lat="37.65829006" lon="127.0015398"><ele>175.3021240234375</ele><time>2024-03-20T00:53:00Z</time></trkpt>
<trkpt lat="37.65828111" lon="127.00142001"><ele>177.868896484375</ele><time>2024-03-20T00:53:14Z</time></trkpt>
<trkpt lat="37.65835263" lon="127.00134514"><ele>180.89111328125</ele><time>2024-03-20T00:53:27Z</time></trkpt>
<trkpt lat="37.65843399" lon="127.00129515"><ele>181.740966796875</ele><time>2024-03-20T00:53:39Z</time></trkpt>
<trkpt lat="37.65841838" lon="127.00117763"><ele>183.18621826171875</ele><time>2024-03-20T00:53:56Z</time></trkpt>
<trkpt lat="37.65838865" lon="127.00106493"><ele>186.1204833984375</ele><time>2024-03-20T00:54:12Z</time></trkpt>
<trkpt lat="37.65834851" lon="127.00095908"><ele>186.8619384765625</ele><time>2024-03-20T00:54:31Z</time></trkpt>
<trkpt lat="37.65828696" lon="127.00087043"><ele>188.3302001953125</ele><time>2024-03-20T00:54:41Z</time></trkpt>
<trkpt lat="37.65823549" lon="127.00076858"><ele>189.519775390625</ele><time>2024-03-20T00:54:54Z</time></trkpt>
<trkpt lat="37.65817572" lon="127.00067909"><ele>192.2088623046875</ele><time>2024-03-20T00:55:08Z</time></trkpt>
<trkpt lat="37.65819431" lon="127.00056751"><ele>193.33746337890625</ele><time>2024-03-20T00:55:20Z</time></trkpt>
<trkpt lat="37.658214" lon="127.00044887"><ele>197.41754150390625</ele><time>2024-03-20T00:55:42Z</time></trkpt>
<trkpt lat="37.65820435" lon="127.00033144"><ele>197.03485107421875</ele><time>2024-03-20T00:55:56Z</time></trkpt>
<trkpt lat="37.65817294" lon="127.0002242"><ele>197.6937255859375</ele><time>2024-03-20T00:56:06Z</time></trkpt>
<trkpt lat="37.65813492" lon="127.00012065"><ele>198.961669921875</ele><time>2024-03-20T00:56:16Z</time></trkpt>
<trkpt lat="37.65810523" lon="127.00001152"><ele>200.77899169921875</ele><time>2024-03-20T00:56:27Z</time></trkpt>
<trkpt lat="37.65808549" lon="126.99989315"><ele>203.062744140625</ele><time>2024-03-20T00:56:41Z</time></trkpt>
<trkpt lat="37.65805947" lon="126.99977935"><ele>205.739990234375</ele><time>2024-03-20T00:57:05Z</time></trkpt>
</trkseg>
<trkseg>
<trkpt lat="37.65805947" lon="126.99977935"><ele>205.74</ele><time>2024-03-20T01:01:09Z</time></trkpt>
<trkpt lat="37.65802785" lon="126.99966702"><ele>209.91357421875</ele><time>2024-03-20T01:01:09Z</time></trkpt>
<trkpt lat="37.65802464" lon="126.99955065"><ele>210.49395751953125</ele><time>2024-03-20T01:04:38Z</time></trkpt>
<trkpt lat="37.65797874" lon="126.99944955"><ele>213.648193359375</ele><time>2024-03-20T01:04:51Z</time></trkpt>
<trkpt lat="37.65791718" lon="126.99936548"><ele>216.55279541015625</ele><time>2024-03-20T01:05:12Z</time></trkpt>
<trkpt lat="37.65793415" lon="126.99925257"><ele>219.6702880859375</ele><time>2024-03-20T01:05:31Z</time></trkpt>
<trkpt lat="37.65793019" lon="126.99924011"><ele>219.6171875</ele><time>2024-03-20T01:05:33Z</time></trkpt>
<trkpt lat="37.65787336" lon="126.99913593"><ele>222.15435791015625</ele><time>2024-03-20T01:05:53Z</time></trkpt>
<trkpt lat="37.65779403" lon="126.99907798"><ele>225.39654541015625</ele><time>2024-03-20T01:06:13Z</time></trkpt>
<trkpt lat="37.65774157" lon="126.99898448"><ele>227.56243896484375</ele><time>2024-03-20T01:06:38Z</time></trkpt>
<trkpt lat="37.65769371" lon="126.99888774"><ele>229.8089599609375</ele><time>2024-03-20T01:06:53Z</time></trkpt>
<trkpt lat="37.65764151" lon="126.9987882"><ele>232.705322265625</ele><time>2024-03-20T01:07:14Z</time></trkpt>
<trkpt lat="37.65755263" lon="126.9987585"><ele>236.288818359375</ele><time>2024-03-20T01:07:35Z</time></trkpt>
<trkpt lat="37.65754415" lon="126.99864314"><ele>238.6392822265625</ele><time>2024-03-20T01:07:51Z</time></trkpt>
<trkpt lat="37.65745464" lon="126.99861189"><ele>241.23223876953125</ele><time>2024-03-20T01:08:27Z</time></trkpt>
<trkpt lat="37.65736362" lon="126.99859526"><ele>246.39697265625</ele><time>2024-03-20T01:08:48Z</time></trkpt>
<trkpt lat="37.6572749" lon="126.99856872"><ele>247.46209716796875</ele><time>2024-03-20T01:09:02Z</time></trkpt>
<trkpt lat="37.65720565" lon="126.99848518"><ele>249.4552001953125</ele><time>2024-03-20T01:09:15Z</time></trkpt>
<trkpt lat="37.65720649" lon="126.9983663"><ele>250.029296875</ele><time>2024-03-20T01:09:25Z</time></trkpt>
<trkpt lat="37.65715192" lon="126.9982667"><ele>252.43145751953125</ele><time>2024-03-20T01:09:39Z</time></trkpt>
<trkpt lat="37.65711577" lon="126.99816187"><ele>253.31500244140625</ele><time>2024-03-20T01:09:53Z</time></trkpt>
<trkpt lat="37.65704965" lon="126.99808481"><ele>254.485595703125</ele><time>2024-03-20T01:10:03Z</time></trkpt>
<trkpt lat="37.65698529" lon="126.99800128"><ele>255.34307861328125</ele><time>2024-03-20T01:10:14Z</time></trkpt>
<trkpt lat="37.65696017" lon="126.99788868"><ele>255.893310546875</ele><time>2024-03-20T01:10:24Z</time></trkpt>
<trkpt lat="37.65699045" lon="126.99777563"><ele>254.45458984375</ele><time>2024-03-20T01:10:32Z</time></trkpt>
<trkpt lat="37.65698666" lon="126.99765506"><ele>253.6468505859375</ele><time>2024-03-20T01:10:40Z</time></trkpt>
<trkpt lat="37.65701303" lon="126.99753805"><ele>253.4844970703125</ele><time>2024-03-20T01:10:49Z</time></trkpt>
<trkpt lat="37.65703579" lon="126.99742327"><ele>254.34478759765625</ele><time>2024-03-20T01:10:58Z</time></trkpt>
<trkpt lat="37.65700621" lon="126.99731436"><ele>257.639892578125</ele><time>2024-03-20T01:11:14Z</time></trkpt>
<trkpt lat="37.657064" lon="126.99721953"><ele>261.1292724609375</ele><time>2024-03-20T01:11:29Z</time></trkpt>
<trkpt lat="37.65714755" lon="126.99716943"><ele>262.5032958984375</ele><time>2024-03-20T01:11:40Z</time></trkpt>
<trkpt lat="37.65721853" lon="126.99708993"><ele>263.2022705078125</ele><time>2024-03-20T01:11:52Z</time></trkpt>
<trkpt lat="37.65725737" lon="126.99698121"><ele>262.43231201171875</ele><time>2024-03-20T01:12:03Z</time></trkpt>
<trkpt lat="37.65719094" lon="126.99688795"><ele>260.05810546875</ele><time>2024-03-20T01:12:14Z</time></trkpt>
<trkpt lat="37.6571654" lon="126.99676937"><ele>258.7899169921875</ele><time>2024-03-20T01:12:23Z</time></trkpt>
<trkpt lat="37.65712874" lon="126.99665966"><ele>259.1181640625</ele><time>2024-03-20T01:12:33Z</time></trkpt>
<trkpt lat="37.6571131" lon="126.99653852"><ele>260.4647216796875</ele><time>2024-03-20T01:12:43Z</time></trkpt>
<trkpt lat="37.65712251" lon="126.99642001"><ele>263.10943603515625</ele><time>2024-03-20T01:12:55Z</time></trkpt>
<trkpt lat="37.65708851" lon="126.99630974"><ele>264.74810791015625</ele><time>2024-03-20T01:13:10Z</time></trkpt>
<trkpt lat="37.65709748" lon="126.99619556"><ele>266.2596435546875</ele><time>2024-03-20T01:13:24Z</time></trkpt>
<trkpt lat="37.65714761" lon="126.99610014"><ele>268.2535400390625</ele><time>2024-03-20T01:13:35Z</time></trkpt>
<trkpt lat="37.65708938" lon="126.99601127"><ele>269.205078125</ele><time>2024-03-20T01:13:50Z</time></trkpt>
<trkpt lat="37.65701673" lon="126.99593661"><ele>274.15447998046875</ele><time>2024-03-20T01:14:15Z</time></trkpt>
<trkpt lat="37.6570098" lon="126.99581855"><ele>277.3846435546875</ele><time>2024-03-20T01:14:40Z</time></trkpt>
<trkpt lat="37.65697284" lon="126.99571126"><ele>281.31378173828125</ele><time>2024-03-20T01:15:05Z</time></trkpt>
<trkpt lat="37.65699326" lon="126.99559209"><ele>282.54150390625</ele><time>2024-03-20T01:15:22Z</time></trkpt>
<trkpt lat="37.65701746" lon="126.99547878"><ele>285.6209716796875</ele><time>2024-03-20T01:15:39Z</time></trkpt>
<trkpt lat="37.65697151" lon="126.99537605"><ele>289.8095703125</ele><time>2024-03-20T01:16:05Z</time></trkpt>
<trkpt lat="37.65704224" lon="126.99530477"><ele>292.45928955078125</ele><time>2024-03-20T01:16:23Z</time></trkpt>
<trkpt lat="37.65710652" lon="126.99521205"><ele>293.6060791015625</ele><time>2024-03-20T01:16:36Z</time></trkpt>
<trkpt lat="37.65718938" lon="126.99516092"><ele>295.6343994140625</ele><time>2024-03-20T01:16:46Z</time></trkpt>
<trkpt lat="37.6572745" lon="126.99511092"><ele>299.633056640625</ele><time>2024-03-20T01:17:06Z</time></trkpt>
<trkpt lat="37.65729711" lon="126.99499894"><ele>299.206298828125</ele><time>2024-03-20T01:17:29Z</time></trkpt>
<trkpt lat="37.65729079" lon="126.99488479"><ele>299.59088134765625</ele><time>2024-03-20T01:17:38Z</time></trkpt>
<trkpt lat="37.65730307" lon="126.99476636"><ele>300.8170166015625</ele><time>2024-03-20T01:17:48Z</time></trkpt>
<trkpt lat="37.65731517" lon="126.99465177"><ele>304.02783203125</ele><time>2024-03-20T01:17:58Z</time></trkpt>
<trkpt lat="37.6573436" lon="126.99454131"><ele>304.15338134765625</ele><time>2024-03-20T01:18:13Z</time></trkpt>
<trkpt lat="37.65730178" lon="126.9944319"><ele>307.7894287109375</ele><time>2024-03-20T01:18:28Z</time></trkpt>
<trkpt lat="37.65731296" lon="126.99431569"><ele>310.46759033203125</ele><time>2024-03-20T01:18:42Z</time></trkpt>
<trkpt lat="37.65729918" lon="126.99420173"><ele>310.521484375</ele><time>2024-03-20T01:18:53Z</time></trkpt>
<trkpt lat="37.65726849" lon="126.99408807"><ele>310.35528564453125</ele><time>2024-03-20T01:19:03Z</time></trkpt>
<trkpt lat="37.65722566" lon="126.993988"><ele>312.8504638671875</ele><time>2024-03-20T01:19:17Z</time></trkpt>
<trkpt lat="37.65722105" lon="126.99387367"><ele>315.26300048828125</ele><time>2024-03-20T01:19:33Z</time></trkpt>
<trkpt lat="37.65715402" lon="126.99378692"><ele>317.06756591796875</ele><time>2024-03-20T01:19:52Z</time></trkpt>
<trkpt lat="37.65709288" lon="126.99370222"><ele>320.90283203125</ele><time>2024-03-20T01:20:14Z</time></trkpt>
<trkpt lat="37.65706992" lon="126.99358653"><ele>323.4306640625</ele><time>2024-03-20T01:20:31Z</time></trkpt>
<trkpt lat="37.65708586" lon="126.99347034"><ele>327.753173828125</ele><time>2024-03-20T01:20:52Z</time></trkpt>
<trkpt lat="37.65708961" lon="126.99335658"><ele>330.70361328125</ele><time>2024-03-20T01:21:13Z</time></trkpt>
<trkpt lat="37.65714751" lon="126.99326054"><ele>330.69622802734375</ele><time>2024-03-20T01:21:24Z</time></trkpt>
<trkpt lat="37.65722877" lon="126.99320586"><ele>331.2386474609375</ele><time>2024-03-20T01:21:33Z</time></trkpt>
<trkpt lat="37.65731616" lon="126.99317519"><ele>332.5362548828125</ele><time>2024-03-20T01:21:43Z</time></trkpt>
<trkpt lat="37.6573748" lon="126.99308446"><ele>331.845703125</ele><time>2024-03-20T01:21:54Z</time></trkpt>
<trkpt lat="37.65740567" lon="126.99296809"><ele>331.14794921875</ele><time>2024-03-20T01:22:04Z</time></trkpt>
<trkpt lat="37.65742825" lon="126.9928495"><ele>332.0006103515625</ele><time>2024-03-20T01:22:13Z</time></trkpt>
<trkpt lat="37.65748696" lon="126.99276023"><ele>331.7767333984375</ele><time>2024-03-20T01:22:22Z</time></trkpt>
<trkpt lat="37.65753641" lon="126.99265748"><ele>333.2083740234375</ele><time>2024-03-20T01:22:31Z</time></trkpt>
<trkpt lat="37.65758878" lon="126.99255148"><ele>334.14166259765625</ele><time>2024-03-20T01:22:41Z</time></trkpt>
<trkpt lat="37.65765505" lon="126.99246032"><ele>333.9298095703125</ele><time>2024-03-20T01:22:50Z</time></trkpt>
<trkpt lat="37.65771909" lon="126.99237472"><ele>332.99884033203125</ele><time>2024-03-20T01:22:58Z</time></trkpt>
<trkpt lat="37.6577962" lon="126.99231118"><ele>333.76513671875</ele><time>2024-03-20T01:23:06Z</time></trkpt>
<trkpt lat="37.6578736" lon="126.99223449"><ele>333.60888671875</ele><time>2024-03-20T01:23:15Z</time></trkpt>
<trkpt lat="37.65794783" lon="126.99215517"><ele>334.9552001953125</ele><time>2024-03-20T01:23:23Z</time></trkpt>
<trkpt lat="37.65802376" lon="126.99208745"><ele>334.42626953125</ele><time>2024-03-20T01:23:31Z</time></trkpt>
<trkpt lat="37.65811428" lon="126.99210301"><ele>335.222412109375</ele><time>2024-03-20T01:23:41Z</time></trkpt>
<trkpt lat="37.65820241" lon="126.99207867"><ele>335.917724609375</ele><time>2024-03-20T01:23:52Z</time></trkpt>
<trkpt lat="37.65826273" lon="126.99198841"><ele>337.26220703125</ele><time>2024-03-20T01:24:05Z</time></trkpt>
<trkpt lat="37.65826117" lon="126.99187228"><ele>338.53570556640625</ele><time>2024-03-20T01:24:30Z</time></trkpt>
<trkpt lat="37.65835157" lon="126.99184484"><ele>340.12896728515625</ele><time>2024-03-20T01:24:49Z</time></trkpt>
<trkpt lat="37.65842196" lon="126.99176824"><ele>342.2322998046875</ele><time>2024-03-20T01:25:01Z</time></trkpt>
<trkpt lat="37.65849391" lon="126.99169873"><ele>343.30322265625</ele><time>2024-03-20T01:25:14Z</time></trkpt>
<trkpt lat="37.65856037" lon="126.99162172"><ele>345.3765869140625</ele><time>2024-03-20T01:25:28Z</time></trkpt>
<trkpt lat="37.65863048" lon="126.99154744"><ele>349.281982421875</ele><time>2024-03-20T01:25:54Z</time></trkpt>
<trkpt lat="37.65865707" lon="126.99143359"><ele>352.56689453125</ele><time>2024-03-20T01:26:10Z</time></trkpt>
<trkpt lat="37.65870027" lon="126.99133296"><ele>355.36181640625</ele><time>2024-03-20T01:26:26Z</time></trkpt>
<trkpt lat="37.65874069" lon="126.99122408"><ele>357.074462890625</ele><time>2024-03-20T01:26:41Z</time></trkpt>
<trkpt lat="37.65883313" lon="126.99122595"><ele>361.13214111328125</ele><time>2024-03-20T01:26:58Z</time></trkpt>
<trkpt lat="37.65888876" lon="126.99112733"><ele>361.77239990234375</ele><time>2024-03-20T01:27:14Z</time></trkpt>
<trkpt lat="37.65896189" lon="126.9910455"><ele>363.53375244140625</ele><time>2024-03-20T01:27:27Z</time></trkpt>
<trkpt lat="37.65904063" lon="126.990982"><ele>363.5338134765625</ele><time>2024-03-20T01:27:44Z</time></trkpt>
<trkpt lat="37.65908322" lon="126.99086917"><ele>367.06378173828125</ele><time>2024-03-20T01:28:05Z</time></trkpt>
<trkpt lat="37.65913087" lon="126.99077003"><ele>368.84283447265625</ele><time>2024-03-20T01:28:17Z</time></trkpt>
<trkpt lat="37.65916691" lon="126.99065586"><ele>370.88104248046875</ele><time>2024-03-20T01:28:30Z</time></trkpt>
<trkpt lat="37.65922787" lon="126.99056922"><ele>373.16162109375</ele><time>2024-03-20T01:28:45Z</time></trkpt>
<trkpt lat="37.65926489" lon="126.99045761"><ele>373.7005615234375</ele><time>2024-03-20T01:28:58Z</time></trkpt>
<trkpt lat="37.65932396" lon="126.99035862"><ele>372.82952880859375</ele><time>2024-03-20T01:29:10Z</time></trkpt>
<trkpt lat="37.6593934" lon="126.99027394"><ele>374.551025390625</ele><time>2024-03-20T01:29:21Z</time></trkpt>
<trkpt lat="37.65946906" lon="126.99020975"><ele>375.4417724609375</ele><time>2024-03-20T01:29:34Z</time></trkpt>
<trkpt lat="37.65952001" lon="126.9901075"><ele>375.97698974609375</ele><time>2024-03-20T01:29:46Z</time></trkpt>
<trkpt lat="37.65957505" lon="126.99001128"><ele>377.42144775390625</ele><time>2024-03-20T01:29:58Z</time></trkpt>
<trkpt lat="37.65963713" lon="126.98991997"><ele>379.50885009765625</ele><time>2024-03-20T01:30:15Z</time></trkpt>
<trkpt lat="37.65968388" lon="126.98981983"><ele>382.2012939453125</ele><time>2024-03-20T01:30:32Z</time></trkpt>
<trkpt lat="37.65970234" lon="126.98970014"><ele>383.9219970703125</ele><time>2024-03-20T01:30:46Z</time></trkpt>
<trkpt lat="37.65975317" lon="126.98959788"><ele>384.688720703125</ele><time>2024-03-20T01:30:57Z</time></trkpt>
<trkpt lat="37.65981105" lon="126.98950209"><ele>386.10986328125</ele><time>2024-03-20T01:31:11Z</time></trkpt>
<trkpt lat="37.65982949" lon="126.98938256"><ele>389.07940673828125</ele><time>2024-03-20T01:31:39Z</time></trkpt>
<trkpt lat="37.65985289" lon="126.98926648"><ele>392.8154296875</ele><time>2024-03-20T01:32:03Z</time></trkpt>
<trkpt lat="37.65988698" lon="126.98915985"><ele>395.14044189453125</ele><time>2024-03-20T01:32:17Z</time></trkpt>
<trkpt lat="37.65993259" lon="126.98905698"><ele>396.08935546875</ele><time>2024-03-20T01:32:30Z</time></trkpt>
<trkpt lat="37.66001129" lon="126.98898791"><ele>396.50469970703125</ele><time>2024-03-20T01:32:44Z</time></trkpt>
<trkpt lat="37.6600985" lon="126.98895549"><ele>399.5609130859375</ele><time>2024-03-20T01:33:04Z</time></trkpt>
<trkpt lat="37.66014985" lon="126.98885779"><ele>402.369873046875</ele><time>2024-03-20T01:33:27Z</time></trkpt>
<trkpt lat="37.66022832" lon="126.98879541"><ele>406.5506591796875</ele><time>2024-03-20T01:33:55Z</time></trkpt>
<trkpt lat="37.66030799" lon="126.98874105"><ele>409.15008544921875</ele><time>2024-03-20T01:34:13Z</time></trkpt>
<trkpt lat="37.66038157" lon="126.98867269"><ele>412.12451171875</ele><time>2024-03-20T01:34:32Z</time></trkpt>
<trkpt lat="37.66046674" lon="126.98862196"><ele>414.46844482421875</ele><time>2024-03-20T01:34:52Z</time></trkpt>
<trkpt lat="37.6605571" lon="126.98860297"><ele>418.2821044921875</ele><time>2024-03-20T01:35:14Z</time></trkpt>
<trkpt lat="37.66063181" lon="126.988528"><ele>421.08544921875</ele><time>2024-03-20T01:35:34Z</time></trkpt>
<trkpt lat="37.66071604" lon="126.98847139"><ele>423.21051025390625</ele><time>2024-03-20T01:35:56Z</time></trkpt>
<trkpt lat="37.66080503" lon="126.98844068"><ele>424.839599609375</ele><time>2024-03-20T01:36:12Z</time></trkpt>
<trkpt lat="37.66089901" lon="126.98843422"><ele>428.15081787109375</ele><time>2024-03-20T01:36:34Z</time></trkpt>
<trkpt lat="37.66097101" lon="126.98835949"><ele>432.02783203125</ele><time>2024-03-20T01:36:57Z</time></trkpt>
<trkpt lat="37.66103733" lon="126.9882813"><ele>436.4625244140625</ele><time>2024-03-20T01:37:25Z</time></trkpt>
<trkpt lat="37.6611293" lon="126.98827649"><ele>439.373046875</ele><time>2024-03-20T01:37:46Z</time></trkpt>
<trkpt lat="37.66120529" lon="126.9882128"><ele>442.227294921875</ele><time>2024-03-20T01:38:05Z</time></trkpt>
<trkpt lat="37.66128628" lon="126.98815592"><ele>446.108642578125</ele><time>2024-03-20T01:38:27Z</time></trkpt>
<trkpt lat="37.66134622" lon="126.98807"><ele>448.435791015625</ele><time>2024-03-20T01:38:49Z</time></trkpt>
<trkpt lat="37.66142529" lon="126.98800686"><ele>451.6805419921875</ele><time>2024-03-20T01:39:12Z</time></trkpt>
<trkpt lat="37.66151906" lon="126.9880253"><ele>455.11181640625</ele><time>2024-03-20T01:39:32Z</time></trkpt>
<trkpt lat="37.6615847" lon="126.98794689"><ele>457.58740234375</ele><time>2024-03-20T01:39:52Z</time></trkpt>
<trkpt lat="37.66167778" lon="126.98795477"><ele>462.1221923828125</ele><time>2024-03-20T01:40:18Z</time></trkpt>
<trkpt lat="37.6617514" lon="126.9878834"><ele>463.29541015625</ele><time>2024-03-20T01:40:50Z</time></trkpt>
<trkpt lat="37.66180822" lon="126.9877952"><ele>469.21600341796875</ele><time>2024-03-20T01:41:10Z</time></trkpt>
<trkpt lat="37.66187663" lon="126.98772019"><ele>472.31396484375</ele><time>2024-03-20T01:41:33Z</time></trkpt>
<trkpt lat="37.66195303" lon="126.98764806"><ele>476.8701171875</ele><time>2024-03-20T01:41:55Z</time></trkpt>
<trkpt lat="37.66202636" lon="126.98757286"><ele>481.9775390625</ele><time>2024-03-20T01:42:28Z</time></trkpt>
<trkpt lat="37.66203651" lon="126.98745597"><ele>484.71240234375</ele><time>2024-03-20T01:42:50Z</time></trkpt>
<trkpt lat="37.662123" lon="126.98741979"><ele>488.13543701171875</ele><time>2024-03-20T01:43:12Z</time></trkpt>
<trkpt lat="37.66213348" lon="126.98730651"><ele>493.2342529296875</ele><time>2024-03-20T01:43:36Z</time></trkpt>
<trkpt lat="37.66222084" lon="126.98727533"><ele>497.38372802734375</ele><time>2024-03-20T01:44:05Z</time></trkpt>
<trkpt lat="37.66225678" lon="126.98716973"><ele>502.37451171875</ele><time>2024-03-20T01:44:28Z</time></trkpt>
<trkpt lat="37.66225755" lon="126.98705397"><ele>505.8707275390625</ele><time>2024-03-20T01:44:49Z</time></trkpt>
<trkpt lat="37.66225632" lon="126.98693777"><ele>505.48712158203125</ele><time>2024-03-20T01:45:22Z</time></trkpt>
<trkpt lat="37.66223077" lon="126.98681893"><ele>504.86328125</ele><time>2024-03-20T01:45:34Z</time></trkpt>
<trkpt lat="37.66222448" lon="126.98669992"><ele>502.34716796875</ele><time>2024-03-20T01:45:47Z</time></trkpt>
<trkpt lat="37.66219512" lon="126.9865925"><ele>500.3671875</ele><time>2024-03-20T01:45:59Z</time></trkpt>
<trkpt lat="37.66215464" lon="126.98648213"><ele>499.234619140625</ele><time>2024-03-20T01:46:10Z</time></trkpt>
<trkpt lat="37.66214666" lon="126.9863633"><ele>501.0135498046875</ele><time>2024-03-20T01:46:19Z</time></trkpt>
<trkpt lat="37.66214736" lon="126.9862379"><ele>500.4580078125</ele><time>2024-03-20T01:46:30Z</time></trkpt>
<trkpt lat="37.66217887" lon="126.9861264"><ele>499.2550048828125</ele><time>2024-03-20T01:46:39Z</time></trkpt>
<trkpt lat="37.66221728" lon="126.98602217"><ele>497.5186767578125</ele><time>2024-03-20T01:46:48Z</time></trkpt>
<trkpt lat="37.66225559" lon="126.98590588"><ele>498.948486328125</ele><time>2024-03-20T01:46:59Z</time></trkpt>
<trkpt lat="37.66228932" lon="126.98578879"><ele>498.6763916015625</ele><time>2024-03-20T01:47:10Z</time></trkpt>
<trkpt lat="37.66230072" lon="126.98567181"><ele>496.56414794921875</ele><time>2024-03-20T01:47:21Z</time></trkpt>
<trkpt lat="37.66229072" lon="126.98555013"><ele>496.9400634765625</ele><time>2024-03-20T01:47:32Z</time></trkpt>
<trkpt lat="37.66223072" lon="126.98545832"><ele>496.44091796875</ele><time>2024-03-20T01:47:45Z</time></trkpt>
<trkpt lat="37.66213916" lon="126.9854784"><ele>497.8087158203125</ele><time>2024-03-20T01:47:54Z</time></trkpt>
<trkpt lat="37.66205563" lon="126.98542975"><ele>493.998779296875</ele><time>2024-03-20T01:48:11Z</time></trkpt>
<trkpt lat="37.66195945" lon="126.98542658"><ele>491.210205078125</ele><time>2024-03-20T01:48:27Z</time></trkpt>
<trkpt lat="37.66187513" lon="126.98537433"><ele>489.7744140625</ele><time>2024-03-20T01:48:41Z</time></trkpt>
<trkpt lat="37.66180335" lon="126.98529716"><ele>487.4512939453125</ele><time>2024-03-20T01:48:55Z</time></trkpt>
<trkpt lat="37.66172059" lon="126.98522676"><ele>483.60394287109375</ele><time>2024-03-20T01:49:11Z</time></trkpt>
<trkpt lat="37.66168389" lon="126.98511033"><ele>480.60595703125</ele><time>2024-03-20T01:49:22Z</time></trkpt>
<trkpt lat="37.66160509" lon="126.98504444"><ele>482.862060546875</ele><time>2024-03-20T01:49:33Z</time></trkpt>
<trkpt lat="37.66151078" lon="126.98502866"><ele>486.2979736328125</ele><time>2024-03-20T01:49:49Z</time></trkpt>
<trkpt lat="37.66143433" lon="126.98509527"><ele>488.60357666015625</ele><time>2024-03-20T01:50:05Z</time></trkpt>
<trkpt lat="37.66134366" lon="126.9851008"><ele>490.7396240234375</ele><time>2024-03-20T01:50:21Z</time></trkpt>
<trkpt lat="37.66125275" lon="126.9851004"><ele>491.847412109375</ele><time>2024-03-20T01:50:32Z</time></trkpt>
<trkpt lat="37.66117104" lon="126.98515398"><ele>494.56793212890625</ele><time>2024-03-20T01:50:48Z</time></trkpt>
<trkpt lat="37.66110427" lon="126.98507148"><ele>494.5299072265625</ele><time>2024-03-20T01:51:00Z</time></trkpt>
<trkpt lat="37.66101024" lon="126.98507792"><ele>494.96435546875</ele><time>2024-03-20T01:51:24Z</time></trkpt>
<trkpt lat="37.6609239" lon="126.98502936"><ele>500.452880859375</ele><time>2024-03-20T01:51:48Z</time></trkpt>
<trkpt lat="37.66083012" lon="126.98502269"><ele>502.2696533203125</ele><time>2024-03-20T01:52:07Z</time></trkpt>
<trkpt lat="37.66075883" lon="126.98494717"><ele>504.1505126953125</ele><time>2024-03-20T01:52:24Z</time></trkpt>
<trkpt lat="37.66067668" lon="126.98499772"><ele>506.69195556640625</ele><time>2024-03-20T01:52:44Z</time></trkpt>
<trkpt lat="37.66058265" lon="126.9849875"><ele>510.2186279296875</ele><time>2024-03-20T01:53:12Z</time></trkpt>
<trkpt lat="37.66049518" lon="126.98494006"><ele>511.84619140625</ele><time>2024-03-20T01:53:30Z</time></trkpt>
<trkpt lat="37.66040839" lon="126.98497401"><ele>517.575927734375</ele><time>2024-03-20T01:53:55Z</time></trkpt>
<trkpt lat="37.66031589" lon="126.98497624"><ele>520.175048828125</ele><time>2024-03-20T01:54:16Z</time></trkpt>
<trkpt lat="37.66022517" lon="126.98496061"><ele>522.0550537109375</ele><time>2024-03-20T01:54:30Z</time></trkpt>
<trkpt lat="37.66012904" lon="126.98496752"><ele>522.3015747070312</ele><time>2024-03-20T01:54:45Z</time></trkpt>
<trkpt lat="37.66004789" lon="126.98491591"><ele>524.4547119140625</ele><time>2024-03-20T01:55:00Z</time></trkpt>
<trkpt lat="37.65997436" lon="126.9848437"><ele>528.04931640625</ele><time>2024-03-20T01:55:16Z</time></trkpt>
<trkpt lat="37.65988459" lon="126.98481342"><ele>528.46337890625</ele><time>2024-03-20T01:55:34Z</time></trkpt>
<trkpt lat="37.6597945" lon="126.98483278"><ele>531.6590576171875</ele><time>2024-03-20T01:55:53Z</time></trkpt>
<trkpt lat="37.65970739" lon="126.9848726"><ele>532.970458984375</ele><time>2024-03-20T01:56:10Z</time></trkpt>
<trkpt lat="37.65961292" lon="126.98489755"><ele>538.228515625</ele><time>2024-03-20T01:56:30Z</time></trkpt>
<trkpt lat="37.65952241" lon="126.98486503"><ele>538.22314453125</ele><time>2024-03-20T01:56:42Z</time></trkpt>
<trkpt lat="37.6595231" lon="126.98474642"><ele>539.6298828125</ele><time>2024-03-20T01:56:52Z</time></trkpt>
<trkpt lat="37.65948681" lon="126.98464081"><ele>539.083984375</ele><time>2024-03-20T01:57:06Z</time></trkpt>
<trkpt lat="37.65944793" lon="126.98453578"><ele>538.47705078125</ele><time>2024-03-20T01:57:21Z</time></trkpt>
<trkpt lat="37.65937913" lon="126.98445628"><ele>541.681640625</ele><time>2024-03-20T01:57:37Z</time></trkpt>
<trkpt lat="37.65938366" lon="126.98433797"><ele>544.21337890625</ele><time>2024-03-20T01:57:58Z</time></trkpt>
<trkpt lat="37.65930229" lon="126.98427941"><ele>549.4189453125</ele><time>2024-03-20T01:58:23Z</time></trkpt>
<trkpt lat="37.65922779" lon="126.98420086"><ele>552.1644287109375</ele><time>2024-03-20T01:58:42Z</time></trkpt>
<trkpt lat="37.6591966" lon="126.98408883"><ele>554.913330078125</ele><time>2024-03-20T01:58:56Z</time></trkpt>
<trkpt lat="37.65917513" lon="126.98397153"><ele>559.536376953125</ele><time>2024-03-20T01:59:18Z</time></trkpt>
<trkpt lat="37.6591224" lon="126.98387806"><ele>563.1002197265625</ele><time>2024-03-20T01:59:37Z</time></trkpt>
<trkpt lat="37.65908734" lon="126.98377179"><ele>562.78271484375</ele><time>2024-03-20T01:59:58Z</time></trkpt>
<trkpt lat="37.65908551" lon="126.9836548"><ele>564.5174560546875</ele><time>2024-03-20T02:00:30Z</time></trkpt>
<trkpt lat="37.65903829" lon="126.98355517"><ele>572.383056640625</ele><time>2024-03-20T02:00:57Z</time></trkpt>
<trkpt lat="37.65900449" lon="126.9834456"><ele>577.59521484375</ele><time>2024-03-20T02:01:22Z</time></trkpt>
<trkpt lat="37.65897293" lon="126.9833367"><ele>584.9097900390625</ele><time>2024-03-20T02:01:51Z</time></trkpt>
<trkpt lat="37.65893733" lon="126.98322512"><ele>588.92041015625</ele><time>2024-03-20T02:02:14Z</time></trkpt>
<trkpt lat="37.65889419" lon="126.98312352"><ele>591.0811767578125</ele><time>2024-03-20T02:02:32Z</time></trkpt>
<trkpt lat="37.65884916" lon="126.9830242"><ele>591.391357421875</ele><time>2024-03-20T02:02:56Z</time></trkpt>
<trkpt lat="37.65876238" lon="126.98299361"><ele>593.7763671875</ele><time>2024-03-20T02:03:17Z</time></trkpt>
<trkpt lat="37.65869418" lon="126.98291921"><ele>595.63427734375</ele><time>2024-03-20T02:03:40Z</time></trkpt>
<trkpt lat="37.65864422" lon="126.98282119"><ele>601.97314453125</ele><time>2024-03-20T02:04:08Z</time></trkpt>
<trkpt lat="37.6585751" lon="126.98274722"><ele>606.14404296875</ele><time>2024-03-20T02:04:34Z</time></trkpt>
<trkpt lat="37.65855622" lon="126.98263316"><ele>607.780517578125</ele><time>2024-03-20T02:04:54Z</time></trkpt>
<trkpt lat="37.65855244" lon="126.98251951"><ele>610.331298828125</ele><time>2024-03-20T02:05:14Z</time></trkpt>
<trkpt lat="37.65850514" lon="126.98241527"><ele>614.415771484375</ele><time>2024-03-20T02:05:41Z</time></trkpt>
<trkpt lat="37.65845285" lon="126.98231819"><ele>617.7139892578125</ele><time>2024-03-20T02:06:01Z</time></trkpt>
<trkpt lat="37.65838828" lon="126.98223428"><ele>622.513916015625</ele><time>2024-03-20T02:06:30Z</time></trkpt>
<trkpt lat="37.6583417" lon="126.98213682"><ele>626.3707275390625</ele><time>2024-03-20T02:06:54Z</time></trkpt>
<trkpt lat="37.65831335" lon="126.98202699"><ele>630.76611328125</ele><time>2024-03-20T02:07:15Z</time></trkpt>
<trkpt lat="37.65836204" lon="126.98192153"><ele>632.4541015625</ele><time>2024-03-20T02:07:33Z</time></trkpt>
<trkpt lat="37.65844597" lon="126.98187175"><ele>634.6907958984375</ele><time>2024-03-20T02:07:49Z</time></trkpt>
<trkpt lat="37.65837642" lon="126.9817968"><ele>637.158935546875</ele><time>2024-03-20T02:08:17Z</time></trkpt>
<trkpt lat="37.65837188" lon="126.9816833"><ele>642.659912109375</ele><time>2024-03-20T02:08:44Z</time></trkpt>
<trkpt lat="37.65835278" lon="126.98156955"><ele>648.322265625</ele><time>2024-03-20T02:09:07Z</time></trkpt>
<trkpt lat="37.6584386" lon="126.98153196"><ele>651.551513671875</ele><time>2024-03-20T02:09:29Z</time></trkpt>
<trkpt lat="37.6584997" lon="126.9814421"><ele>657.4775390625</ele><time>2024-03-20T02:10:03Z</time></trkpt>
<trkpt lat="37.65857865" lon="126.9813809"><ele>662.98193359375</ele><time>2024-03-20T02:10:38Z</time></trkpt>
<trkpt lat="37.65854393" lon="126.9812757"><ele>664.2864990234375</ele><time>2024-03-20T02:10:56Z</time></trkpt>
<trkpt lat="37.65847125" lon="126.98119926"><ele>664.263916015625</ele><time>2024-03-20T02:11:06Z</time></trkpt>
<trkpt lat="37.65844601" lon="126.98107994"><ele>665.5609130859375</ele><time>2024-03-20T02:11:16Z</time></trkpt>
<trkpt lat="37.65837333" lon="126.98100617"><ele>667.909423828125</ele><time>2024-03-20T02:11:38Z</time></trkpt>
<trkpt lat="37.6583282" lon="126.98090305"><ele>671.72998046875</ele><time>2024-03-20T02:11:59Z</time></trkpt>
<trkpt lat="37.65825198" lon="126.98083894"><ele>678.3427734375</ele><time>2024-03-20T02:12:48Z</time></trkpt>
<trkpt lat="37.65823269" lon="126.98072704"><ele>680.691162109375</ele><time>2024-03-20T02:13:13Z</time></trkpt>
<trkpt lat="37.65816933" lon="126.98064056"><ele>681.97607421875</ele><time>2024-03-20T02:13:42Z</time></trkpt>
<trkpt lat="37.65809895" lon="126.98056652"><ele>691.403076171875</ele><time>2024-03-20T02:14:31Z</time></trkpt>
<trkpt lat="37.65806786" lon="126.98045521"><ele>693.8011474609375</ele><time>2024-03-20T02:14:58Z</time></trkpt>
<trkpt lat="37.6581057" lon="126.98035076"><ele>698.8529052734375</ele><time>2024-03-20T02:15:28Z</time></trkpt>
<trkpt lat="37.65804634" lon="126.9802626"><ele>705.2412109375</ele><time>2024-03-20T02:15:56Z</time></trkpt>
<trkpt lat="37.65797924" lon="126.98018528"><ele>706.2899169921875</ele><time>2024-03-20T02:16:13Z</time></trkpt>
<trkpt lat="37.6578979" lon="126.98012993"><ele>707.706787109375</ele><time>2024-03-20T02:16:26Z</time></trkpt>
<trkpt lat="37.65791905" lon="126.98001929"><ele>711.19921875</ele><time>2024-03-20T02:16:48Z</time></trkpt>
<trkpt lat="37.65785492" lon="126.97993869"><ele>713.1268310546875</ele><time>2024-03-20T02:17:17Z</time></trkpt>
<trkpt lat="37.65789101" lon="126.97983321"><ele>719.4434814453125</ele><time>2024-03-20T02:17:51Z</time></trkpt>
<trkpt lat="37.65786084" lon="126.97972248"><ele>727.62451171875</ele><time>2024-03-20T02:18:34Z</time></trkpt>
<trkpt lat="37.65780482" lon="126.9796324"><ele>729.6983642578125</ele><time>2024-03-20T02:18:57Z</time></trkpt>
<trkpt lat="37.65771349" lon="126.97959126"><ele>730.738037109375</ele><time>2024-03-20T02:19:23Z</time></trkpt>
</trkseg>
<trkseg>
<trkpt lat="37.65771349" lon="126.97959126"><ele>730.738</ele><time>2024-03-20T02:25:04Z</time></trkpt>
<trkpt lat="37.65776516" lon="126.97949435"><ele>737.5369873046875</ele><time>2024-03-20T02:25:04Z</time></trkpt>
<trkpt lat="37.65785061" lon="126.97945055"><ele>737.822021484375</ele><time>2024-03-20T02:25:16Z</time></trkpt>
<trkpt lat="37.6579358" lon="126.97941181"><ele>744.7808837890625</ele><time>2024-03-20T02:25:34Z</time></trkpt>
<trkpt lat="37.65802622" lon="126.97943463"><ele>747.1319580078125</ele><time>2024-03-20T02:26:00Z</time></trkpt>
<trkpt lat="37.65807821" lon="126.97934009"><ele>750.3323974609375</ele><time>2024-03-20T02:26:25Z</time></trkpt>
<trkpt lat="37.6581081" lon="126.97923133"><ele>756.875732421875</ele><time>2024-03-20T02:26:57Z</time></trkpt>
<trkpt lat="37.65810778" lon="126.97921924"><ele>757.368896484375</ele><time>2024-03-20T02:26:59Z</time></trkpt>
<trkpt lat="37.65802713" lon="126.97915967"><ele>764.5987548828125</ele><time>2024-03-20T02:27:33Z</time></trkpt>
<trkpt lat="37.65799795" lon="126.97904825"><ele>766.6588134765625</ele><time>2024-03-20T02:27:58Z</time></trkpt>
<trkpt lat="37.65803515" lon="126.97894449"><ele>773.1483154296875</ele><time>2024-03-20T02:28:36Z</time></trkpt>
<trkpt lat="37.6580893" lon="126.97885365"><ele>778.4820556640625</ele><time>2024-03-20T02:29:04Z</time></trkpt>
<trkpt lat="37.65812466" lon="126.97874769"><ele>782.4432373046875</ele><time>2024-03-20T02:29:33Z</time></trkpt>
<trkpt lat="37.65817882" lon="126.97865678"><ele>788.767333984375</ele><time>2024-03-20T02:30:11Z</time></trkpt>
<trkpt lat="37.65820281" lon="126.97854739"><ele>794.655029296875</ele><time>2024-03-20T02:30:42Z</time></trkpt>
<trkpt lat="37.65825516" lon="126.97845483"><ele>800.6165771484375</ele><time>2024-03-20T02:31:13Z</time></trkpt>
<trkpt lat="37.65833323" lon="126.97839665"><ele>811.6806640625</ele><time>2024-03-20T02:32:03Z</time></trkpt>
<trkpt lat="37.65842239" lon="126.97837612"><ele>821.46240234375</ele><time>2024-03-20T02:33:03Z</time></trkpt>
<trkpt lat="37.65850085" lon="126.97844404"><ele>822.176513671875</ele><time>2024-03-20T02:33:25Z</time></trkpt>
<trkpt lat="37.65856525" lon="126.97852746"><ele>822.8531494140625</ele><time>2024-03-20T02:33:38Z</time></trkpt>
<trkpt lat="37.65863497" lon="126.97859993"><ele>822.84912109375</ele><time>2024-03-20T02:34:00Z</time></trkpt>
<trkpt lat="37.65870185" lon="126.97852282"><ele>831.1309814453125</ele><time>2024-03-20T02:34:25Z</time></trkpt>
<trkpt lat="37.65875724" lon="126.97843332"><ele>832.306640625</ele><time>2024-03-20T02:34:47Z</time></trkpt>
<trkpt lat="37.65883896" lon="126.97837859"><ele>835.59130859375</ele><time>2024-03-20T02:35:05Z</time></trkpt>
<trkpt lat="37.65878804" lon="126.97828188"><ele>840.887451171875</ele><time>2024-03-20T02:35:34Z</time></trkpt>
<trkpt lat="37.65869763" lon="126.97826624"><ele>846.8480224609375</ele><time>2024-03-20T02:35:59Z</time></trkpt>
<trkpt lat="37.6587271" lon="126.97815914"><ele>850.236328125</ele><time>2024-03-20T02:36:35Z</time></trkpt>
<trkpt lat="37.65869424" lon="126.97805065"><ele>856.5093994140625</ele><time>2024-03-20T02:37:12Z</time></trkpt>
</trkseg>
<trkseg>
<trkpt lat="37.65869424" lon="126.97805065"><ele>856.509</ele><time>2024-03-20T02:41:36Z</time></trkpt>
<trkpt lat="37.658652" lon="126.97818361"><ele>851.787841796875</ele><time>2024-03-20T02:41:36Z</time></trkpt>
<trkpt lat="37.65873822" lon="126.97822607"><ele>845.522216796875</ele><time>2024-03-20T02:44:34Z</time></trkpt>
<trkpt lat="37.65882144" lon="126.97827508"><ele>843.615478515625</ele><time>2024-03-20T02:44:50Z</time></trkpt>
<trkpt lat="37.65888107" lon="126.97836184"><ele>837.335693359375</ele><time>2024-03-20T02:45:10Z</time></trkpt>
<trkpt lat="37.65881549" lon="126.97844708"><ele>834.34033203125</ele><time>2024-03-20T02:45:30Z</time></trkpt>
<trkpt lat="37.65872394" lon="126.97847706"><ele>833.642822265625</ele><time>2024-03-20T02:45:42Z</time></trkpt>
<trkpt lat="37.65871611" lon="126.97848151"><ele>833.838623046875</ele><time>2024-03-20T02:45:44Z</time></trkpt>
<trkpt lat="37.65866185" lon="126.97858323"><ele>826.422607421875</ele><time>2024-03-20T02:46:16Z</time></trkpt>
<trkpt lat="37.65856742" lon="126.97856989"><ele>824.037353515625</ele><time>2024-03-20T02:46:35Z</time></trkpt>
<trkpt lat="37.65850904" lon="126.97848209"><ele>824.937744140625</ele><time>2024-03-20T02:46:59Z</time></trkpt>
<trkpt lat="37.65843955" lon="126.97840979"><ele>825.6875</ele><time>2024-03-20T02:47:15Z</time></trkpt>
<trkpt lat="37.65842241" lon="126.97829262"><ele>812.367431640625</ele><time>2024-03-20T02:47:44Z</time></trkpt>
<trkpt lat="37.6584201" lon="126.97841795"><ele>790.93798828125</ele><time>2024-03-20T02:48:45Z</time></trkpt>
<trkpt lat="37.65832715" lon="126.97843199"><ele>791.5067138671875</ele><time>2024-03-20T02:48:57Z</time></trkpt>
<trkpt lat="37.65827404" lon="126.9785315"><ele>796.73583984375</ele><time>2024-03-20T02:49:08Z</time></trkpt>
<trkpt lat="37.65820804" lon="126.97861336"><ele>793.74072265625</ele><time>2024-03-20T02:50:08Z</time></trkpt>
<trkpt lat="37.65815457" lon="126.97870833"><ele>788.0009765625</ele><time>2024-03-20T02:50:41Z</time></trkpt>
<trkpt lat="37.65812057" lon="126.97881694"><ele>782.8740234375</ele><time>2024-03-20T02:51:08Z</time></trkpt>
<trkpt lat="37.65804552" lon="126.97888562"><ele>779.441650390625</ele><time>2024-03-20T02:51:31Z</time></trkpt>
<trkpt lat="37.65802066" lon="126.97900121"><ele>774.7156982421875</ele><time>2024-03-20T02:51:56Z</time></trkpt>
<trkpt lat="37.65802413" lon="126.97911498"><ele>764.632568359375</ele><time>2024-03-20T02:52:54Z</time></trkpt>
<trkpt lat="37.65808309" lon="126.97920346"><ele>760.86962890625</ele><time>2024-03-20T02:53:11Z</time></trkpt>
<trkpt lat="37.65806319" lon="126.97931401"><ele>754.5096435546875</ele><time>2024-03-20T02:53:40Z</time></trkpt>
<trkpt lat="37.65801331" lon="126.97941003"><ele>748.833984375</ele><time>2024-03-20T02:54:01Z</time></trkpt>
<trkpt lat="37.65792038" lon="126.97941594"><ele>743.760986328125</ele><time>2024-03-20T02:55:58Z</time></trkpt>
<trkpt lat="37.65783234" lon="126.97946676"><ele>741.628662109375</ele><time>2024-03-20T02:56:17Z</time></trkpt>
<trkpt lat="37.65774529" lon="126.97952128"><ele>738.753173828125</ele><time>2024-03-20T02:56:31Z</time></trkpt>
<trkpt lat="37.65765402" lon="126.97948209"><ele>735.937255859375</ele><time>2024-03-20T02:56:59Z</time></trkpt>
<trkpt lat="37.65763439" lon="126.97936563"><ele>732.139892578125</ele><time>2024-03-20T02:57:18Z</time></trkpt>
<trkpt lat="37.65762064" lon="126.979253"><ele>729.127197265625</ele><time>2024-03-20T02:57:39Z</time></trkpt>
<trkpt lat="37.65754878" lon="126.97918251"><ele>725.913818359375</ele><time>2024-03-20T02:58:02Z</time></trkpt>
<trkpt lat="37.65745803" lon="126.97918336"><ele>693.509033203125</ele><time>2024-03-20T02:59:12Z</time></trkpt>
<trkpt lat="37.65737924" lon="126.97911837"><ele>699.53466796875</ele><time>2024-03-20T02:59:19Z</time></trkpt>
<trkpt lat="37.65731155" lon="126.97904352"><ele>702.8673095703125</ele><time>2024-03-20T02:59:27Z</time></trkpt>
<trkpt lat="37.65722131" lon="126.97898632"><ele>705.9139404296875</ele><time>2024-03-20T02:59:38Z</time></trkpt>
<trkpt lat="37.65714781" lon="126.97891072"><ele>705.57275390625</ele><time>2024-03-20T02:59:49Z</time></trkpt>
<trkpt lat="37.65707408" lon="126.97883815"><ele>704.296142578125</ele><time>2024-03-20T03:00:02Z</time></trkpt>
<trkpt lat="37.65699031" lon="126.97888297"><ele>700.5321044921875</ele><time>2024-03-20T03:00:26Z</time></trkpt>
<trkpt lat="37.65689821" lon="126.9788577"><ele>702.16064453125</ele><time>2024-03-20T03:00:41Z</time></trkpt>
<trkpt lat="37.65686195" lon="126.9787499"><ele>707.6065673828125</ele><time>2024-03-20T03:01:08Z</time></trkpt>
<trkpt lat="37.65677576" lon="126.97869812"><ele>708.820068359375</ele><time>2024-03-20T03:01:22Z</time></trkpt>
<trkpt lat="37.65668853" lon="126.97865771"><ele>709.1558837890625</ele><time>2024-03-20T03:01:34Z</time></trkpt>
<trkpt lat="37.65660115" lon="126.9786862"><ele>712.7042236328125</ele><time>2024-03-20T03:01:56Z</time></trkpt>
<trkpt lat="37.6565092" lon="126.97865789"><ele>715.269287109375</ele><time>2024-03-20T03:02:22Z</time></trkpt>
<trkpt lat="37.65642274" lon="126.97862504"><ele>713.9217529296875</ele><time>2024-03-20T03:02:36Z</time></trkpt>
<trkpt lat="37.65635203" lon="126.97855179"><ele>712.176513671875</ele><time>2024-03-20T03:02:53Z</time></trkpt>
<trkpt lat="37.65625925" lon="126.97855242"><ele>717.40185546875</ele><time>2024-03-20T03:03:13Z</time></trkpt>
<trkpt lat="37.65616996" lon="126.97852011"><ele>718.4462890625</ele><time>2024-03-20T03:03:39Z</time></trkpt>
<trkpt lat="37.65607747" lon="126.97853377"><ele>722.1207275390625</ele><time>2024-03-20T03:04:02Z</time></trkpt>
<trkpt lat="37.65598627" lon="126.97855344"><ele>727.2044677734375</ele><time>2024-03-20T03:04:27Z</time></trkpt>
<trkpt lat="37.65590008" lon="126.97859853"><ele>730.7296142578125</ele><time>2024-03-20T03:04:44Z</time></trkpt>
<trkpt lat="37.65580805" lon="126.97859008"><ele>731.41162109375</ele><time>2024-03-20T03:04:58Z</time></trkpt>
<trkpt lat="37.65571743" lon="126.97862866"><ele>733.887451171875</ele><time>2024-03-20T03:05:20Z</time></trkpt>
<trkpt lat="37.65562882" lon="126.97866098"><ele>737.705078125</ele><time>2024-03-20T03:05:42Z</time></trkpt>
<trkpt lat="37.65555045" lon="126.97871967"><ele>740.367431640625</ele><time>2024-03-20T03:05:58Z</time></trkpt>
<trkpt lat="37.65546045" lon="126.97876689"><ele>742.5557861328125</ele><time>2024-03-20T03:06:15Z</time></trkpt>
<trkpt lat="37.65536886" lon="126.97879953"><ele>742.9798583984375</ele><time>2024-03-20T03:06:31Z</time></trkpt>
<trkpt lat="37.65529693" lon="126.97886887"><ele>738.973388671875</ele><time>2024-03-20T03:06:53Z</time></trkpt>
<trkpt lat="37.65521832" lon="126.97893157"><ele>736.3662109375</ele><time>2024-03-20T03:07:15Z</time></trkpt>
<trkpt lat="37.655176" lon="126.97903185"><ele>734.697021484375</ele><time>2024-03-20T03:07:32Z</time></trkpt>
<trkpt lat="37.65508872" lon="126.97908659"><ele>735.118896484375</ele><time>2024-03-20T03:07:58Z</time></trkpt>
<trkpt lat="37.65500931" lon="126.97914936"><ele>737.921630859375</ele><time>2024-03-20T03:08:15Z</time></trkpt>
<trkpt lat="37.6549145" lon="126.9791868"><ele>740.48681640625</ele><time>2024-03-20T03:08:35Z</time></trkpt>
<trkpt lat="37.65485552" lon="126.97909952"><ele>729.25390625</ele><time>2024-03-20T03:09:20Z</time></trkpt>
<trkpt lat="37.65476141" lon="126.97906117"><ele>726.742919921875</ele><time>2024-03-20T03:09:36Z</time></trkpt>
<trkpt lat="37.65468677" lon="126.97899378"><ele>722.408203125</ele><time>2024-03-20T03:10:02Z</time></trkpt>
<trkpt lat="37.65461826" lon="126.97891004"><ele>721.2025146484375</ele><time>2024-03-20T03:10:19Z</time></trkpt>
<trkpt lat="37.65453129" lon="126.97885904"><ele>719.9105224609375</ele><time>2024-03-20T03:10:35Z</time></trkpt>
<trkpt lat="37.65443971" lon="126.97883719"><ele>722.7935791015625</ele><time>2024-03-20T03:10:56Z</time></trkpt>
<trkpt lat="37.65448417" lon="126.97873117"><ele>704.366455078125</ele><time>2024-03-20T03:11:40Z</time></trkpt>
<trkpt lat="37.65449992" lon="126.97884438"><ele>700.393310546875</ele><time>2024-03-20T03:11:55Z</time></trkpt>
<trkpt lat="37.65440144" lon="126.9788226"><ele>686.23193359375</ele><time>2024-03-20T03:12:17Z</time></trkpt>
<trkpt lat="37.6543238" lon="126.97875553"><ele>688.561767578125</ele><time>2024-03-20T03:12:24Z</time></trkpt>
<trkpt lat="37.65424874" lon="126.97868212"><ele>690.8519287109375</ele><time>2024-03-20T03:12:32Z</time></trkpt>
<trkpt lat="37.65417102" lon="126.97861612"><ele>691.355224609375</ele><time>2024-03-20T03:12:40Z</time></trkpt>
<trkpt lat="37.65408144" lon="126.97859605"><ele>694.8834228515625</ele><time>2024-03-20T03:12:49Z</time></trkpt>
<trkpt lat="37.65398849" lon="126.97859068"><ele>696.986572265625</ele><time>2024-03-20T03:13:00Z</time></trkpt>
<trkpt lat="37.65391762" lon="126.97851833"><ele>693.551513671875</ele><time>2024-03-20T03:13:15Z</time></trkpt>
<trkpt lat="37.65395467" lon="126.97841211"><ele>691.209716796875</ele><time>2024-03-20T03:13:25Z</time></trkpt>
<trkpt lat="37.65388571" lon="126.97832559"><ele>689.595703125</ele><time>2024-03-20T03:13:36Z</time></trkpt>
<trkpt lat="37.65379925" lon="126.9782737"><ele>686.582275390625</ele><time>2024-03-20T03:13:48Z</time></trkpt>
<trkpt lat="37.65376226" lon="126.97816103"><ele>683.3470458984375</ele><time>2024-03-20T03:14:03Z</time></trkpt>
<trkpt lat="37.65368782" lon="126.97823446"><ele>677.841796875</ele><time>2024-03-20T03:14:19Z</time></trkpt>
<trkpt lat="37.65364295" lon="126.97834088"><ele>679.0775146484375</ele><time>2024-03-20T03:14:32Z</time></trkpt>
<trkpt lat="37.6535812" lon="126.97843332"><ele>679.4755859375</ele><time>2024-03-20T03:14:48Z</time></trkpt>
<trkpt lat="37.65356605" lon="126.97854994"><ele>677.13037109375</ele><time>2024-03-20T03:15:01Z</time></trkpt>
<trkpt lat="37.65351231" lon="126.97864215"><ele>675.59326171875</ele><time>2024-03-20T03:15:13Z</time></trkpt>
<trkpt lat="37.65351163" lon="126.97875627"><ele>673.27294921875</ele><time>2024-03-20T03:15:24Z</time></trkpt>
<trkpt lat="37.65348942" lon="126.9788705"><ele>672.3631591796875</ele><time>2024-03-20T03:15:34Z</time></trkpt>
<trkpt lat="37.65349052" lon="126.97898616"><ele>673.422607421875</ele><time>2024-03-20T03:15:47Z</time></trkpt>
<trkpt lat="37.65343855" lon="126.97907989"><ele>672.529052734375</ele><time>2024-03-20T03:16:10Z</time></trkpt>
<trkpt lat="37.65338589" lon="126.97917392"><ele>666.8466796875</ele><time>2024-03-20T03:16:29Z</time></trkpt>
<trkpt lat="37.65334505" lon="126.97927637"><ele>659.752685546875</ele><time>2024-03-20T03:16:52Z</time></trkpt>
<trkpt lat="37.65330041" lon="126.97938379"><ele>653.02587890625</ele><time>2024-03-20T03:17:10Z</time></trkpt>
<trkpt lat="37.65328363" lon="126.97949829"><ele>648.5206298828125</ele><time>2024-03-20T03:17:32Z</time></trkpt>
<trkpt lat="37.65319554" lon="126.97955504"><ele>654.578857421875</ele><time>2024-03-20T03:17:42Z</time></trkpt>
<trkpt lat="37.65311579" lon="126.97961365"><ele>655.706298828125</ele><time>2024-03-20T03:17:54Z</time></trkpt>
<trkpt lat="37.65304958" lon="126.97970401"><ele>655.51513671875</ele><time>2024-03-20T03:18:16Z</time></trkpt>
<trkpt lat="37.65304313" lon="126.97982658"><ele>650.390869140625</ele><time>2024-03-20T03:18:29Z</time></trkpt>
<trkpt lat="37.65305158" lon="126.97994724"><ele>648.423828125</ele><time>2024-03-20T03:18:41Z</time></trkpt>
<trkpt lat="37.65304007" lon="126.980064"><ele>651.807861328125</ele><time>2024-03-20T03:18:51Z</time></trkpt>
<trkpt lat="37.65296823" lon="126.98014088"><ele>656.189453125</ele><time>2024-03-20T03:19:02Z</time></trkpt>
<trkpt lat="37.6528809" lon="126.98010949"><ele>652.038818359375</ele><time>2024-03-20T03:19:18Z</time></trkpt>
<trkpt lat="37.65278796" lon="126.98010907"><ele>646.7177734375</ele><time>2024-03-20T03:19:33Z</time></trkpt>
<trkpt lat="37.65269313" lon="126.98012459"><ele>645.285888671875</ele><time>2024-03-20T03:19:45Z</time></trkpt>
<trkpt lat="37.65260468" lon="126.98017972"><ele>645.7080078125</ele><time>2024-03-20T03:19:54Z</time></trkpt>
<trkpt lat="37.65252733" lon="126.98024242"><ele>645.879638671875</ele><time>2024-03-20T03:20:02Z</time></trkpt>
<trkpt lat="37.65245275" lon="126.98031638"><ele>646.8297119140625</ele><time>2024-03-20T03:20:13Z</time></trkpt>
<trkpt lat="37.6523715" lon="126.98038098"><ele>649.7958984375</ele><time>2024-03-20T03:20:24Z</time></trkpt>
<trkpt lat="37.65227729" lon="126.9803805"><ele>643.2093505859375</ele><time>2024-03-20T03:20:38Z</time></trkpt>
<trkpt lat="37.65225512" lon="126.98049424"><ele>641.868408203125</ele><time>2024-03-20T03:20:49Z</time></trkpt>
<trkpt lat="37.65218154" lon="126.98056788"><ele>640.14892578125</ele><time>2024-03-20T03:21:01Z</time></trkpt>
<trkpt lat="37.65211374" lon="126.980653"><ele>639.7447509765625</ele><time>2024-03-20T03:21:12Z</time></trkpt>
<trkpt lat="37.65202078" lon="126.98064221"><ele>637.744873046875</ele><time>2024-03-20T03:21:26Z</time></trkpt>
<trkpt lat="37.65196022" lon="126.98073775"><ele>633.5899658203125</ele><time>2024-03-20T03:21:36Z</time></trkpt>
<trkpt lat="37.65187037" lon="126.98072109"><ele>630.3797607421875</ele><time>2024-03-20T03:21:46Z</time></trkpt>
<trkpt lat="37.65178831" lon="126.98066612"><ele>630.484130859375</ele><time>2024-03-20T03:21:55Z</time></trkpt>
<trkpt lat="37.65169051" lon="126.98064762"><ele>612.48046875</ele><time>2024-03-20T03:22:54Z</time></trkpt>
<trkpt lat="37.65159057" lon="126.98066102"><ele>612.5341796875</ele><time>2024-03-20T03:23:03Z</time></trkpt>
<trkpt lat="37.65150039" lon="126.98069418"><ele>612.18701171875</ele><time>2024-03-20T03:23:10Z</time></trkpt>
<trkpt lat="37.65142138" lon="126.98075381"><ele>613.097412109375</ele><time>2024-03-20T03:23:18Z</time></trkpt>
<trkpt lat="37.65132847" lon="126.98078365"><ele>611.67333984375</ele><time>2024-03-20T03:23:28Z</time></trkpt>
<trkpt lat="37.65125334" lon="126.98070641"><ele>612.529052734375</ele><time>2024-03-20T03:23:38Z</time></trkpt>
<trkpt lat="37.65116259" lon="126.98071721"><ele>615.4140625</ele><time>2024-03-20T03:24:01Z</time></trkpt>
<trkpt lat="37.65107125" lon="126.98071848"><ele>615.846923828125</ele><time>2024-03-20T03:24:14Z</time></trkpt>
<trkpt lat="37.65098969" lon="126.9807691"><ele>614.555908203125</ele><time>2024-03-20T03:24:27Z</time></trkpt>
<trkpt lat="37.6509057" lon="126.98081566"><ele>617.31884765625</ele><time>2024-03-20T03:24:38Z</time></trkpt>
<trkpt lat="37.65081033" lon="126.98084127"><ele>616.271484375</ele><time>2024-03-20T03:24:49Z</time></trkpt>
<trkpt lat="37.65073571" lon="126.98091925"><ele>613.287109375</ele><time>2024-03-20T03:25:03Z</time></trkpt>
<trkpt lat="37.65074736" lon="126.98104183"><ele>611.27685546875</ele><time>2024-03-20T03:25:12Z</time></trkpt>
<trkpt lat="37.65075468" lon="126.98115645"><ele>612.4271240234375</ele><time>2024-03-20T03:25:21Z</time></trkpt>
<trkpt lat="37.65081216" lon="126.98125192"><ele>612.06884765625</ele><time>2024-03-20T03:25:30Z</time></trkpt>
<trkpt lat="37.65078779" lon="126.98136356"><ele>613.18359375</ele><time>2024-03-20T03:25:39Z</time></trkpt>
<trkpt lat="37.65079508" lon="126.98148623"><ele>614.69482421875</ele><time>2024-03-20T03:25:49Z</time></trkpt>
<trkpt lat="37.65080305" lon="126.98160082"><ele>613.676513671875</ele><time>2024-03-20T03:25:59Z</time></trkpt>
<trkpt lat="37.65079662" lon="126.98171477"><ele>615.0013427734375</ele><time>2024-03-20T03:26:11Z</time></trkpt>
<trkpt lat="37.65081789" lon="126.98183329"><ele>609.324951171875</ele><time>2024-03-20T03:26:25Z</time></trkpt>
<trkpt lat="37.65087981" lon="126.98192318"><ele>607.574951171875</ele><time>2024-03-20T03:26:35Z</time></trkpt>
<trkpt lat="37.65091839" lon="126.98203638"><ele>603.27001953125</ele><time>2024-03-20T03:26:45Z</time></trkpt>
<trkpt lat="37.6509408" lon="126.98215668"><ele>604.238525390625</ele><time>2024-03-20T03:26:54Z</time></trkpt>
<trkpt lat="37.65097748" lon="126.98226532"><ele>609.2198486328125</ele><time>2024-03-20T03:27:07Z</time></trkpt>
<trkpt lat="37.65093589" lon="126.98237008"><ele>609.378173828125</ele><time>2024-03-20T03:27:20Z</time></trkpt>
<trkpt lat="37.65090065" lon="126.98247896"><ele>604.798095703125</ele><time>2024-03-20T03:27:37Z</time></trkpt>
<trkpt lat="37.65098924" lon="126.9825232"><ele>602.351318359375</ele><time>2024-03-20T03:27:50Z</time></trkpt>
<trkpt lat="37.65104912" lon="126.98260982"><ele>600.7750244140625</ele><time>2024-03-20T03:28:04Z</time></trkpt>
<trkpt lat="37.65095833" lon="126.98263724"><ele>597.624755859375</ele><time>2024-03-20T03:31:21Z</time></trkpt>
<trkpt lat="37.65088173" lon="126.98270385"><ele>593.859375</ele><time>2024-03-20T03:31:37Z</time></trkpt>
</trkseg>
<trkseg>
<trkpt lat="37.65088173" lon="126.98270385"><ele>593.859</ele><time>2024-03-20T03:32:09Z</time></trkpt>
<trkpt lat="37.65085061" lon="126.98284099"><ele>583.12158203125</ele><time>2024-03-20T03:32:09Z</time></trkpt>
<trkpt lat="37.65088881" lon="126.98294408"><ele>574.47216796875</ele><time>2024-03-20T03:32:29Z</time></trkpt>
<trkpt lat="37.65096341" lon="126.98300897"><ele>568.875732421875</ele><time>2024-03-20T03:32:51Z</time></trkpt>
<trkpt lat="37.65103527" lon="126.98308168"><ele>563.649169921875</ele><time>2024-03-20T03:33:11Z</time></trkpt>
<trkpt lat="37.651112" lon="126.98315305"><ele>561.1617431640625</ele><time>2024-03-20T03:33:28Z</time></trkpt>
<trkpt lat="37.6511097" lon="126.98326947"><ele>557.024658203125</ele><time>2024-03-20T03:33:51Z</time></trkpt>
<trkpt lat="37.65111655" lon="126.98328088"><ele>556.498046875</ele><time>2024-03-20T03:33:53Z</time></trkpt>
<trkpt lat="37.65117345" lon="126.98337555"><ele>551.5894775390625</ele><time>2024-03-20T03:34:14Z</time></trkpt>
<trkpt lat="37.65122509" lon="126.98347177"><ele>548.799072265625</ele><time>2024-03-20T03:34:37Z</time></trkpt>
<trkpt lat="37.65127508" lon="126.98357384"><ele>545.2230224609375</ele><time>2024-03-20T03:34:55Z</time></trkpt>
<trkpt lat="37.65132048" lon="126.98367289"><ele>540.683837890625</ele><time>2024-03-20T03:35:14Z</time></trkpt>
<trkpt lat="37.65136232" lon="126.98377869"><ele>534.055419921875</ele><time>2024-03-20T03:35:43Z</time></trkpt>
<trkpt lat="37.65139552" lon="126.98389322"><ele>529.11572265625</ele><time>2024-03-20T03:36:05Z</time></trkpt>
<trkpt lat="37.65145902" lon="126.98398372"><ele>524.80126953125</ele><time>2024-03-20T03:36:24Z</time></trkpt>
<trkpt lat="37.65153887" lon="126.98404104"><ele>519.522216796875</ele><time>2024-03-20T03:36:44Z</time></trkpt>
<trkpt lat="37.65160383" lon="126.98411969"><ele>515.037353515625</ele><time>2024-03-20T03:37:00Z</time></trkpt>
<trkpt lat="37.65166894" lon="126.98420725"><ele>511.31646728515625</ele><time>2024-03-20T03:37:17Z</time></trkpt>
<trkpt lat="37.6517415" lon="126.98428177"><ele>507.7979736328125</ele><time>2024-03-20T03:37:34Z</time></trkpt>
<trkpt lat="37.65183221" lon="126.98431377"><ele>504.1273193359375</ele><time>2024-03-20T03:37:50Z</time></trkpt>
<trkpt lat="37.65189815" lon="126.98439489"><ele>503.0982666015625</ele><time>2024-03-20T03:38:03Z</time></trkpt>
<trkpt lat="37.65198621" lon="126.98442683"><ele>500.0733642578125</ele><time>2024-03-20T03:38:18Z</time></trkpt>
<trkpt lat="37.65195874" lon="126.98453674"><ele>494.92889404296875</ele><time>2024-03-20T03:38:46Z</time></trkpt>
<trkpt lat="37.6518709" lon="126.98458885"><ele>489.41192626953125</ele><time>2024-03-20T03:39:08Z</time></trkpt>
<trkpt lat="37.65193602" lon="126.98467373"><ele>484.50421142578125</ele><time>2024-03-20T03:39:31Z</time></trkpt>
<trkpt lat="37.65200725" lon="126.98474742"><ele>483.3582763671875</ele><time>2024-03-20T03:39:41Z</time></trkpt>
<trkpt lat="37.65209978" lon="126.98476635"><ele>479.632568359375</ele><time>2024-03-20T03:39:55Z</time></trkpt>
<trkpt lat="37.6521685" lon="126.98484669"><ele>477.1531982421875</ele><time>2024-03-20T03:40:08Z</time></trkpt>
<trkpt lat="37.65225062" lon="126.98489469"><ele>474.62548828125</ele><time>2024-03-20T03:40:23Z</time></trkpt>
<trkpt lat="37.65233183" lon="126.9849576"><ele>473.379638671875</ele><time>2024-03-20T03:40:36Z</time></trkpt>
<trkpt lat="37.65241564" lon="126.98501339"><ele>468.44451904296875</ele><time>2024-03-20T03:40:50Z</time></trkpt>
<trkpt lat="37.65248344" lon="126.9850955"><ele>467.41015625</ele><time>2024-03-20T03:41:01Z</time></trkpt>
<trkpt lat="37.65251158" lon="126.98520753"><ele>464.169921875</ele><time>2024-03-20T03:41:17Z</time></trkpt>
<trkpt lat="37.6526014" lon="126.98523039"><ele>461.6162109375</ele><time>2024-03-20T03:41:29Z</time></trkpt>
<trkpt lat="37.6526642" lon="126.98531444"><ele>455.74371337890625</ele><time>2024-03-20T03:41:55Z</time></trkpt>
<trkpt lat="37.65267165" lon="126.98542999"><ele>449.1571044921875</ele><time>2024-03-20T03:42:14Z</time></trkpt>
<trkpt lat="37.65273307" lon="126.9855173"><ele>444.161376953125</ele><time>2024-03-20T03:42:42Z</time></trkpt>
<trkpt lat="37.65278813" lon="126.98561534"><ele>443.4232177734375</ele><time>2024-03-20T03:42:57Z</time></trkpt>
<trkpt lat="37.65286073" lon="126.98569145"><ele>439.39642333984375</ele><time>2024-03-20T03:43:18Z</time></trkpt>
<trkpt lat="37.6529524" lon="126.98572203"><ele>437.15435791015625</ele><time>2024-03-20T03:44:09Z</time></trkpt>
<trkpt lat="37.65301353" lon="126.98581079"><ele>432.9793701171875</ele><time>2024-03-20T03:44:32Z</time></trkpt>
<trkpt lat="37.65309425" lon="126.98586898"><ele>427.06707763671875</ele><time>2024-03-20T03:44:49Z</time></trkpt>
<trkpt lat="37.65318183" lon="126.98590264"><ele>425.50836181640625</ele><time>2024-03-20T03:45:00Z</time></trkpt>
<trkpt lat="37.65322938" lon="126.9860069"><ele>426.206787109375</ele><time>2024-03-20T03:45:09Z</time></trkpt>
<trkpt lat="37.65326216" lon="126.98611696"><ele>427.95294189453125</ele><time>2024-03-20T03:45:17Z</time></trkpt>
<trkpt lat="37.65331626" lon="126.98620902"><ele>423.8487548828125</ele><time>2024-03-20T03:45:43Z</time></trkpt>
<trkpt lat="37.65333737" lon="126.98632526"><ele>418.4864501953125</ele><time>2024-03-20T03:45:54Z</time></trkpt>
<trkpt lat="37.65336095" lon="126.98643472"><ele>415.89013671875</ele><time>2024-03-20T03:46:13Z</time></trkpt>
<trkpt lat="37.65338828" lon="126.98654939"><ele>418.39483642578125</ele><time>2024-03-20T03:46:24Z</time></trkpt>
<trkpt lat="37.65336917" lon="126.98666356"><ele>419.0006103515625</ele><time>2024-03-20T03:46:38Z</time></trkpt>
<trkpt lat="37.65337293" lon="126.98678452"><ele>412.75482177734375</ele><time>2024-03-20T03:46:56Z</time></trkpt>
<trkpt lat="37.65338379" lon="126.98689743"><ele>409.92822265625</ele><time>2024-03-20T03:47:12Z</time></trkpt>
<trkpt lat="37.65341099" lon="126.9870057"><ele>402.9630126953125</ele><time>2024-03-20T03:47:25Z</time></trkpt>
<trkpt lat="37.65347764" lon="126.98708749"><ele>401.1849365234375</ele><time>2024-03-20T03:47:35Z</time></trkpt>
<trkpt lat="37.65353762" lon="126.98719322"><ele>399.02099609375</ele><time>2024-03-20T03:47:46Z</time></trkpt>
<trkpt lat="37.65360823" lon="126.98726709"><ele>398.02777099609375</ele><time>2024-03-20T03:47:55Z</time></trkpt>
<trkpt lat="37.65368711" lon="126.98733933"><ele>399.3995361328125</ele><time>2024-03-20T03:48:05Z</time></trkpt>
<trkpt lat="37.6536775" lon="126.98745689"><ele>401.44830322265625</ele><time>2024-03-20T03:48:34Z</time></trkpt>
<trkpt lat="37.6537342" lon="126.98755525"><ele>397.7523193359375</ele><time>2024-03-20T03:49:15Z</time></trkpt>
<trkpt lat="37.65378533" lon="126.9876487"><ele>397.692626953125</ele><time>2024-03-20T03:49:26Z</time></trkpt>
<trkpt lat="37.65385581" lon="126.9877282"><ele>397.57763671875</ele><time>2024-03-20T03:49:38Z</time></trkpt>
<trkpt lat="37.65389446" lon="126.98783722"><ele>396.7772216796875</ele><time>2024-03-20T03:49:50Z</time></trkpt>
<trkpt lat="37.65394674" lon="126.9879314"><ele>394.8756103515625</ele><time>2024-03-20T03:50:07Z</time></trkpt>
<trkpt lat="37.6539354" lon="126.98804474"><ele>390.46954345703125</ele><time>2024-03-20T03:50:22Z</time></trkpt>
<trkpt lat="37.65389532" lon="126.98814888"><ele>387.0880126953125</ele><time>2024-03-20T03:50:36Z</time></trkpt>
<trkpt lat="37.65390658" lon="126.98826315"><ele>378.6419677734375</ele><time>2024-03-20T03:50:58Z</time></trkpt>
<trkpt lat="37.6539252" lon="126.98838241"><ele>375.086181640625</ele><time>2024-03-20T03:51:10Z</time></trkpt>
<trkpt lat="37.65391701" lon="126.98850756"><ele>375.6383056640625</ele><time>2024-03-20T03:51:19Z</time></trkpt>
<trkpt lat="37.65392026" lon="126.98862101"><ele>372.03564453125</ele><time>2024-03-20T03:51:30Z</time></trkpt>
<trkpt lat="37.65392255" lon="126.98874114"><ele>372.0118408203125</ele><time>2024-03-20T03:51:40Z</time></trkpt>
<trkpt lat="37.65393151" lon="126.98886324"><ele>371.68798828125</ele><time>2024-03-20T03:51:49Z</time></trkpt>
<trkpt lat="37.65397726" lon="126.98896112"><ele>371.43359375</ele><time>2024-03-20T03:51:59Z</time></trkpt>
<trkpt lat="37.65403274" lon="126.98905642"><ele>369.457275390625</ele><time>2024-03-20T03:52:13Z</time></trkpt>
<trkpt lat="37.65409488" lon="126.98914056"><ele>366.5933837890625</ele><time>2024-03-20T03:52:22Z</time></trkpt>
<trkpt lat="37.65414841" lon="126.98923357"><ele>364.748291015625</ele><time>2024-03-20T03:52:31Z</time></trkpt>
<trkpt lat="37.65420874" lon="126.98933043"><ele>361.8411865234375</ele><time>2024-03-20T03:52:41Z</time></trkpt>
<trkpt lat="37.65425053" lon="126.98944108"><ele>366.889404296875</ele><time>2024-03-20T03:52:54Z</time></trkpt>
<trkpt lat="37.65429636" lon="126.98954128"><ele>368.30029296875</ele><time>2024-03-20T03:53:10Z</time></trkpt>
<trkpt lat="37.65434166" lon="126.98964212"><ele>367.7359619140625</ele><time>2024-03-20T03:53:24Z</time></trkpt>
<trkpt lat="37.65442448" lon="126.98970424"><ele>366.11322021484375</ele><time>2024-03-20T03:53:34Z</time></trkpt>
<trkpt lat="37.6544896" lon="126.98978619"><ele>362.895751953125</ele><time>2024-03-20T03:53:43Z</time></trkpt>
<trkpt lat="37.65455147" lon="126.98987202"><ele>361.160888671875</ele><time>2024-03-20T03:53:53Z</time></trkpt>
<trkpt lat="37.65458487" lon="126.98998487"><ele>361.8663330078125</ele><time>2024-03-20T03:54:04Z</time></trkpt>
<trkpt lat="37.65460086" lon="126.99010593"><ele>361.9447021484375</ele><time>2024-03-20T03:54:14Z</time></trkpt>
<trkpt lat="37.65456894" lon="126.99021839"><ele>364.982421875</ele><time>2024-03-20T03:54:24Z</time></trkpt>
<trkpt lat="37.65465114" lon="126.99028457"><ele>364.49200439453125</ele><time>2024-03-20T03:54:37Z</time></trkpt>
<trkpt lat="37.65465376" lon="126.99040896"><ele>361.39459228515625</ele><time>2024-03-20T03:54:47Z</time></trkpt>
<trkpt lat="37.6546648" lon="126.99052543"><ele>361.81787109375</ele><time>2024-03-20T03:54:57Z</time></trkpt>
<trkpt lat="37.65474274" lon="126.99058249"><ele>363.4744873046875</ele><time>2024-03-20T03:55:12Z</time></trkpt>
<trkpt lat="37.65483518" lon="126.99057524"><ele>361.484619140625</ele><time>2024-03-20T03:55:27Z</time></trkpt>
<trkpt lat="37.65480146" lon="126.99046018"><ele>358.4686279296875</ele><time>2024-03-20T03:55:41Z</time></trkpt>
<trkpt lat="37.65482624" lon="126.9903467"><ele>359.6278076171875</ele><time>2024-03-20T03:55:53Z</time></trkpt>
<trkpt lat="37.6549058" lon="126.99040394"><ele>352.694580078125</ele><time>2024-03-20T03:56:03Z</time></trkpt>
<trkpt lat="37.65494888" lon="126.99029675"><ele>349.32958984375</ele><time>2024-03-20T03:56:15Z</time></trkpt>
<trkpt lat="37.65501053" lon="126.99038531"><ele>345.825439453125</ele><time>2024-03-20T03:56:22Z</time></trkpt>
<trkpt lat="37.65510119" lon="126.99039987"><ele>343.7928466796875</ele><time>2024-03-20T03:56:35Z</time></trkpt>
<trkpt lat="37.65519503" lon="126.9903719"><ele>337.768798828125</ele><time>2024-03-20T03:56:51Z</time></trkpt>
<trkpt lat="37.65526609" lon="126.99045028"><ele>334.886474609375</ele><time>2024-03-20T03:57:00Z</time></trkpt>
<trkpt lat="37.65532689" lon="126.9905369"><ele>333.326904296875</ele><time>2024-03-20T03:57:08Z</time></trkpt>
<trkpt lat="37.65529069" lon="126.99041706"><ele>329.9849853515625</ele><time>2024-03-20T03:57:35Z</time></trkpt>
<trkpt lat="37.65535713" lon="126.99032742"><ele>330.66534423828125</ele><time>2024-03-20T03:57:43Z</time></trkpt>
<trkpt lat="37.65545807" lon="126.99033235"><ele>327.1922607421875</ele><time>2024-03-20T03:57:54Z</time></trkpt>
<trkpt lat="37.6555518" lon="126.99035893"><ele>327.756103515625</ele><time>2024-03-20T03:58:02Z</time></trkpt>
<trkpt lat="37.65563268" lon="126.99041342"><ele>326.0645751953125</ele><time>2024-03-20T03:58:12Z</time></trkpt>
<trkpt lat="37.65572639" lon="126.99038039"><ele>327.33697509765625</ele><time>2024-03-20T03:58:20Z</time></trkpt>
</trkseg>
<trkseg>
<trkpt lat="37.65572639" lon="126.99038039"><ele>327.337</ele><time>2024-03-20T04:08:46Z</time></trkpt>
<trkpt lat="37.65599741" lon="126.99302217"><ele>279.64361572265625</ele><time>2024-03-20T04:08:46Z</time></trkpt>
<trkpt lat="37.6559805" lon="126.993141"><ele>279.43218994140625</ele><time>2024-03-20T04:09:01Z</time></trkpt>
<trkpt lat="37.65592882" lon="126.99324642"><ele>270.695068359375</ele><time>2024-03-20T04:09:39Z</time></trkpt>
<trkpt lat="37.65593029" lon="126.99325841"><ele>270.4029541015625</ele><time>2024-03-20T04:09:40Z</time></trkpt>
<trkpt lat="37.6559278" lon="126.99327266"><ele>270.1064453125</ele><time>2024-03-20T04:09:41Z</time></trkpt>
<trkpt lat="37.65584974" lon="126.99334549"><ele>269.23883056640625</ele><time>2024-03-20T04:09:48Z</time></trkpt>
<trkpt lat="37.65578723" lon="126.9934283"><ele>266.398681640625</ele><time>2024-03-20T04:10:34Z</time></trkpt>
<trkpt lat="37.6558114" lon="126.99354956"><ele>264.15350341796875</ele><time>2024-03-20T04:10:42Z</time></trkpt>
<trkpt lat="37.65579269" lon="126.99366127"><ele>261.76239013671875</ele><time>2024-03-20T04:10:50Z</time></trkpt>
<trkpt lat="37.65576001" lon="126.99378104"><ele>258.5615234375</ele><time>2024-03-20T04:10:58Z</time></trkpt>
<trkpt lat="37.65572207" lon="126.99389742"><ele>258.8955078125</ele><time>2024-03-20T04:11:06Z</time></trkpt>
<trkpt lat="37.65568626" lon="126.99400501"><ele>257.262939453125</ele><time>2024-03-20T04:11:14Z</time></trkpt>
<trkpt lat="37.65565134" lon="126.99411621"><ele>256.7559814453125</ele><time>2024-03-20T04:11:21Z</time></trkpt>
<trkpt lat="37.65564016" lon="126.99424269"><ele>256.4473876953125</ele><time>2024-03-20T04:11:28Z</time></trkpt>
<trkpt lat="37.65563656" lon="126.99437389"><ele>253.413818359375</ele><time>2024-03-20T04:11:35Z</time></trkpt>
<trkpt lat="37.6556164" lon="126.99449703"><ele>249.99835205078125</ele><time>2024-03-20T04:11:42Z</time></trkpt>
<trkpt lat="37.65559985" lon="126.99462038"><ele>252.1246337890625</ele><time>2024-03-20T04:11:49Z</time></trkpt>
<trkpt lat="37.65556495" lon="126.99473166"><ele>249.80914306640625</ele><time>2024-03-20T04:11:56Z</time></trkpt>
<trkpt lat="37.65554007" lon="126.99484066"><ele>250.84710693359375</ele><time>2024-03-20T04:12:02Z</time></trkpt>
<trkpt lat="37.6555059" lon="126.99495244"><ele>247.0032958984375</ele><time>2024-03-20T04:12:12Z</time></trkpt>
<trkpt lat="37.6554529" lon="126.99504692"><ele>244.61328125</ele><time>2024-03-20T04:12:18Z</time></trkpt>
<trkpt lat="37.65544349" lon="126.99516183"><ele>244.0047607421875</ele><time>2024-03-20T04:12:24Z</time></trkpt>
<trkpt lat="37.6554567" lon="126.99528759"><ele>244.16180419921875</ele><time>2024-03-20T04:12:31Z</time></trkpt>
<trkpt lat="37.65548439" lon="126.99540221"><ele>244.2369384765625</ele><time>2024-03-20T04:12:38Z</time></trkpt>
<trkpt lat="37.65551144" lon="126.99551211"><ele>241.5101318359375</ele><time>2024-03-20T04:12:45Z</time></trkpt>
<trkpt lat="37.65553426" lon="126.99562823"><ele>236.54742431640625</ele><time>2024-03-20T04:12:53Z</time></trkpt>
<trkpt lat="37.65556926" lon="126.99574519"><ele>233.6795654296875</ele><time>2024-03-20T04:13:01Z</time></trkpt>
<trkpt lat="37.6555956" lon="126.99586319"><ele>232.1336669921875</ele><time>2024-03-20T04:13:09Z</time></trkpt>
<trkpt lat="37.6556045" lon="126.99598112"><ele>230.92510986328125</ele><time>2024-03-20T04:13:16Z</time></trkpt>
<trkpt lat="37.6556132" lon="126.99609883"><ele>230.10247802734375</ele><time>2024-03-20T04:13:23Z</time></trkpt>
<trkpt lat="37.65564482" lon="126.99620974"><ele>226.75799560546875</ele><time>2024-03-20T04:13:30Z</time></trkpt>
<trkpt lat="37.65568623" lon="126.99631782"><ele>225.22607421875</ele><time>2024-03-20T04:13:37Z</time></trkpt>
<trkpt lat="37.65573387" lon="126.99641464"><ele>223.7166748046875</ele><time>2024-03-20T04:13:44Z</time></trkpt>
<trkpt lat="37.6557824" lon="126.99651143"><ele>219.03326416015625</ele><time>2024-03-20T04:13:51Z</time></trkpt>
<trkpt lat="37.65582812" lon="126.99661456"><ele>216.3045654296875</ele><time>2024-03-20T04:13:58Z</time></trkpt>
<trkpt lat="37.65587038" lon="126.9967249"><ele>214.7840576171875</ele><time>2024-03-20T04:14:05Z</time></trkpt>
<trkpt lat="37.65591035" lon="126.99682974"><ele>213.45025634765625</ele><time>2024-03-20T04:14:12Z</time></trkpt>
<trkpt lat="37.65593744" lon="126.99693798"><ele>213.976318359375</ele><time>2024-03-20T04:14:19Z</time></trkpt>
<trkpt lat="37.65597772" lon="126.99705073"><ele>214.9140625</ele><time>2024-03-20T04:14:26Z</time></trkpt>
<trkpt lat="37.65603439" lon="126.9971614"><ele>215.66064453125</ele><time>2024-03-20T04:14:33Z</time></trkpt>
<trkpt lat="37.65608425" lon="126.99725906"><ele>215.68292236328125</ele><time>2024-03-20T04:14:39Z</time></trkpt>
<trkpt lat="37.65611503" lon="126.99737336"><ele>218.17388916015625</ele><time>2024-03-20T04:14:46Z</time></trkpt>
<trkpt lat="37.65611519" lon="126.99748938"><ele>219.33984375</ele><time>2024-03-20T04:14:53Z</time></trkpt>
<trkpt lat="37.65610231" lon="126.99760524"><ele>220.88751220703125</ele><time>2024-03-20T04:15:00Z</time></trkpt>
<trkpt lat="37.656083" lon="126.99772845"><ele>216.70794677734375</ele><time>2024-03-20T04:15:08Z</time></trkpt>
<trkpt lat="37.65607789" lon="126.99784289"><ele>217.79058837890625</ele><time>2024-03-20T04:15:15Z</time></trkpt>
<trkpt lat="37.65606025" lon="126.99795878"><ele>215.98065185546875</ele><time>2024-03-20T04:15:22Z</time></trkpt>
<trkpt lat="37.6560559" lon="126.99807713"><ele>213.7841796875</ele><time>2024-03-20T04:15:29Z</time></trkpt>
<trkpt lat="37.65606008" lon="126.99820494"><ele>209.9163818359375</ele><time>2024-03-20T04:15:37Z</time></trkpt>
<trkpt lat="37.65605758" lon="126.9983261"><ele>211.49749755859375</ele><time>2024-03-20T04:15:44Z</time></trkpt>
<trkpt lat="37.65606602" lon="126.99844092"><ele>213.8624267578125</ele><time>2024-03-20T04:15:52Z</time></trkpt>
<trkpt lat="37.65604903" lon="126.99855458"><ele>213.78668212890625</ele><time>2024-03-20T04:15:59Z</time></trkpt>
<trkpt lat="37.65602423" lon="126.99866403"><ele>213.1273193359375</ele><time>2024-03-20T04:16:05Z</time></trkpt>
<trkpt lat="37.65602216" lon="126.99879296"><ele>210.37542724609375</ele><time>2024-03-20T04:16:13Z</time></trkpt>
<trkpt lat="37.65602943" lon="126.99891589"><ele>208.8968505859375</ele><time>2024-03-20T04:16:20Z</time></trkpt>
<trkpt lat="37.65604954" lon="126.99902677"><ele>207.42864990234375</ele><time>2024-03-20T04:16:26Z</time></trkpt>
<trkpt lat="37.65605829" lon="126.99914251"><ele>204.12255859375</ele><time>2024-03-20T04:16:33Z</time></trkpt>
<trkpt lat="37.65609505" lon="126.99925683"><ele>202.55517578125</ele><time>2024-03-20T04:16:40Z</time></trkpt>
<trkpt lat="37.65612757" lon="126.99936963"><ele>200.94073486328125</ele><time>2024-03-20T04:16:47Z</time></trkpt>
<trkpt lat="37.65616489" lon="126.99948847"><ele>201.86798095703125</ele><time>2024-03-20T04:16:55Z</time></trkpt>
<trkpt lat="37.6561936" lon="126.99959876"><ele>199.2161865234375</ele><time>2024-03-20T04:17:02Z</time></trkpt>
<trkpt lat="37.65622205" lon="126.99971044"><ele>196.89501953125</ele><time>2024-03-20T04:17:09Z</time></trkpt>
<trkpt lat="37.65624578" lon="126.99982034"><ele>197.4488525390625</ele><time>2024-03-20T04:17:16Z</time></trkpt>
<trkpt lat="37.6562856" lon="126.99993667"><ele>198.30169677734375</ele><time>2024-03-20T04:17:24Z</time></trkpt>
<trkpt lat="37.65633319" lon="127.00003386"><ele>194.09033203125</ele><time>2024-03-20T04:17:32Z</time></trkpt>
<trkpt lat="37.65639526" lon="127.00013741"><ele>190.7098388671875</ele><time>2024-03-20T04:17:40Z</time></trkpt>
<trkpt lat="37.65645776" lon="127.0002327"><ele>187.98388671875</ele><time>2024-03-20T04:17:47Z</time></trkpt>
<trkpt lat="37.65652235" lon="127.00031764"><ele>186.0294189453125</ele><time>2024-03-20T04:17:53Z</time></trkpt>
<trkpt lat="37.65657573" lon="127.00041727"><ele>184.299560546875</ele><time>2024-03-20T04:18:00Z</time></trkpt>
<trkpt lat="37.6566454" lon="127.00051069"><ele>181.72613525390625</ele><time>2024-03-20T04:18:08Z</time></trkpt>
<trkpt lat="37.65672698" lon="127.00058227"><ele>179.10693359375</ele><time>2024-03-20T04:18:16Z</time></trkpt>
<trkpt lat="37.65681374" lon="127.00063729"><ele>178.37799072265625</ele><time>2024-03-20T04:18:23Z</time></trkpt>
<trkpt lat="37.65690881" lon="127.00068083"><ele>177.2342529296875</ele><time>2024-03-20T04:18:31Z</time></trkpt>
<trkpt lat="37.65699942" lon="127.00072624"><ele>175.8001708984375</ele><time>2024-03-20T04:18:38Z</time></trkpt>
<trkpt lat="37.65709069" lon="127.00076412"><ele>174.721923828125</ele><time>2024-03-20T04:18:45Z</time></trkpt>
<trkpt lat="37.65718007" lon="127.00080941"><ele>171.637451171875</ele><time>2024-03-20T04:18:52Z</time></trkpt>
<trkpt lat="37.65727154" lon="127.00085361"><ele>166.81256103515625</ele><time>2024-03-20T04:18:59Z</time></trkpt>
<trkpt lat="37.65737123" lon="127.00087855"><ele>164.1319580078125</ele><time>2024-03-20T04:19:07Z</time></trkpt>
<trkpt lat="37.6574593" lon="127.00091872"><ele>161.603271484375</ele><time>2024-03-20T04:19:14Z</time></trkpt>
<trkpt lat="37.6575545" lon="127.00095543"><ele>162.12451171875</ele><time>2024-03-20T04:19:22Z</time></trkpt>
<trkpt lat="37.65763085" lon="127.00101863"><ele>162.149169921875</ele><time>2024-03-20T04:19:28Z</time></trkpt>
<trkpt lat="37.65769103" lon="127.00111738"><ele>159.15966796875</ele><time>2024-03-20T04:19:35Z</time></trkpt>
<trkpt lat="37.6577524" lon="127.00121257"><ele>157.6214599609375</ele><time>2024-03-20T04:19:42Z</time></trkpt>
<trkpt lat="37.6578113" lon="127.00131214"><ele>157.0281982421875</ele><time>2024-03-20T04:19:49Z</time></trkpt>
<trkpt lat="37.65787487" lon="127.00141063"><ele>155.38287353515625</ele><time>2024-03-20T04:19:56Z</time></trkpt>
<trkpt lat="37.65792532" lon="127.00150842"><ele>153.9560546875</ele><time>2024-03-20T04:20:02Z</time></trkpt>
<trkpt lat="37.65797784" lon="127.00160202"><ele>150.7314453125</ele><time>2024-03-20T04:20:08Z</time></trkpt>
<trkpt lat="37.6580392" lon="127.00170635"><ele>149.38800048828125</ele><time>2024-03-20T04:20:15Z</time></trkpt>
<trkpt lat="37.65808445" lon="127.00182287"><ele>146.038818359375</ele><time>2024-03-20T04:20:22Z</time></trkpt>
<trkpt lat="37.65808416" lon="127.00193992"><ele>143.80859375</ele><time>2024-03-20T04:20:28Z</time></trkpt>
<trkpt lat="37.65806534" lon="127.00205703"><ele>142.677490234375</ele><time>2024-03-20T04:20:34Z</time></trkpt>
<trkpt lat="37.65811254" lon="127.00216608"><ele>142.1884765625</ele><time>2024-03-20T04:20:41Z</time></trkpt>
<trkpt lat="37.65816501" lon="127.00226023"><ele>142.0023193359375</ele><time>2024-03-20T04:20:47Z</time></trkpt>
<trkpt lat="37.65820065" lon="127.00237375"><ele>139.43121337890625</ele><time>2024-03-20T04:20:54Z</time></trkpt>
<trkpt lat="37.65824042" lon="127.0024825"><ele>139.8282470703125</ele><time>2024-03-20T04:21:01Z</time></trkpt>
<trkpt lat="37.65828725" lon="127.00258528"><ele>138.95941162109375</ele><time>2024-03-20T04:21:08Z</time></trkpt>
<trkpt lat="37.65833013" lon="127.00269555"><ele>138.47247314453125</ele><time>2024-03-20T04:21:15Z</time></trkpt>
<trkpt lat="37.65838377" lon="127.00278837"><ele>138.3250732421875</ele><time>2024-03-20T04:21:21Z</time></trkpt>
<trkpt lat="37.65844092" lon="127.00288611"><ele>134.11529541015625</ele><time>2024-03-20T04:21:28Z</time></trkpt>
<trkpt lat="37.65845736" lon="127.00300993"><ele>134.0972900390625</ele><time>2024-03-20T04:21:35Z</time></trkpt>
<trkpt lat="37.65845506" lon="127.00313042"><ele>133.5159912109375</ele><time>2024-03-20T04:21:42Z</time></trkpt>
<trkpt lat="37.65844727" lon="127.00325189"><ele>134.2852783203125</ele><time>2024-03-20T04:21:49Z</time></trkpt>
<trkpt lat="37.65843069" lon="127.00337419"><ele>134.6275634765625</ele><time>2024-03-20T04:21:56Z</time></trkpt>
<trkpt lat="37.65844821" lon="127.0035039"><ele>133.43914794921875</ele><time>2024-03-20T04:22:03Z</time></trkpt>
<trkpt lat="37.65848678" lon="127.00362351"><ele>132.43499755859375</ele><time>2024-03-20T04:22:11Z</time></trkpt>
<trkpt lat="37.6585376" lon="127.00373209"><ele>131.107666015625</ele><time>2024-03-20T04:22:18Z</time></trkpt>
<trkpt lat="37.65859402" lon="127.00382255"><ele>129.567138671875</ele><time>2024-03-20T04:22:25Z</time></trkpt>
<trkpt lat="37.65865789" lon="127.00391352"><ele>126.1708984375</ele><time>2024-03-20T04:22:32Z</time></trkpt>
<trkpt lat="37.65872553" lon="127.00400145"><ele>125.2735595703125</ele><time>2024-03-20T04:22:39Z</time></trkpt>
<trkpt lat="37.65879903" lon="127.0040824"><ele>125.39727783203125</ele><time>2024-03-20T04:22:46Z</time></trkpt>
<trkpt lat="37.65887381" lon="127.00416167"><ele>124.51123046875</ele><time>2024-03-20T04:22:53Z</time></trkpt>
<trkpt lat="37.65897023" lon="127.00421206"><ele>124.66131591796875</ele><time>2024-03-20T04:23:00Z</time></trkpt>
<trkpt lat="37.65906962" lon="127.00423579"><ele>124.088134765625</ele><time>2024-03-20T04:23:07Z</time></trkpt>
<trkpt lat="37.65916332" lon="127.00425195"><ele>124.1683349609375</ele><time>2024-03-20T04:23:13Z</time></trkpt>
<trkpt lat="37.65925684" lon="127.00427116"><ele>125.8126220703125</ele><time>2024-03-20T04:23:21Z</time></trkpt>
<trkpt lat="37.65935498" lon="127.00429269"><ele>126.90625</ele><time>2024-03-20T04:23:30Z</time></trkpt>
<trkpt lat="37.65944409" lon="127.00435945"><ele>121.76123046875</ele><time>2024-03-20T04:23:37Z</time></trkpt>
<trkpt lat="37.65952423" lon="127.00444161"><ele>120.62506103515625</ele><time>2024-03-20T04:23:44Z</time></trkpt>
<trkpt lat="37.65959431" lon="127.00452678"><ele>120.3482666015625</ele><time>2024-03-20T04:23:51Z</time></trkpt>
<trkpt lat="37.65966724" lon="127.00459404"><ele>117.9449462890625</ele><time>2024-03-20T04:23:57Z</time></trkpt>
<trkpt lat="37.65974103" lon="127.00466314"><ele>118.54583740234375</ele><time>2024-03-20T04:24:03Z</time></trkpt>
<trkpt lat="37.65981262" lon="127.00473698"><ele>116.21954345703125</ele><time>2024-03-20T04:24:10Z</time></trkpt>
<trkpt lat="37.65989035" lon="127.0048224"><ele>114.512939453125</ele><time>2024-03-20T04:24:17Z</time></trkpt>
<trkpt lat="37.65995849" lon="127.00491634"><ele>113.04290771484375</ele><time>2024-03-20T04:24:24Z</time></trkpt>
<trkpt lat="37.66003161" lon="127.00500162"><ele>113.13128662109375</ele><time>2024-03-20T04:24:31Z</time></trkpt>
<trkpt lat="37.66010817" lon="127.00509217"><ele>113.4736328125</ele><time>2024-03-20T04:24:44Z</time></trkpt>
<trkpt lat="37.66017487" lon="127.00519208"><ele>110.324462890625</ele><time>2024-03-20T04:24:49Z</time></trkpt>
<trkpt lat="37.66025036" lon="127.00526097"><ele>107.71875</ele><time>2024-03-20T04:24:54Z</time></trkpt>
<trkpt lat="37.66033401" lon="127.00533835"><ele>107.9564208984375</ele><time>2024-03-20T04:25:00Z</time></trkpt>
<trkpt lat="37.66040616" lon="127.00540822"><ele>107.0133056640625</ele><time>2024-03-20T04:25:06Z</time></trkpt>
<trkpt lat="37.66049095" lon="127.0054826"><ele>108.19036865234375</ele><time>2024-03-20T04:25:12Z</time></trkpt>
<trkpt lat="37.66056522" lon="127.00556677"><ele>106.63812255859375</ele><time>2024-03-20T04:25:19Z</time></trkpt>
<trkpt lat="37.66060885" lon="127.00566664"><ele>106.73431396484375</ele><time>2024-03-20T04:25:26Z</time></trkpt>
<trkpt lat="37.66065566" lon="127.00577314"><ele>103.82470703125</ele><time>2024-03-20T04:26:20Z</time></trkpt>
<trkpt lat="37.66072329" lon="127.00587936"><ele>106.18829345703125</ele><time>2024-03-20T04:26:26Z</time></trkpt>
<trkpt lat="37.66076639" lon="127.00599099"><ele>105.1492919921875</ele><time>2024-03-20T04:26:32Z</time></trkpt>
<trkpt lat="37.66082279" lon="127.00610057"><ele>104.8692626953125</ele><time>2024-03-20T04:26:39Z</time></trkpt>
<trkpt lat="37.66086719" lon="127.00620864"><ele>106.85052490234375</ele><time>2024-03-20T04:26:45Z</time></trkpt>
<trkpt lat="37.66089047" lon="127.00632236"><ele>106.42291259765625</ele><time>2024-03-20T04:26:51Z</time></trkpt>
<trkpt lat="37.66088365" lon="127.00645397"><ele>108.7432861328125</ele><time>2024-03-20T04:26:57Z</time></trkpt>
<trkpt lat="37.66091816" lon="127.00657156"><ele>109.6129150390625</ele><time>2024-03-20T04:27:03Z</time></trkpt>
<trkpt lat="37.66095774" lon="127.0066776"><ele>111.7235107421875</ele><time>2024-03-20T04:27:09Z</time></trkpt>
<trkpt lat="37.66098785" lon="127.00679641"><ele>109.42132568359375</ele><time>2024-03-20T04:27:16Z</time></trkpt>
<trkpt lat="37.66103114" lon="127.00690353"><ele>111.76837158203125</ele><time>2024-03-20T04:27:22Z</time></trkpt>
<trkpt lat="37.66105846" lon="127.00702696"><ele>110.56488037109375</ele><time>2024-03-20T04:27:29Z</time></trkpt>
<trkpt lat="37.66108931" lon="127.00713983"><ele>110.6900634765625</ele><time>2024-03-20T04:27:36Z</time></trkpt>
<trkpt lat="37.66113371" lon="127.00724862"><ele>110.6771240234375</ele><time>2024-03-20T04:27:43Z</time></trkpt>
<trkpt lat="37.66117661" lon="127.0073571"><ele>108.1341552734375</ele><time>2024-03-20T04:27:50Z</time></trkpt>
<trkpt lat="37.66123086" lon="127.00746238"><ele>108.21539306640625</ele><time>2024-03-20T04:27:57Z</time></trkpt>
<trkpt lat="37.66129885" lon="127.00754018"><ele>106.448974609375</ele><time>2024-03-20T04:28:04Z</time></trkpt>
<trkpt lat="37.66137506" lon="127.00761173"><ele>105.0335693359375</ele><time>2024-03-20T04:28:11Z</time></trkpt>
<trkpt lat="37.66144857" lon="127.00768223"><ele>104.2567138671875</ele><time>2024-03-20T04:28:18Z</time></trkpt>
<trkpt lat="37.66153449" lon="127.00773744"><ele>103.6605224609375</ele><time>2024-03-20T04:28:25Z</time></trkpt>
<trkpt lat="37.66161475" lon="127.00780028"><ele>103.2066650390625</ele><time>2024-03-20T04:28:32Z</time></trkpt>
<trkpt lat="37.66170172" lon="127.00786564"><ele>103.49822998046875</ele><time>2024-03-20T04:28:39Z</time></trkpt>
<trkpt lat="37.66178936" lon="127.00789207"><ele>102.42291259765625</ele><time>2024-03-20T04:28:46Z</time></trkpt>
<trkpt lat="37.6616996" lon="127.00796262"><ele>106.5047607421875</ele><time>2024-03-20T04:29:25Z</time></trkpt>
<trkpt lat="37.66163658" lon="127.0078587"><ele>106.757568359375</ele><time>2024-03-20T04:29:31Z</time></trkpt>
<trkpt lat="37.66156497" lon="127.00778017"><ele>107.60552978515625</ele><time>2024-03-20T04:29:38Z</time></trkpt>
<trkpt lat="37.66157853" lon="127.00766197"><ele>108.3955078125</ele><time>2024-03-20T04:29:48Z</time></trkpt>
<trkpt lat="37.66153015" lon="127.00756369"><ele>108.35565185546875</ele><time>2024-03-20T04:30:08Z</time></trkpt>
</trkseg>
<trkseg>
<trkpt lat="37.66153015" lon="127.00756369"><ele>108.356</ele><time>2024-03-20T04:38:18Z</time></trkpt>
<trkpt lat="37.66160492" lon="127.0076455"><ele>107.90155029296875</ele><time>2024-03-20T04:38:18Z</time></trkpt>
<trkpt lat="37.66158438" lon="127.00776221"><ele>106.02349853515625</ele><time>2024-03-20T04:38:27Z</time></trkpt>
<trkpt lat="37.66165918" lon="127.00784127"><ele>103.9805908203125</ele><time>2024-03-20T04:38:36Z</time></trkpt>
<trkpt lat="37.66172919" lon="127.0079133"><ele>102.5927734375</ele><time>2024-03-20T04:38:44Z</time></trkpt>
<trkpt lat="37.66178814" lon="127.00800271"><ele>102.34796142578125</ele><time>2024-03-20T04:38:51Z</time></trkpt>
<trkpt lat="37.66185327" lon="127.00808639"><ele>101.6224365234375</ele><time>2024-03-20T04:38:58Z</time></trkpt>
<trkpt lat="37.66186342" lon="127.00809804"><ele>101.65673828125</ele><time>2024-03-20T04:38:59Z</time></trkpt>
<trkpt lat="37.66187275" lon="127.00810896"><ele>101.728515625</ele><time>2024-03-20T04:39:00Z</time></trkpt>
<trkpt lat="37.66194594" lon="127.00818755"><ele>102.00872802734375</ele><time>2024-03-20T04:39:08Z</time></trkpt>
<trkpt lat="37.66199626" lon="127.0083003"><ele>101.77056884765625</ele><time>2024-03-20T04:39:15Z</time></trkpt>
<trkpt lat="37.66204163" lon="127.00840368"><ele>101.289306640625</ele><time>2024-03-20T04:39:22Z</time></trkpt>
<trkpt lat="37.66208876" lon="127.00851582"><ele>102.1591796875</ele><time>2024-03-20T04:39:29Z</time></trkpt>
<trkpt lat="37.6621291" lon="127.00862741"><ele>101.72442626953125</ele><time>2024-03-20T04:39:36Z</time></trkpt>
<trkpt lat="37.6621424" lon="127.0087519"><ele>100.61395263671875</ele><time>2024-03-20T04:39:43Z</time></trkpt>
<trkpt lat="37.66216421" lon="127.00887136"><ele>100.06182861328125</ele><time>2024-03-20T04:39:50Z</time></trkpt>
<trkpt lat="37.66216786" lon="127.00898819"><ele>99.62567138671875</ele><time>2024-03-20T04:39:57Z</time></trkpt>
<trkpt lat="37.66217289" lon="127.00910702"><ele>104.33233642578125</ele><time>2024-03-20T04:40:05Z</time></trkpt>
<trkpt lat="37.66218971" lon="127.00922571"><ele>106.81549072265625</ele><time>2024-03-20T04:40:12Z</time></trkpt>
<trkpt lat="37.66219783" lon="127.00935289"><ele>108.59320068359375</ele><time>2024-03-20T04:40:20Z</time></trkpt>
<trkpt lat="37.66221555" lon="127.0094771"><ele>111.07928466796875</ele><time>2024-03-20T04:40:28Z</time></trkpt>
<trkpt lat="37.66224376" lon="127.00959295"><ele>110.49761962890625</ele><time>2024-03-20T04:40:35Z</time></trkpt>
<trkpt lat="37.66229875" lon="127.00969826"><ele>107.90020751953125</ele><time>2024-03-20T04:40:42Z</time></trkpt>
<trkpt lat="37.66235275" lon="127.00980127"><ele>105.75579833984375</ele><time>2024-03-20T04:40:50Z</time></trkpt>
<trkpt lat="37.66240096" lon="127.00990757"><ele>104.15557861328125</ele><time>2024-03-20T04:40:58Z</time></trkpt>
<trkpt lat="37.66246056" lon="127.00999927"><ele>102.30853271484375</ele><time>2024-03-20T04:41:05Z</time></trkpt>
<trkpt lat="37.66251953" lon="127.01009242"><ele>99.338623046875</ele><time>2024-03-20T04:41:12Z</time></trkpt>
<trkpt lat="37.66258688" lon="127.01018936"><ele>98.01513671875</ele><time>2024-03-20T04:41:20Z</time></trkpt>
<trkpt lat="37.66264474" lon="127.01028401"><ele>95.829833984375</ele><time>2024-03-20T04:41:28Z</time></trkpt>
<trkpt lat="37.66269054" lon="127.01039264"><ele>96.60345458984375</ele><time>2024-03-20T04:41:35Z</time></trkpt>
<trkpt lat="37.66272359" lon="127.01049817"><ele>97.7972412109375</ele><time>2024-03-20T04:41:43Z</time></trkpt>
</trkseg>
</trk>
<wpt lat="37.65083" lon="126.98244"><name>북한산 용암문_고양</name><type>1</type></wpt>
<wpt lat="37.65761" lon="126.97953"><name>북한산 백운봉암문_고양</name><type>1</type></wpt>
<wpt lat="37.65315" lon="126.98093"><name>북한산 용암봉_강북구</name><type>1</type></wpt>
<wpt lat="37.65341" lon="126.97731"><name>북한산 노적봉_고양</name><type>1</type></wpt>
<wpt lat="37.6564008" lon="126.9796743"><name>북한산 만경대_고양</name><type>1</type></wpt>
<wpt lat="37.65872" lon="126.9781"><name>북한산 백운대_고양</name><type>1</type></wpt>
<wpt lat="37.66223" lon="126.98702"><name>북한산 하루재_고양</name><type>1</type></wpt>
</gpx>
