<?xml version="1.0" encoding="utf-8"?>
<gpx version="1.1" creator="NaverMapGPX_Automation">
  <trk>
    <name>덕숭산6코스</name>
    <trkseg>
      <trkpt lat="36.6602681" lon="126.6223999"></trkpt>
      <trkpt lat="36.6604071" lon="126.6223868"></trkpt>
      <trkpt lat="36.6605462" lon="126.6223812"></trkpt>
      <trkpt lat="36.6608963" lon="126.6223965"></trkpt>
      <trkpt lat="36.6610226" lon="126.6224082"></trkpt>
      <trkpt lat="36.6613314" lon="126.6224655"></trkpt>
      <trkpt lat="36.6615067" lon="126.6224901"></trkpt>
      <trkpt lat="36.6615361" lon="126.6224926"></trkpt>
      <trkpt lat="36.6617152" lon="126.6225377"></trkpt>
      <trkpt lat="36.661897" lon="126.6225702"></trkpt>
      <trkpt lat="36.6619964" lon="126.6225823"></trkpt>
      <trkpt lat="36.6620134" lon="126.622457"></trkpt>
      <trkpt lat="36.6620221" lon="126.622415"></trkpt>
      <trkpt lat="36.6620349" lon="126.6223858"></trkpt>
      <trkpt lat="36.6620601" lon="126.6223588"></trkpt>
      <trkpt lat="36.6620947" lon="126.6223432"></trkpt>
      <trkpt lat="36.6621319" lon="126.6223399"></trkpt>
      <trkpt lat="36.6622934" lon="126.622345"></trkpt>
      <trkpt lat="36.6623406" lon="126.6223342"></trkpt>
      <trkpt lat="36.6623875" lon="126.6223116"></trkpt>
      <trkpt lat="36.6624202" lon="126.622286"></trkpt>
      <trkpt lat="36.6624487" lon="126.6222534"></trkpt>
      <trkpt lat="36.6625424" lon="126.6221074"></trkpt>
      <trkpt lat="36.6626026" lon="126.6220426"></trkpt>
      <trkpt lat="36.6626482" lon="126.6220263"></trkpt>
      <trkpt lat="36.6627346" lon="126.6219988"></trkpt>
      <trkpt lat="36.6627728" lon="126.6219968"></trkpt>
      <trkpt lat="36.6628073" lon="126.6220057"></trkpt>
      <trkpt lat="36.6632309" lon="126.622162"></trkpt>
      <trkpt lat="36.6632612" lon="126.6221883"></trkpt>
      <trkpt lat="36.6632978" lon="126.6222572"></trkpt>
      <trkpt lat="36.6633259" lon="126.6222729"></trkpt>
      <trkpt lat="36.6633668" lon="126.6222688"></trkpt>
      <trkpt lat="36.6635721" lon="126.6221929"></trkpt>
      <trkpt lat="36.66386" lon="126.6220429"></trkpt>
      <trkpt lat="36.6640189" lon="126.6219946"></trkpt>
      <trkpt lat="36.6640711" lon="126.6219733"></trkpt>
      <trkpt lat="36.6643145" lon="126.6220082"></trkpt>
      <trkpt lat="36.664558" lon="126.6220791"></trkpt>
      <trkpt lat="36.6646278" lon="126.6220845"></trkpt>
      <trkpt lat="36.6647299" lon="126.6220812"></trkpt>
      <trkpt lat="36.664959" lon="126.6222005"></trkpt>
      <trkpt lat="36.6652199" lon="126.6223003"></trkpt>
      <trkpt lat="36.665383" lon="126.6223731"></trkpt>
      <trkpt lat="36.6654812" lon="126.6224104"></trkpt>
      <trkpt lat="36.66569" lon="126.622465"></trkpt>
      <trkpt lat="36.6658059" lon="126.6224886"></trkpt>
      <trkpt lat="36.665911" lon="126.6224966"></trkpt>
      <trkpt lat="36.6660184" lon="126.6224856"></trkpt>
      <trkpt lat="36.6660797" lon="126.6224698"></trkpt>
      <trkpt lat="36.6661365" lon="126.622447"></trkpt>
      <trkpt lat="36.6661814" lon="126.6224194"></trkpt>
      <trkpt lat="36.6662191" lon="126.6223838"></trkpt>
      <trkpt lat="36.6662519" lon="126.6223361"></trkpt>
      <trkpt lat="36.6662681" lon="126.6222951"></trkpt>
      <trkpt lat="36.6662715" lon="126.6222554"></trkpt>
      <trkpt lat="36.666265" lon="126.622192"></trkpt>
      <trkpt lat="36.6662737" lon="126.6221537"></trkpt>
      <trkpt lat="36.666305" lon="126.6221155"></trkpt>
      <trkpt lat="36.6663631" lon="126.6220766"></trkpt>
      <trkpt lat="36.6664469" lon="126.6220378"></trkpt>
      <trkpt lat="36.66655" lon="126.6220059"></trkpt>
      <trkpt lat="36.6666234" lon="126.6219949"></trkpt>
      <trkpt lat="36.6667571" lon="126.6219853"></trkpt>
      <trkpt lat="36.6668058" lon="126.621976"></trkpt>
      <trkpt lat="36.66707" lon="126.6219033"></trkpt>
      <trkpt lat="36.6671111" lon="126.6218869"></trkpt>
      <trkpt lat="36.6671352" lon="126.6218713"></trkpt>
      <trkpt lat="36.6671481" lon="126.6218559"></trkpt>
      <trkpt lat="36.6671555" lon="126.6218365"></trkpt>
      <trkpt lat="36.6671563" lon="126.6218122"></trkpt>
      <trkpt lat="36.6671489" lon="126.6217819"></trkpt>
      <trkpt lat="36.6671153" lon="126.6217182"></trkpt>
      <trkpt lat="36.6670499" lon="126.6216291"></trkpt>
      <trkpt lat="36.6670442" lon="126.6216047"></trkpt>
      <trkpt lat="36.6670086" lon="126.6215559"></trkpt>
      <trkpt lat="36.6669948" lon="126.6215062"></trkpt>
      <trkpt lat="36.6669894" lon="126.6213949"></trkpt>
      <trkpt lat="36.6669828" lon="126.6213463"></trkpt>
      <trkpt lat="36.6669666" lon="126.6212984"></trkpt>
      <trkpt lat="36.6669291" lon="126.6212189"></trkpt>
      <trkpt lat="36.6669093" lon="126.6211782"></trkpt>
      <trkpt lat="36.6670226" lon="126.6212024"></trkpt>
      <trkpt lat="36.667048" lon="126.6212129"></trkpt>
      <trkpt lat="36.6670623" lon="126.621238"></trkpt>
      <trkpt lat="36.667069" lon="126.6213105"></trkpt>
      <trkpt lat="36.6672507" lon="126.6213676"></trkpt>
      <trkpt lat="36.6672975" lon="126.621395"></trkpt>
      <trkpt lat="36.6673893" lon="126.6214764"></trkpt>
      <trkpt lat="36.6674144" lon="126.6214871"></trkpt>
      <trkpt lat="36.6674436" lon="126.6214851"></trkpt>
      <trkpt lat="36.66748" lon="126.6214668"></trkpt>
      <trkpt lat="36.6675372" lon="126.6214242"></trkpt>
      <trkpt lat="36.6676453" lon="126.6213427"></trkpt>
      <trkpt lat="36.6676975" lon="126.6213194"></trkpt>
      <trkpt lat="36.6677381" lon="126.6213214"></trkpt>
      <trkpt lat="36.6678348" lon="126.6213572"></trkpt>
      <trkpt lat="36.6678714" lon="126.621364"></trkpt>
      <trkpt lat="36.6679209" lon="126.621361"></trkpt>
      <trkpt lat="36.6680092" lon="126.6213418"></trkpt>
      <trkpt lat="36.6680586" lon="126.6213298"></trkpt>
      <trkpt lat="36.6681595" lon="126.6214119"></trkpt>
      <trkpt lat="36.6682154" lon="126.6214393"></trkpt>
      <trkpt lat="36.6682703" lon="126.6214465"></trkpt>
      <trkpt lat="36.6685385" lon="126.6214575"></trkpt>
      <trkpt lat="36.668556" lon="126.6214583"></trkpt>
      <trkpt lat="36.6686752" lon="126.621564"></trkpt>
      <trkpt lat="36.6687027" lon="126.6215947"></trkpt>
      <trkpt lat="36.6687208" lon="126.6216236"></trkpt>
      <trkpt lat="36.6687351" lon="126.6216643"></trkpt>
      <trkpt lat="36.6687432" lon="126.6217169"></trkpt>
      <trkpt lat="36.6687431" lon="126.6217624"></trkpt>
      <trkpt lat="36.6687324" lon="126.6218417"></trkpt>
      <trkpt lat="36.6687374" lon="126.6218853"></trkpt>
      <trkpt lat="36.6687656" lon="126.6219428"></trkpt>
      <trkpt lat="36.6688645" lon="126.6220849"></trkpt>
      <trkpt lat="36.6688591" lon="126.6221191"></trkpt>
      <trkpt lat="36.66886" lon="126.6221701"></trkpt>
      <trkpt lat="36.6688786" lon="126.6222177"></trkpt>
      <trkpt lat="36.6690181" lon="126.6223761"></trkpt>
      <trkpt lat="36.6690374" lon="126.6224064"></trkpt>
      <trkpt lat="36.6690508" lon="126.6224404"></trkpt>
      <trkpt lat="36.6690649" lon="126.6225269"></trkpt>
      <trkpt lat="36.6690784" lon="126.6226918"></trkpt>
      <trkpt lat="36.6690799" lon="126.6227568"></trkpt>
      <trkpt lat="36.6690712" lon="126.6228179"></trkpt>
      <trkpt lat="36.669024" lon="126.6229701"></trkpt>
      <trkpt lat="36.6690207" lon="126.6230058"></trkpt>
      <trkpt lat="36.6690245" lon="126.6230482"></trkpt>
      <trkpt lat="36.6690444" lon="126.6231211"></trkpt>
      <trkpt lat="36.6690739" lon="126.6231904"></trkpt>
      <trkpt lat="36.6691063" lon="126.6232405"></trkpt>
      <trkpt lat="36.6691952" lon="126.6233489"></trkpt>
      <trkpt lat="36.6692113" lon="126.6233785"></trkpt>
      <trkpt lat="36.669218" lon="126.6234079"></trkpt>
      <trkpt lat="36.6692009" lon="126.6235459"></trkpt>
      <trkpt lat="36.6691887" lon="126.6237989"></trkpt>
      <trkpt lat="36.669179" lon="126.6238688"></trkpt>
      <trkpt lat="36.6691524" lon="126.6239302"></trkpt>
      <trkpt lat="36.6690588" lon="126.6240541"></trkpt>
      <trkpt lat="36.6690503" lon="126.6240711"></trkpt>
      <trkpt lat="36.6690512" lon="126.624083"></trkpt>
      <trkpt lat="36.6690743" lon="126.6241036"></trkpt>
      <trkpt lat="36.669237" lon="126.6242006"></trkpt>
      <trkpt lat="36.6692938" lon="126.6242417"></trkpt>
      <trkpt lat="36.6693253" lon="126.6242789"></trkpt>
      <trkpt lat="36.6693647" lon="126.6243546"></trkpt>
      <trkpt lat="36.669386" lon="126.6243809"></trkpt>
      <trkpt lat="36.6694071" lon="126.6243906"></trkpt>
      <trkpt lat="36.6694567" lon="126.6243921"></trkpt>
      <trkpt lat="36.6694834" lon="126.6243987"></trkpt>
      <trkpt lat="36.6695136" lon="126.6244182"></trkpt>
      <trkpt lat="36.6695461" lon="126.6244524"></trkpt>
      <trkpt lat="36.6695911" lon="126.6245223"></trkpt>
      <trkpt lat="36.6698214" lon="126.624958"></trkpt>
      <trkpt lat="36.6698687" lon="126.6250373"></trkpt>
      <trkpt lat="36.6699052" lon="126.6250824"></trkpt>
      <trkpt lat="36.6699403" lon="126.625116"></trkpt>
      <trkpt lat="36.6699724" lon="126.6251371"></trkpt>
      <trkpt lat="36.6700467" lon="126.6251675"></trkpt>
      <trkpt lat="36.6700742" lon="126.6251928"></trkpt>
      <trkpt lat="36.6700987" lon="126.6252269"></trkpt>
      <trkpt lat="36.6701459" lon="126.6253221"></trkpt>
      <trkpt lat="36.6702235" lon="126.625549"></trkpt>
      <trkpt lat="36.6702497" lon="126.6255871"></trkpt>
      <trkpt lat="36.6703141" lon="126.6256339"></trkpt>
      <trkpt lat="36.6703586" lon="126.6256521"></trkpt>
      <trkpt lat="36.670387" lon="126.6256525"></trkpt>
      <trkpt lat="36.6704677" lon="126.625639"></trkpt>
      <trkpt lat="36.6705026" lon="126.6256463"></trkpt>
      <trkpt lat="36.6706093" lon="126.6256866"></trkpt>
      <trkpt lat="36.6706529" lon="126.6256886"></trkpt>
      <trkpt lat="36.6707088" lon="126.6256799"></trkpt>
      <trkpt lat="36.6707793" lon="126.6256602"></trkpt>
      <trkpt lat="36.6708243" lon="126.6256346"></trkpt>
      <trkpt lat="36.6708683" lon="126.6255886"></trkpt>
      <trkpt lat="36.6709447" lon="126.6254883"></trkpt>
      <trkpt lat="36.6710463" lon="126.62536"></trkpt>
      <trkpt lat="36.6711246" lon="126.62529"></trkpt>
      <trkpt lat="36.6712048" lon="126.6252226"></trkpt>
      <trkpt lat="36.6712552" lon="126.6251594"></trkpt>
      <trkpt lat="36.6715624" lon="126.6246251"></trkpt>
      <trkpt lat="36.6716334" lon="126.6245098"></trkpt>
      <trkpt lat="36.6717077" lon="126.6244302"></trkpt>
      <trkpt lat="36.671736" lon="126.6244042"></trkpt>
      <trkpt lat="36.6717753" lon="126.6243684"></trkpt>
    </trkseg>
  </trk>
</gpx>