<?xml version="1.0" encoding="UTF-8"?>
<gpx version="1.1" creator="네이버지도" xmlns="http://www.topografix.com/GPX/1/1" xmlns:nmap="https://map.naver.com/gpx/1" xmlns:xsi="http://www.w3.org/2001/XMLSchema-instance" xsi:schemaLocation="http://www.topografix.com/GPX/1/1 http://www.topografix.com/GPX/1/1/gpx.xsd">
  <metadata>
    <name>서울 양천구 목동 517-서울 양천구 목동 517_260720</name>
    <desc>서울 양천구 목동 517-서울 양천구 목동중앙북로24길 1-서울 양천구 목동중앙북로24길 1-서울 양천구 목동 517-서울 양천구 목동 517</desc>
    <author><name>네이버지도</name></author>
    <link href="https://map.naver.com"><text>네이버지도</text></link>
    <time>2026-07-20T05:32:46.477Z</time>
    <bounds minlat="37.5461494" minlon="126.8780367" maxlat="37.5469235" maxlon="126.8799818"/>
    <extensions>
      <nmap:walkCourse schemaVersion="1.0">
        <nmap:distance>416</nmap:distance>
        <nmap:duration>447.3</nmap:duration>
        <nmap:stepCount>650</nmap:stepCount>
        <nmap:calories>23</nmap:calories>
        <nmap:totalAscent>6</nmap:totalAscent>
        <nmap:totalDescent>6</nmap:totalDescent>
        <nmap:altMin>15</nmap:altMin>
        <nmap:altMax>20</nmap:altMax>
      </nmap:walkCourse>
    </extensions>
  </metadata>
  <wpt lat="37.5468857" lon="126.8780386">
    <name>출발지</name>
    <desc>서울 양천구 목동 517</desc>
  </wpt>
  <wpt lat="37.5465263" lon="126.8799773">
    <name>경유지 #1</name>
    <desc>서울 양천구 목동중앙북로24길 1</desc>
  </wpt>
  <wpt lat="37.5461503" lon="126.8797801">
    <name>경유지 #2</name>
    <desc>서울 양천구 목동중앙북로24길 1</desc>
  </wpt>
  <wpt lat="37.5467095" lon="126.8781249">
    <name>경유지 #3</name>
    <desc>서울 양천구 목동 517</desc>
  </wpt>
  <wpt lat="37.5468857" lon="126.8780386">
    <name>도착지</name>
    <desc>서울 양천구 목동 517</desc>
  </wpt>
  <rte>
    <name>서울 양천구 목동 517-서울 양천구 목동 517_260720</name>
    <desc>서울 양천구 목동 517-서울 양천구 목동중앙북로24길 1-서울 양천구 목동중앙북로24길 1-서울 양천구 목동 517-서울 양천구 목동 517</desc>
    <type>walking</type>
    <rtept lat="37.5468857" lon="126.8780386">
      <name>출발지</name>
      <desc>서울 양천구 목동 517</desc>
      <type>start</type>
    </rtept>
    <rtept lat="37.5465263" lon="126.8799773">
      <name>경유지 #1</name>
      <desc>서울 양천구 목동중앙북로24길 1</desc>
      <type>waypoint</type>
    </rtept>
    <rtept lat="37.5461503" lon="126.8797801">
      <name>경유지 #2</name>
      <desc>서울 양천구 목동중앙북로24길 1</desc>
      <type>waypoint</type>
    </rtept>
    <rtept lat="37.5467095" lon="126.8781249">
      <name>경유지 #3</name>
      <desc>서울 양천구 목동 517</desc>
      <type>waypoint</type>
    </rtept>
    <rtept lat="37.5468857" lon="126.8780386">
      <name>도착지</name>
      <desc>서울 양천구 목동 517</desc>
      <type>goal</type>
    </rtept>
  </rte>
  <trk>
    <name>서울 양천구 목동 517-서울 양천구 목동 517_260720</name>
    <desc>서울 양천구 목동 517-서울 양천구 목동중앙북로24길 1-서울 양천구 목동중앙북로24길 1-서울 양천구 목동 517-서울 양천구 목동 517</desc>
    <type>walking</type>
    <trkseg>
      <trkpt lat="37.5468857" lon="126.8780386"><ele>15.18</ele></trkpt>
      <trkpt lat="37.5469235" lon="126.8780383"><ele>15</ele></trkpt>
      <trkpt lat="37.5468961" lon="126.8781426"><ele>15</ele></trkpt>
      <trkpt lat="37.5468928" lon="126.8783668"><ele>15.8</ele></trkpt>
      <trkpt lat="37.5468303" lon="126.878819"><ele>15.17</ele></trkpt>
      <trkpt lat="37.5468173" lon="126.8789142"><ele>15.38</ele></trkpt>
      <trkpt lat="37.5467681" lon="126.8791591"><ele>15.15</ele></trkpt>
      <trkpt lat="37.5467101" lon="126.879437"><ele>15.28</ele></trkpt>
      <trkpt lat="37.5466906" lon="126.8795005"><ele>15.19</ele></trkpt>
      <trkpt lat="37.5466017" lon="126.8797446"><ele>15.55</ele></trkpt>
      <trkpt lat="37.5465381" lon="126.8799818"><ele>15.41</ele></trkpt>
      <trkpt lat="37.5465263" lon="126.8799773"><ele>15.47</ele></trkpt>
      <trkpt lat="37.5465245" lon="126.8799762"><ele>15.48</ele></trkpt>
      <trkpt lat="37.5461531" lon="126.8797993"><ele>17.46</ele></trkpt>
      <trkpt lat="37.5461503" lon="126.8797801"><ele>17.7</ele></trkpt>
      <trkpt lat="37.5461503" lon="126.879779"><ele>17.71</ele></trkpt>
      <trkpt lat="37.5461494" lon="126.8797699"><ele>17.82</ele></trkpt>
      <trkpt lat="37.5461932" lon="126.8795341"><ele>19.1</ele></trkpt>
      <trkpt lat="37.5462487" lon="126.8794566"><ele>19.27</ele></trkpt>
      <trkpt lat="37.5462805" lon="126.8793341"><ele>19.36</ele></trkpt>
      <trkpt lat="37.5463115" lon="126.8792365"><ele>19.48</ele></trkpt>
      <trkpt lat="37.5463695" lon="126.879124"><ele>19.52</ele></trkpt>
      <trkpt lat="37.5464053" lon="126.879075"><ele>19.45</ele></trkpt>
      <trkpt lat="37.5464313" lon="126.8790397"><ele>19.69</ele></trkpt>
      <trkpt lat="37.5465123" lon="126.8788567"><ele>20</ele></trkpt>
      <trkpt lat="37.546591" lon="126.8787293"><ele>20.26</ele></trkpt>
      <trkpt lat="37.5466588" lon="126.8786042"><ele>20.05</ele></trkpt>
      <trkpt lat="37.5466748" lon="126.8785543"><ele>20.05</ele></trkpt>
      <trkpt lat="37.5466788" lon="126.8784614"><ele>20.02</ele></trkpt>
      <trkpt lat="37.5466901" lon="126.8783866"><ele>20</ele></trkpt>
      <trkpt lat="37.5467061" lon="126.8783344"><ele>20</ele></trkpt>
      <trkpt lat="37.5467121" lon="126.8782744"><ele>20</ele></trkpt>
      <trkpt lat="37.5467071" lon="126.8781895"><ele>20</ele></trkpt>
      <trkpt lat="37.5467061" lon="126.8781691"><ele>20</ele></trkpt>
      <trkpt lat="37.5467095" lon="126.8781249"><ele>20</ele></trkpt>
      <trkpt lat="37.5467104" lon="126.8781238"><ele>20</ele></trkpt>
      <trkpt lat="37.5467103" lon="126.878117"><ele>20</ele></trkpt>
      <trkpt lat="37.546712" lon="126.8780864"><ele>20</ele></trkpt>
      <trkpt lat="37.5467524" lon="126.8780567"><ele>17.95</ele></trkpt>
      <trkpt lat="37.5468352" lon="126.8780367"><ele>15.43</ele></trkpt>
      <trkpt lat="37.5468848" lon="126.8780386"><ele>15.19</ele></trkpt>
    </trkseg>
  </trk>
</gpx>