<?xml version="1.0" encoding="UTF-8"?>
<gpx creator="Ramblr - http://www.ramblr.com" version="1.1" xmlns="http://www.topografix.com/GPX/1/1">
<metadata>
<name>안산</name>
<desc>Bientus, Inc. - www.ramblr.com - Share your outdoor stories on a map!</desc>
<author>
<name>snuupy</name>
</author>
<link href="https://www.ramblr.com/web/mymap/trip/58253/10773209"></link>
<time>2026-07-05T08:08:15Z</time>
</metadata>
<trk>
<name>안산</name>
<trkseg>
<trkpt lat="37.574363" lon="126.957208"><ele>62.239859</ele><time>2026-07-05T08:08:15Z</time></trkpt>
<trkpt lat="37.574369" lon="126.95714"><ele>62.136637</ele><time>2026-07-05T08:08:47Z</time></trkpt>
<trkpt lat="37.574316" lon="126.957149"><ele>62.716766</ele><time>2026-07-05T08:08:54Z</time></trkpt>
<trkpt lat="37.574261" lon="126.957152"><ele>62.197065</ele><time>2026-07-05T08:08:59Z</time></trkpt>
<trkpt lat="37.574212" lon="126.957144"><ele>61.40926</ele><time>2026-07-05T08:09:04Z</time></trkpt>
<trkpt lat="37.574168" lon="126.957181"><ele>61.064117</ele><time>2026-07-05T08:09:09Z</time></trkpt>
<trkpt lat="37.57412" lon="126.957213"><ele>60.838587</ele><time>2026-07-05T08:09:14Z</time></trkpt>
<trkpt lat="37.57407" lon="126.957192"><ele>61.378791</ele><time>2026-07-05T08:09:18Z</time></trkpt>
<trkpt lat="37.574017" lon="126.957208"><ele>61.70355</ele><time>2026-07-05T08:09:23Z</time></trkpt>
<trkpt lat="37.573969" lon="126.957179"><ele>62.115973</ele><time>2026-07-05T08:09:27Z</time></trkpt>
<trkpt lat="37.573925" lon="126.957139"><ele>63.276599</ele><time>2026-07-05T08:09:32Z</time></trkpt>
<trkpt lat="37.573877" lon="126.957111"><ele>63.259481</ele><time>2026-07-05T08:09:37Z</time></trkpt>
<trkpt lat="37.573842" lon="126.957075"><ele>63.152055</ele><time>2026-07-05T08:09:41Z</time></trkpt>
<trkpt lat="37.573811" lon="126.957031"><ele>62.914154</ele><time>2026-07-05T08:09:45Z</time></trkpt>
<trkpt lat="37.573781" lon="126.956987"><ele>62.880568</ele><time>2026-07-05T08:09:49Z</time></trkpt>
<trkpt lat="37.57375" lon="126.956943"><ele>63.005974</ele><time>2026-07-05T08:09:53Z</time></trkpt>
<trkpt lat="37.573708" lon="126.956896"><ele>63.679119</ele><time>2026-07-05T08:09:58Z</time></trkpt>
<trkpt lat="37.573669" lon="126.956866"><ele>64.016939</ele><time>2026-07-05T08:10:02Z</time></trkpt>
<trkpt lat="37.57364" lon="126.95682"><ele>63.741384</ele><time>2026-07-05T08:10:06Z</time></trkpt>
<trkpt lat="37.573617" lon="126.956762"><ele>63.32843</ele><time>2026-07-05T08:10:10Z</time></trkpt>
<trkpt lat="37.573587" lon="126.956703"><ele>62.65245</ele><time>2026-07-05T08:10:15Z</time></trkpt>
<trkpt lat="37.573555" lon="126.95666"><ele>62.603931</ele><time>2026-07-05T08:10:19Z</time></trkpt>
<trkpt lat="37.573528" lon="126.956611"><ele>63.159667</ele><time>2026-07-05T08:10:23Z</time></trkpt>
<trkpt lat="37.573492" lon="126.956557"><ele>62.826013</ele><time>2026-07-05T08:10:28Z</time></trkpt>
<trkpt lat="37.573458" lon="126.95651"><ele>63.085051</ele><time>2026-07-05T08:10:32Z</time></trkpt>
<trkpt lat="37.573422" lon="126.956471"><ele>64.306732</ele><time>2026-07-05T08:10:36Z</time></trkpt>
<trkpt lat="37.573391" lon="126.956425"><ele>64.493341</ele><time>2026-07-05T08:10:41Z</time></trkpt>
<trkpt lat="37.573361" lon="126.956382"><ele>64.088166</ele><time>2026-07-05T08:10:45Z</time></trkpt>
<trkpt lat="37.573324" lon="126.95633"><ele>63.620302</ele><time>2026-07-05T08:10:50Z</time></trkpt>
<trkpt lat="37.573287" lon="126.95628"><ele>62.968759</ele><time>2026-07-05T08:10:55Z</time></trkpt>
<trkpt lat="37.573252" lon="126.956228"><ele>62.815504</ele><time>2026-07-05T08:11:00Z</time></trkpt>
<trkpt lat="37.573207" lon="126.956245"><ele>63.800284</ele><time>2026-07-05T08:11:09Z</time></trkpt>
<trkpt lat="37.57317" lon="126.956279"><ele>64.359325</ele><time>2026-07-05T08:11:16Z</time></trkpt>
<trkpt lat="37.573121" lon="126.956281"><ele>66.612684</ele><time>2026-07-05T08:11:25Z</time></trkpt>
<trkpt lat="37.573086" lon="126.956241"><ele>68.733379</ele><time>2026-07-05T08:11:33Z</time></trkpt>
<trkpt lat="37.573047" lon="126.956206"><ele>69.629575</ele><time>2026-07-05T08:11:39Z</time></trkpt>
<trkpt lat="37.573035" lon="126.956151"><ele>69.603152</ele><time>2026-07-05T08:11:43Z</time></trkpt>
<trkpt lat="37.573033" lon="126.956092"><ele>69.54279</ele><time>2026-07-05T08:11:47Z</time></trkpt>
<trkpt lat="37.57304" lon="126.956032"><ele>69.295976</ele><time>2026-07-05T08:11:51Z</time></trkpt>
<trkpt lat="37.573046" lon="126.955966"><ele>69.501702</ele><time>2026-07-05T08:11:55Z</time></trkpt>
<trkpt lat="37.573053" lon="126.955899"><ele>69.82984</ele><time>2026-07-05T08:12:00Z</time></trkpt>
<trkpt lat="37.573065" lon="126.955833"><ele>69.221254</ele><time>2026-07-05T08:12:04Z</time></trkpt>
<trkpt lat="37.573101" lon="126.955783"><ele>69.113704</ele><time>2026-07-05T08:12:09Z</time></trkpt>
<trkpt lat="37.573132" lon="126.955738"><ele>69.482903</ele><time>2026-07-05T08:12:13Z</time></trkpt>
<trkpt lat="37.573148" lon="126.955672"><ele>68.763086</ele><time>2026-07-05T08:12:19Z</time></trkpt>
<trkpt lat="37.573139" lon="126.95561"><ele>68.525743</ele><time>2026-07-05T08:12:25Z</time></trkpt>
<trkpt lat="37.573134" lon="126.955551"><ele>68.07044</ele><time>2026-07-05T08:12:29Z</time></trkpt>
<trkpt lat="37.573138" lon="126.955487"><ele>68.431072</ele><time>2026-07-05T08:12:34Z</time></trkpt>
<trkpt lat="37.573144" lon="126.955424"><ele>69.264425</ele><time>2026-07-05T08:12:39Z</time></trkpt>
<trkpt lat="37.573111" lon="126.95537"><ele>71.01036</ele><time>2026-07-05T08:12:47Z</time></trkpt>
<trkpt lat="37.573078" lon="126.955317"><ele>70.834726</ele><time>2026-07-05T08:12:54Z</time></trkpt>
<trkpt lat="37.573058" lon="126.955258"><ele>71.108158</ele><time>2026-07-05T08:12:58Z</time></trkpt>
<trkpt lat="37.57306" lon="126.955191"><ele>71.74263</ele><time>2026-07-05T08:13:02Z</time></trkpt>
<trkpt lat="37.573071" lon="126.955127"><ele>71.442542</ele><time>2026-07-05T08:13:06Z</time></trkpt>
<trkpt lat="37.573098" lon="126.95508"><ele>72.121422</ele><time>2026-07-05T08:13:11Z</time></trkpt>
<trkpt lat="37.573137" lon="126.955034"><ele>75.009131</ele><time>2026-07-05T08:13:16Z</time></trkpt>
<trkpt lat="37.573179" lon="126.955003"><ele>76.269918</ele><time>2026-07-05T08:13:22Z</time></trkpt>
<trkpt lat="37.573224" lon="126.954977"><ele>78.559621</ele><time>2026-07-05T08:13:27Z</time></trkpt>
<trkpt lat="37.573262" lon="126.954937"><ele>79.124528</ele><time>2026-07-05T08:13:32Z</time></trkpt>
<trkpt lat="37.573291" lon="126.954887"><ele>81.041614</ele><time>2026-07-05T08:13:37Z</time></trkpt>
<trkpt lat="37.573314" lon="126.954829"><ele>81.565999</ele><time>2026-07-05T08:13:45Z</time></trkpt>
<trkpt lat="37.573346" lon="126.954779"><ele>83.707563</ele><time>2026-07-05T08:13:51Z</time></trkpt>
<trkpt lat="37.573375" lon="126.95473"><ele>85.493603</ele><time>2026-07-05T08:13:56Z</time></trkpt>
<trkpt lat="37.573401" lon="126.954682"><ele>86.017875</ele><time>2026-07-05T08:14:02Z</time></trkpt>
<trkpt lat="37.573419" lon="126.954621"><ele>86.862834</ele><time>2026-07-05T08:14:08Z</time></trkpt>
<trkpt lat="37.573422" lon="126.95456"><ele>87.381387</ele><time>2026-07-05T08:14:14Z</time></trkpt>
<trkpt lat="37.573407" lon="126.954503"><ele>87.568375</ele><time>2026-07-05T08:14:19Z</time></trkpt>
<trkpt lat="37.573385" lon="126.954452"><ele>88.412628</ele><time>2026-07-05T08:14:24Z</time></trkpt>
<trkpt lat="37.573367" lon="126.954393"><ele>88.731779</ele><time>2026-07-05T08:14:30Z</time></trkpt>
<trkpt lat="37.573341" lon="126.95433"><ele>89.20566</ele><time>2026-07-05T08:14:35Z</time></trkpt>
<trkpt lat="37.573321" lon="126.954275"><ele>88.366511</ele><time>2026-07-05T08:14:39Z</time></trkpt>
<trkpt lat="37.573305" lon="126.954214"><ele>87.782095</ele><time>2026-07-05T08:14:43Z</time></trkpt>
<trkpt lat="37.57329" lon="126.954158"><ele>89.212417</ele><time>2026-07-05T08:14:47Z</time></trkpt>
<trkpt lat="37.573285" lon="126.954092"><ele>89.728988</ele><time>2026-07-05T08:14:52Z</time></trkpt>
<trkpt lat="37.573271" lon="126.954036"><ele>91.853901</ele><time>2026-07-05T08:15:02Z</time></trkpt>
<trkpt lat="37.573256" lon="126.95398"><ele>93.486812</ele><time>2026-07-05T08:15:10Z</time></trkpt>
<trkpt lat="37.573253" lon="126.953916"><ele>95.071589</ele><time>2026-07-05T08:15:17Z</time></trkpt>
<trkpt lat="37.573231" lon="126.953865"><ele>94.084483</ele><time>2026-07-05T08:15:26Z</time></trkpt>
<trkpt lat="37.573199" lon="126.953825"><ele>95.380127</ele><time>2026-07-05T08:15:33Z</time></trkpt>
<trkpt lat="37.573186" lon="126.953767"><ele>98.061989</ele><time>2026-07-05T08:15:41Z</time></trkpt>
<trkpt lat="37.573166" lon="126.953714"><ele>100.341513</ele><time>2026-07-05T08:15:49Z</time></trkpt>
<trkpt lat="37.573168" lon="126.953653"><ele>101.755477</ele><time>2026-07-05T08:15:59Z</time></trkpt>
<trkpt lat="37.573212" lon="126.953632"><ele>102.715527</ele><time>2026-07-05T08:16:26Z</time></trkpt>
<trkpt lat="37.573254" lon="126.953609"><ele>104.104523</ele><time>2026-07-05T08:16:31Z</time></trkpt>
<trkpt lat="37.573286" lon="126.953562"><ele>104.473652</ele><time>2026-07-05T08:16:36Z</time></trkpt>
<trkpt lat="37.5733" lon="126.953502"><ele>105.732319</ele><time>2026-07-05T08:16:43Z</time></trkpt>
<trkpt lat="37.573291" lon="126.95344"><ele>107.001305</ele><time>2026-07-05T08:16:51Z</time></trkpt>
<trkpt lat="37.573263" lon="126.953387"><ele>108.311551</ele><time>2026-07-05T08:16:58Z</time></trkpt>
<trkpt lat="37.573235" lon="126.953335"><ele>109.831414</ele><time>2026-07-05T08:17:06Z</time></trkpt>
<trkpt lat="37.573208" lon="126.953287"><ele>112.208101</ele><time>2026-07-05T08:17:12Z</time></trkpt>
<trkpt lat="37.573179" lon="126.953241"><ele>112.643724</ele><time>2026-07-05T08:17:16Z</time></trkpt>
<trkpt lat="37.573145" lon="126.953198"><ele>114.56321</ele><time>2026-07-05T08:17:22Z</time></trkpt>
<trkpt lat="37.573109" lon="126.953156"><ele>116.237536</ele><time>2026-07-05T08:17:28Z</time></trkpt>
<trkpt lat="37.573078" lon="126.953104"><ele>117.760321</ele><time>2026-07-05T08:17:34Z</time></trkpt>
<trkpt lat="37.573051" lon="126.953047"><ele>119.104393</ele><time>2026-07-05T08:17:40Z</time></trkpt>
<trkpt lat="37.573025" lon="126.952996"><ele>119.891774</ele><time>2026-07-05T08:17:47Z</time></trkpt>
<trkpt lat="37.573001" lon="126.952948"><ele>119.603866</ele><time>2026-07-05T08:17:53Z</time></trkpt>
<trkpt lat="37.572984" lon="126.952894"><ele>119.161397</ele><time>2026-07-05T08:17:59Z</time></trkpt>
<trkpt lat="37.572968" lon="126.952833"><ele>120.021531</ele><time>2026-07-05T08:18:05Z</time></trkpt>
<trkpt lat="37.57296" lon="126.952773"><ele>121.020325</ele><time>2026-07-05T08:18:10Z</time></trkpt>
<trkpt lat="37.572948" lon="126.952713"><ele>121.484044</ele><time>2026-07-05T08:18:15Z</time></trkpt>
<trkpt lat="37.572933" lon="126.952658"><ele>121.567213</ele><time>2026-07-05T08:18:20Z</time></trkpt>
<trkpt lat="37.572911" lon="126.952607"><ele>121.840682</ele><time>2026-07-05T08:18:25Z</time></trkpt>
<trkpt lat="37.572881" lon="126.952553"><ele>121.774299</ele><time>2026-07-05T08:18:31Z</time></trkpt>
<trkpt lat="37.572833" lon="126.952547"><ele>122.718447</ele><time>2026-07-05T08:18:40Z</time></trkpt>
<trkpt lat="37.572784" lon="126.952551"><ele>125.797168</ele><time>2026-07-05T08:18:51Z</time></trkpt>
<trkpt lat="37.572799" lon="126.952488"><ele>126.356408</ele><time>2026-07-05T08:19:07Z</time></trkpt>
<trkpt lat="37.572836" lon="126.952439"><ele>125.854165</ele><time>2026-07-05T08:19:12Z</time></trkpt>
<trkpt lat="37.572862" lon="126.952392"><ele>126.622996</ele><time>2026-07-05T08:19:16Z</time></trkpt>
<trkpt lat="37.572889" lon="126.952343"><ele>127.592844</ele><time>2026-07-05T08:19:20Z</time></trkpt>
<trkpt lat="37.572925" lon="126.952298"><ele>128.836982</ele><time>2026-07-05T08:19:25Z</time></trkpt>
<trkpt lat="37.572968" lon="126.952254"><ele>129.902521</ele><time>2026-07-05T08:19:30Z</time></trkpt>
<trkpt lat="37.572999" lon="126.952209"><ele>130.52168</ele><time>2026-07-05T08:19:35Z</time></trkpt>
<trkpt lat="37.573039" lon="126.952161"><ele>130.938157</ele><time>2026-07-05T08:19:39Z</time></trkpt>
<trkpt lat="37.573078" lon="126.952117"><ele>130.771572</ele><time>2026-07-05T08:19:44Z</time></trkpt>
<trkpt lat="37.573117" lon="126.952078"><ele>130.46866</ele><time>2026-07-05T08:19:49Z</time></trkpt>
<trkpt lat="37.573149" lon="126.952036"><ele>130.55237</ele><time>2026-07-05T08:19:53Z</time></trkpt>
<trkpt lat="37.573183" lon="126.951984"><ele>130.331233</ele><time>2026-07-05T08:19:58Z</time></trkpt>
<trkpt lat="37.573224" lon="126.95195"><ele>129.857501</ele><time>2026-07-05T08:20:02Z</time></trkpt>
<trkpt lat="37.573272" lon="126.951907"><ele>129.517749</ele><time>2026-07-05T08:20:06Z</time></trkpt>
<trkpt lat="37.573312" lon="126.951875"><ele>129.183609</ele><time>2026-07-05T08:20:10Z</time></trkpt>
<trkpt lat="37.573358" lon="126.951839"><ele>128.759991</ele><time>2026-07-05T08:20:15Z</time></trkpt>
<trkpt lat="37.573402" lon="126.95181"><ele>127.76148</ele><time>2026-07-05T08:20:19Z</time></trkpt>
<trkpt lat="37.573445" lon="126.951785"><ele>127.264004</ele><time>2026-07-05T08:20:22Z</time></trkpt>
<trkpt lat="37.573499" lon="126.951764"><ele>127.116842</ele><time>2026-07-05T08:20:27Z</time></trkpt>
<trkpt lat="37.573548" lon="126.95173"><ele>127.786642</ele><time>2026-07-05T08:20:32Z</time></trkpt>
<trkpt lat="37.573599" lon="126.95171"><ele>127.869133</ele><time>2026-07-05T08:20:37Z</time></trkpt>
<trkpt lat="37.573652" lon="126.951704"><ele>127.349819</ele><time>2026-07-05T08:20:42Z</time></trkpt>
<trkpt lat="37.573698" lon="126.951681"><ele>128.043814</ele><time>2026-07-05T08:20:47Z</time></trkpt>
<trkpt lat="37.573741" lon="126.951657"><ele>128.902203</ele><time>2026-07-05T08:20:51Z</time></trkpt>
<trkpt lat="37.573778" lon="126.95162"><ele>129.507974</ele><time>2026-07-05T08:20:55Z</time></trkpt>
<trkpt lat="37.573827" lon="126.95159"><ele>129.118362</ele><time>2026-07-05T08:21:00Z</time></trkpt>
<trkpt lat="37.573868" lon="126.951565"><ele>128.500854</ele><time>2026-07-05T08:21:04Z</time></trkpt>
<trkpt lat="37.573917" lon="126.951552"><ele>128.461846</ele><time>2026-07-05T08:21:08Z</time></trkpt>
<trkpt lat="37.573972" lon="126.951529"><ele>129.308578</ele><time>2026-07-05T08:21:13Z</time></trkpt>
<trkpt lat="37.574019" lon="126.95153"><ele>130.173887</ele><time>2026-07-05T08:21:16Z</time></trkpt>
<trkpt lat="37.574064" lon="126.951521"><ele>130.759998</ele><time>2026-07-05T08:21:20Z</time></trkpt>
<trkpt lat="37.574117" lon="126.951503"><ele>130.385288</ele><time>2026-07-05T08:21:25Z</time></trkpt>
<trkpt lat="37.574164" lon="126.951474"><ele>131.806381</ele><time>2026-07-05T08:21:30Z</time></trkpt>
<trkpt lat="37.574114" lon="126.951475"><ele>130.808909</ele><time>2026-07-05T08:21:38Z</time></trkpt>
<trkpt lat="37.574067" lon="126.95148"><ele>131.379423</ele><time>2026-07-05T08:21:43Z</time></trkpt>
<trkpt lat="37.574018" lon="126.951481"><ele>132.330878</ele><time>2026-07-05T08:21:48Z</time></trkpt>
<trkpt lat="37.573971" lon="126.951467"><ele>133.253086</ele><time>2026-07-05T08:21:53Z</time></trkpt>
<trkpt lat="37.573923" lon="126.951464"><ele>133.661861</ele><time>2026-07-05T08:21:57Z</time></trkpt>
<trkpt lat="37.57388" lon="126.951503"><ele>134.587807</ele><time>2026-07-05T08:22:02Z</time></trkpt>
<trkpt lat="37.573834" lon="126.951543"><ele>134.946271</ele><time>2026-07-05T08:22:07Z</time></trkpt>
<trkpt lat="37.573795" lon="126.951581"><ele>135.259654</ele><time>2026-07-05T08:22:12Z</time></trkpt>
<trkpt lat="37.573753" lon="126.95161"><ele>135.61089</ele><time>2026-07-05T08:22:16Z</time></trkpt>
<trkpt lat="37.573706" lon="126.951638"><ele>136.342252</ele><time>2026-07-05T08:22:21Z</time></trkpt>
<trkpt lat="37.573695" lon="126.951582"><ele>136.812923</ele><time>2026-07-05T08:22:29Z</time></trkpt>
<trkpt lat="37.573727" lon="126.95154"><ele>138.421147</ele><time>2026-07-05T08:22:33Z</time></trkpt>
<trkpt lat="37.573768" lon="126.951493"><ele>138.70409</ele><time>2026-07-05T08:22:38Z</time></trkpt>
<trkpt lat="37.57381" lon="126.951453"><ele>139.054367</ele><time>2026-07-05T08:22:43Z</time></trkpt>
<trkpt lat="37.573837" lon="126.951397"><ele>139.690584</ele><time>2026-07-05T08:22:48Z</time></trkpt>
<trkpt lat="37.573873" lon="126.951361"><ele>139.351804</ele><time>2026-07-05T08:22:53Z</time></trkpt>
<trkpt lat="37.573912" lon="126.951313"><ele>140.288142</ele><time>2026-07-05T08:22:59Z</time></trkpt>
<trkpt lat="37.57396" lon="126.951287"><ele>141.027036</ele><time>2026-07-05T08:23:04Z</time></trkpt>
<trkpt lat="37.574008" lon="126.951269"><ele>141.856491</ele><time>2026-07-05T08:23:09Z</time></trkpt>
<trkpt lat="37.574054" lon="126.951246"><ele>142.390977</ele><time>2026-07-05T08:23:14Z</time></trkpt>
<trkpt lat="37.574059" lon="126.951187"><ele>142.217149</ele><time>2026-07-05T08:23:20Z</time></trkpt>
<trkpt lat="37.574049" lon="126.951125"><ele>142.242323</ele><time>2026-07-05T08:23:24Z</time></trkpt>
<trkpt lat="37.574024" lon="126.951075"><ele>142.580657</ele><time>2026-07-05T08:23:29Z</time></trkpt>
<trkpt lat="37.574006" lon="126.951022"><ele>142.981218</ele><time>2026-07-05T08:23:33Z</time></trkpt>
<trkpt lat="37.574" lon="126.950958"><ele>142.3299</ele><time>2026-07-05T08:23:37Z</time></trkpt>
<trkpt lat="37.573996" lon="126.950894"><ele>142.49102</ele><time>2026-07-05T08:23:41Z</time></trkpt>
<trkpt lat="37.574011" lon="126.950837"><ele>141.630792</ele><time>2026-07-05T08:23:45Z</time></trkpt>
<trkpt lat="37.574037" lon="126.950774"><ele>141.568797</ele><time>2026-07-05T08:23:51Z</time></trkpt>
<trkpt lat="37.574067" lon="126.950732"><ele>141.633095</ele><time>2026-07-05T08:23:56Z</time></trkpt>
<trkpt lat="37.574099" lon="126.950676"><ele>141.989139</ele><time>2026-07-05T08:24:02Z</time></trkpt>
<trkpt lat="37.574145" lon="126.95064"><ele>142.499033</ele><time>2026-07-05T08:24:06Z</time></trkpt>
<trkpt lat="37.574193" lon="126.950624"><ele>143.875591</ele><time>2026-07-05T08:24:10Z</time></trkpt>
<trkpt lat="37.574245" lon="126.950609"><ele>143.82098</ele><time>2026-07-05T08:24:15Z</time></trkpt>
<trkpt lat="37.574294" lon="126.95061"><ele>145.185588</ele><time>2026-07-05T08:24:19Z</time></trkpt>
<trkpt lat="37.574343" lon="126.950614"><ele>145.832165</ele><time>2026-07-05T08:24:23Z</time></trkpt>
<trkpt lat="37.574399" lon="126.950628"><ele>146.133748</ele><time>2026-07-05T08:24:28Z</time></trkpt>
<trkpt lat="37.574445" lon="126.950629"><ele>145.549305</ele><time>2026-07-05T08:24:32Z</time></trkpt>
<trkpt lat="37.574501" lon="126.950648"><ele>145.342294</ele><time>2026-07-05T08:24:37Z</time></trkpt>
<trkpt lat="37.574555" lon="126.950653"><ele>146.163138</ele><time>2026-07-05T08:24:42Z</time></trkpt>
<trkpt lat="37.57461" lon="126.950684"><ele>148.151238</ele><time>2026-07-05T08:24:47Z</time></trkpt>
<trkpt lat="37.574658" lon="126.950694"><ele>149.373262</ele><time>2026-07-05T08:24:51Z</time></trkpt>
<trkpt lat="37.574705" lon="126.950697"><ele>148.397443</ele><time>2026-07-05T08:24:55Z</time></trkpt>
<trkpt lat="37.574756" lon="126.950695"><ele>149.288832</ele><time>2026-07-05T08:24:59Z</time></trkpt>
<trkpt lat="37.574805" lon="126.950669"><ele>148.08626</ele><time>2026-07-05T08:25:04Z</time></trkpt>
<trkpt lat="37.574831" lon="126.950621"><ele>147.953245</ele><time>2026-07-05T08:25:09Z</time></trkpt>
<trkpt lat="37.574886" lon="126.950599"><ele>147.311033</ele><time>2026-07-05T08:25:14Z</time></trkpt>
<trkpt lat="37.574937" lon="126.95058"><ele>147.436301</ele><time>2026-07-05T08:25:17Z</time></trkpt>
<trkpt lat="37.574964" lon="126.95052"><ele>145.327364</ele><time>2026-07-05T08:25:22Z</time></trkpt>
<trkpt lat="37.574989" lon="126.950469"><ele>145.624685</ele><time>2026-07-05T08:25:26Z</time></trkpt>
<trkpt lat="37.575026" lon="126.950417"><ele>146.408736</ele><time>2026-07-05T08:25:31Z</time></trkpt>
<trkpt lat="37.575054" lon="126.950367"><ele>146.329103</ele><time>2026-07-05T08:25:36Z</time></trkpt>
<trkpt lat="37.575072" lon="126.950308"><ele>145.423496</ele><time>2026-07-05T08:25:40Z</time></trkpt>
<trkpt lat="37.575103" lon="126.950263"><ele>144.536993</ele><time>2026-07-05T08:25:45Z</time></trkpt>
<trkpt lat="37.57515" lon="126.950271"><ele>144.50513</ele><time>2026-07-05T08:25:48Z</time></trkpt>
<trkpt lat="37.575191" lon="126.950308"><ele>145.067316</ele><time>2026-07-05T08:25:51Z</time></trkpt>
<trkpt lat="37.575236" lon="126.950346"><ele>145.426741</ele><time>2026-07-05T08:25:56Z</time></trkpt>
<trkpt lat="37.575278" lon="126.950382"><ele>145.370696</ele><time>2026-07-05T08:26:00Z</time></trkpt>
<trkpt lat="37.575319" lon="126.950425"><ele>145.376831</ele><time>2026-07-05T08:26:04Z</time></trkpt>
<trkpt lat="37.575348" lon="126.950484"><ele>145.631093</ele><time>2026-07-05T08:26:09Z</time></trkpt>
<trkpt lat="37.575364" lon="126.950551"><ele>145.094296</ele><time>2026-07-05T08:26:14Z</time></trkpt>
<trkpt lat="37.575378" lon="126.950609"><ele>145.594396</ele><time>2026-07-05T08:26:18Z</time></trkpt>
<trkpt lat="37.575421" lon="126.95065"><ele>146.916332</ele><time>2026-07-05T08:26:23Z</time></trkpt>
<trkpt lat="37.575462" lon="126.950684"><ele>148.613853</ele><time>2026-07-05T08:26:28Z</time></trkpt>
<trkpt lat="37.575513" lon="126.950668"><ele>148.391906</ele><time>2026-07-05T08:26:32Z</time></trkpt>
<trkpt lat="37.575556" lon="126.950628"><ele>147.923475</ele><time>2026-07-05T08:26:37Z</time></trkpt>
<trkpt lat="37.575608" lon="126.950654"><ele>147.267478</ele><time>2026-07-05T08:26:42Z</time></trkpt>
<trkpt lat="37.575647" lon="126.950688"><ele>146.545132</ele><time>2026-07-05T08:26:46Z</time></trkpt>
<trkpt lat="37.575688" lon="126.950721"><ele>146.062303</ele><time>2026-07-05T08:26:50Z</time></trkpt>
<trkpt lat="37.575727" lon="126.950756"><ele>145.682935</ele><time>2026-07-05T08:26:55Z</time></trkpt>
<trkpt lat="37.575765" lon="126.950791"><ele>144.681272</ele><time>2026-07-05T08:26:59Z</time></trkpt>
<trkpt lat="37.575797" lon="126.950834"><ele>144.855795</ele><time>2026-07-05T08:27:03Z</time></trkpt>
<trkpt lat="37.575837" lon="126.950872"><ele>145.366883</ele><time>2026-07-05T08:27:09Z</time></trkpt>
<trkpt lat="37.575867" lon="126.950937"><ele>145.684775</ele><time>2026-07-05T08:27:14Z</time></trkpt>
<trkpt lat="37.575866" lon="126.950994"><ele>146.651278</ele><time>2026-07-05T08:27:17Z</time></trkpt>
<trkpt lat="37.575874" lon="126.951058"><ele>146.740084</ele><time>2026-07-05T08:27:21Z</time></trkpt>
<trkpt lat="37.575885" lon="126.951123"><ele>146.917924</ele><time>2026-07-05T08:27:25Z</time></trkpt>
<trkpt lat="37.57591" lon="126.95118"><ele>145.632339</ele><time>2026-07-05T08:27:30Z</time></trkpt>
<trkpt lat="37.575902" lon="126.951238"><ele>147.377225</ele><time>2026-07-05T08:27:34Z</time></trkpt>
<trkpt lat="37.575868" lon="126.951285"><ele>147.311504</ele><time>2026-07-05T08:27:38Z</time></trkpt>
<trkpt lat="37.57585" lon="126.95134"><ele>146.957267</ele><time>2026-07-05T08:27:42Z</time></trkpt>
<trkpt lat="37.575874" lon="126.951392"><ele>146.664045</ele><time>2026-07-05T08:27:47Z</time></trkpt>
<trkpt lat="37.575925" lon="126.951394"><ele>146.947245</ele><time>2026-07-05T08:27:51Z</time></trkpt>
<trkpt lat="37.575971" lon="126.951393"><ele>147.036954</ele><time>2026-07-05T08:27:55Z</time></trkpt>
<trkpt lat="37.576022" lon="126.951414"><ele>146.21145</ele><time>2026-07-05T08:27:59Z</time></trkpt>
<trkpt lat="37.576069" lon="126.951429"><ele>146.385971</ele><time>2026-07-05T08:28:03Z</time></trkpt>
<trkpt lat="37.576116" lon="126.951442"><ele>146.343403</ele><time>2026-07-05T08:28:07Z</time></trkpt>
<trkpt lat="37.576169" lon="126.951462"><ele>145.630812</ele><time>2026-07-05T08:28:12Z</time></trkpt>
<trkpt lat="37.576216" lon="126.951434"><ele>145.618514</ele><time>2026-07-05T08:28:17Z</time></trkpt>
<trkpt lat="37.576245" lon="126.951385"><ele>144.861229</ele><time>2026-07-05T08:28:22Z</time></trkpt>
<trkpt lat="37.576281" lon="126.951343"><ele>144.217758</ele><time>2026-07-05T08:28:26Z</time></trkpt>
<trkpt lat="37.576334" lon="126.951329"><ele>144.792368</ele><time>2026-07-05T08:28:31Z</time></trkpt>
<trkpt lat="37.576387" lon="126.951362"><ele>144.45671</ele><time>2026-07-05T08:28:35Z</time></trkpt>
<trkpt lat="37.576422" lon="126.95142"><ele>143.98024</ele><time>2026-07-05T08:28:39Z</time></trkpt>
<trkpt lat="37.576439" lon="126.951478"><ele>143.222835</ele><time>2026-07-05T08:28:43Z</time></trkpt>
<trkpt lat="37.576455" lon="126.951536"><ele>142.396231</ele><time>2026-07-05T08:28:47Z</time></trkpt>
<trkpt lat="37.576474" lon="126.951594"><ele>141.438443</ele><time>2026-07-05T08:28:51Z</time></trkpt>
<trkpt lat="37.576505" lon="126.951646"><ele>141.172186</ele><time>2026-07-05T08:28:54Z</time></trkpt>
<trkpt lat="37.576532" lon="126.951693"><ele>141.156668</ele><time>2026-07-05T08:28:58Z</time></trkpt>
<trkpt lat="37.576582" lon="126.951719"><ele>141.708984</ele><time>2026-07-05T08:29:03Z</time></trkpt>
<trkpt lat="37.576636" lon="126.951709"><ele>141.153879</ele><time>2026-07-05T08:29:08Z</time></trkpt>
<trkpt lat="37.576688" lon="126.951703"><ele>140.46406</ele><time>2026-07-05T08:29:12Z</time></trkpt>
<trkpt lat="37.576737" lon="126.951716"><ele>139.35965</ele><time>2026-07-05T08:29:16Z</time></trkpt>
<trkpt lat="37.576784" lon="126.951724"><ele>138.097155</ele><time>2026-07-05T08:29:20Z</time></trkpt>
<trkpt lat="37.576832" lon="126.951725"><ele>137.710669</ele><time>2026-07-05T08:29:24Z</time></trkpt>
<trkpt lat="37.57688" lon="126.951741"><ele>136.514977</ele><time>2026-07-05T08:29:28Z</time></trkpt>
<trkpt lat="37.576929" lon="126.951753"><ele>135.302161</ele><time>2026-07-05T08:29:32Z</time></trkpt>
<trkpt lat="37.576981" lon="126.951766"><ele>136.284699</ele><time>2026-07-05T08:29:36Z</time></trkpt>
<trkpt lat="37.577031" lon="126.951772"><ele>135.369447</ele><time>2026-07-05T08:29:40Z</time></trkpt>
<trkpt lat="37.577076" lon="126.951761"><ele>135.645421</ele><time>2026-07-05T08:29:44Z</time></trkpt>
<trkpt lat="37.577124" lon="126.951745"><ele>135.452321</ele><time>2026-07-05T08:29:48Z</time></trkpt>
<trkpt lat="37.57715" lon="126.951694"><ele>136.176433</ele><time>2026-07-05T08:29:53Z</time></trkpt>
<trkpt lat="37.577115" lon="126.951656"><ele>135.730052</ele><time>2026-07-05T08:30:22Z</time></trkpt>
<trkpt lat="37.577075" lon="126.951621"><ele>136.621172</ele><time>2026-07-05T08:30:31Z</time></trkpt>
<trkpt lat="37.577047" lon="126.951571"><ele>139.294273</ele><time>2026-07-05T08:30:37Z</time></trkpt>
<trkpt lat="37.57702" lon="126.951524"><ele>140.17389</ele><time>2026-07-05T08:30:43Z</time></trkpt>
<trkpt lat="37.576997" lon="126.951471"><ele>140.701588</ele><time>2026-07-05T08:30:49Z</time></trkpt>
<trkpt lat="37.576963" lon="126.951427"><ele>141.225231</ele><time>2026-07-05T08:30:55Z</time></trkpt>
<trkpt lat="37.576929" lon="126.951386"><ele>142.140006</ele><time>2026-07-05T08:31:01Z</time></trkpt>
<trkpt lat="37.576884" lon="126.951387"><ele>143.238027</ele><time>2026-07-05T08:31:09Z</time></trkpt>
<trkpt lat="37.576841" lon="126.95136"><ele>145.78723</ele><time>2026-07-05T08:31:17Z</time></trkpt>
<trkpt lat="37.576797" lon="126.951334"><ele>146.928249</ele><time>2026-07-05T08:31:24Z</time></trkpt>
<trkpt lat="37.576756" lon="126.951307"><ele>149.467785</ele><time>2026-07-05T08:31:31Z</time></trkpt>
<trkpt lat="37.576709" lon="126.951295"><ele>150.416545</ele><time>2026-07-05T08:31:38Z</time></trkpt>
<trkpt lat="37.576684" lon="126.951244"><ele>151.607807</ele><time>2026-07-05T08:31:44Z</time></trkpt>
<trkpt lat="37.576661" lon="126.951187"><ele>152.617333</ele><time>2026-07-05T08:31:51Z</time></trkpt>
<trkpt lat="37.576626" lon="126.951142"><ele>153.503002</ele><time>2026-07-05T08:32:05Z</time></trkpt>
<trkpt lat="37.576604" lon="126.95109"><ele>154.804044</ele><time>2026-07-05T08:32:10Z</time></trkpt>
<trkpt lat="37.576553" lon="126.95108"><ele>157.902603</ele><time>2026-07-05T08:32:18Z</time></trkpt>
<trkpt lat="37.576546" lon="126.951023"><ele>158.349195</ele><time>2026-07-05T08:32:48Z</time></trkpt>
<trkpt lat="37.576497" lon="126.951005"><ele>159.145312</ele><time>2026-07-05T08:32:52Z</time></trkpt>
<trkpt lat="37.57647" lon="126.950954"><ele>160.227585</ele><time>2026-07-05T08:32:57Z</time></trkpt>
<trkpt lat="37.576451" lon="126.950893"><ele>160.114462</ele><time>2026-07-05T08:33:02Z</time></trkpt>
<trkpt lat="37.576448" lon="126.950833"><ele>160.608668</ele><time>2026-07-05T08:33:06Z</time></trkpt>
<trkpt lat="37.576443" lon="126.950774"><ele>160.767541</ele><time>2026-07-05T08:33:10Z</time></trkpt>
<trkpt lat="37.576426" lon="126.950718"><ele>164.392495</ele><time>2026-07-05T08:33:49Z</time></trkpt>
<trkpt lat="37.576385" lon="126.950685"><ele>165.532737</ele><time>2026-07-05T08:33:53Z</time></trkpt>
<trkpt lat="37.576334" lon="126.950647"><ele>166.291915</ele><time>2026-07-05T08:33:58Z</time></trkpt>
<trkpt lat="37.576291" lon="126.950617"><ele>166.366054</ele><time>2026-07-05T08:34:02Z</time></trkpt>
<trkpt lat="37.576275" lon="126.950557"><ele>166.934762</ele><time>2026-07-05T08:34:06Z</time></trkpt>
<trkpt lat="37.576298" lon="126.950506"><ele>167.40347</ele><time>2026-07-05T08:34:11Z</time></trkpt>
<trkpt lat="37.57631" lon="126.950439"><ele>168.211967</ele><time>2026-07-05T08:34:16Z</time></trkpt>
<trkpt lat="37.576298" lon="126.950383"><ele>169.265074</ele><time>2026-07-05T08:34:21Z</time></trkpt>
<trkpt lat="37.576274" lon="126.95033"><ele>169.457728</ele><time>2026-07-05T08:34:26Z</time></trkpt>
<trkpt lat="37.576237" lon="126.95028"><ele>169.758508</ele><time>2026-07-05T08:34:32Z</time></trkpt>
<trkpt lat="37.576201" lon="126.950245"><ele>172.046252</ele><time>2026-07-05T08:34:38Z</time></trkpt>
<trkpt lat="37.576159" lon="126.950209"><ele>175.023126</ele><time>2026-07-05T08:34:45Z</time></trkpt>
<trkpt lat="37.576113" lon="126.950197"><ele>177.166085</ele><time>2026-07-05T08:34:52Z</time></trkpt>
<trkpt lat="37.576066" lon="126.95017"><ele>176.686214</ele><time>2026-07-05T08:34:59Z</time></trkpt>
<trkpt lat="37.576021" lon="126.950151"><ele>177.943991</ele><time>2026-07-05T08:35:04Z</time></trkpt>
<trkpt lat="37.575983" lon="126.950115"><ele>179.817072</ele><time>2026-07-05T08:35:09Z</time></trkpt>
<trkpt lat="37.575932" lon="126.950095"><ele>181.732658</ele><time>2026-07-05T08:35:16Z</time></trkpt>
<trkpt lat="37.575882" lon="126.950079"><ele>181.666476</ele><time>2026-07-05T08:35:21Z</time></trkpt>
<trkpt lat="37.575835" lon="126.950067"><ele>182.325678</ele><time>2026-07-05T08:35:26Z</time></trkpt>
<trkpt lat="37.575796" lon="126.950035"><ele>183.052209</ele><time>2026-07-05T08:35:30Z</time></trkpt>
<trkpt lat="37.575753" lon="126.950014"><ele>183.174319</ele><time>2026-07-05T08:35:34Z</time></trkpt>
<trkpt lat="37.575706" lon="126.95002"><ele>182.830344</ele><time>2026-07-05T08:35:39Z</time></trkpt>
<trkpt lat="37.57566" lon="126.950006"><ele>184.294009</ele><time>2026-07-05T08:35:46Z</time></trkpt>
<trkpt lat="37.57562" lon="126.949975"><ele>184.675196</ele><time>2026-07-05T08:35:50Z</time></trkpt>
<trkpt lat="37.575594" lon="126.949919"><ele>184.878092</ele><time>2026-07-05T08:35:55Z</time></trkpt>
<trkpt lat="37.575564" lon="126.949876"><ele>184.198644</ele><time>2026-07-05T08:35:59Z</time></trkpt>
<trkpt lat="37.575535" lon="126.949818"><ele>185.010317</ele><time>2026-07-05T08:36:04Z</time></trkpt>
<trkpt lat="37.575523" lon="126.949763"><ele>185.451115</ele><time>2026-07-05T08:36:09Z</time></trkpt>
<trkpt lat="37.575486" lon="126.949721"><ele>186.047357</ele><time>2026-07-05T08:36:14Z</time></trkpt>
<trkpt lat="37.575444" lon="126.949694"><ele>186.526892</ele><time>2026-07-05T08:36:19Z</time></trkpt>
<trkpt lat="37.575404" lon="126.949667"><ele>186.405649</ele><time>2026-07-05T08:36:23Z</time></trkpt>
<trkpt lat="37.575397" lon="126.94961"><ele>187.158668</ele><time>2026-07-05T08:36:31Z</time></trkpt>
<trkpt lat="37.575366" lon="126.949564"><ele>187.575751</ele><time>2026-07-05T08:36:36Z</time></trkpt>
<trkpt lat="37.575327" lon="126.949535"><ele>185.994097</ele><time>2026-07-05T08:36:43Z</time></trkpt>
<trkpt lat="37.575297" lon="126.949476"><ele>185.705965</ele><time>2026-07-05T08:36:48Z</time></trkpt>
<trkpt lat="37.575267" lon="126.949427"><ele>186.579045</ele><time>2026-07-05T08:36:55Z</time></trkpt>
<trkpt lat="37.575226" lon="126.9494"><ele>186.319381</ele><time>2026-07-05T08:36:59Z</time></trkpt>
<trkpt lat="37.575179" lon="126.949383"><ele>187.236112</ele><time>2026-07-05T08:37:06Z</time></trkpt>
<trkpt lat="37.575128" lon="126.949366"><ele>186.602976</ele><time>2026-07-05T08:37:10Z</time></trkpt>
<trkpt lat="37.575073" lon="126.949365"><ele>187.007614</ele><time>2026-07-05T08:37:15Z</time></trkpt>
<trkpt lat="37.575017" lon="126.949364"><ele>188.030179</ele><time>2026-07-05T08:37:21Z</time></trkpt>
<trkpt lat="37.574979" lon="126.949323"><ele>188.786275</ele><time>2026-07-05T08:37:28Z</time></trkpt>
<trkpt lat="37.574946" lon="126.949269"><ele>190.085345</ele><time>2026-07-05T08:37:36Z</time></trkpt>
<trkpt lat="37.574907" lon="126.949236"><ele>191.210618</ele><time>2026-07-05T08:37:42Z</time></trkpt>
<trkpt lat="37.574894" lon="126.94918"><ele>192.560116</ele><time>2026-07-05T08:37:49Z</time></trkpt>
<trkpt lat="37.57488" lon="126.949126"><ele>195.260231</ele><time>2026-07-05T08:37:59Z</time></trkpt>
<trkpt lat="37.574859" lon="126.949074"><ele>195.961763</ele><time>2026-07-05T08:38:05Z</time></trkpt>
<trkpt lat="37.574901" lon="126.949038"><ele>197.514267</ele><time>2026-07-05T08:38:49Z</time></trkpt>
<trkpt lat="37.574949" lon="126.949041"><ele>198.427122</ele><time>2026-07-05T08:38:54Z</time></trkpt>
<trkpt lat="37.574994" lon="126.949018"><ele>200.151829</ele><time>2026-07-05T08:38:59Z</time></trkpt>
<trkpt lat="37.575043" lon="126.949042"><ele>200.881501</ele><time>2026-07-05T08:39:11Z</time></trkpt>
<trkpt lat="37.575079" lon="126.949088"><ele>200.809712</ele><time>2026-07-05T08:39:16Z</time></trkpt>
<trkpt lat="37.57513" lon="126.949073"><ele>199.990341</ele><time>2026-07-05T08:39:22Z</time></trkpt>
<trkpt lat="37.575151" lon="126.949009"><ele>200.705004</ele><time>2026-07-05T08:39:27Z</time></trkpt>
<trkpt lat="37.575174" lon="126.948955"><ele>201.671008</ele><time>2026-07-05T08:39:32Z</time></trkpt>
<trkpt lat="37.57521" lon="126.948912"><ele>203.29539</ele><time>2026-07-05T08:39:37Z</time></trkpt>
<trkpt lat="37.575258" lon="126.948918"><ele>204.747479</ele><time>2026-07-05T08:39:42Z</time></trkpt>
<trkpt lat="37.5753" lon="126.948937"><ele>206.482956</ele><time>2026-07-05T08:39:47Z</time></trkpt>
<trkpt lat="37.575352" lon="126.948933"><ele>207.744918</ele><time>2026-07-05T08:39:54Z</time></trkpt>
<trkpt lat="37.575398" lon="126.948943"><ele>207.11239</ele><time>2026-07-05T08:39:58Z</time></trkpt>
<trkpt lat="37.575445" lon="126.948945"><ele>207.641239</ele><time>2026-07-05T08:40:03Z</time></trkpt>
<trkpt lat="37.575501" lon="126.948971"><ele>207.360769</ele><time>2026-07-05T08:40:09Z</time></trkpt>
<trkpt lat="37.575548" lon="126.949001"><ele>209.147713</ele><time>2026-07-05T08:40:15Z</time></trkpt>
<trkpt lat="37.575599" lon="126.948995"><ele>212.620511</ele><time>2026-07-05T08:40:25Z</time></trkpt>
<trkpt lat="37.575629" lon="126.948945"><ele>213.348395</ele><time>2026-07-05T08:40:30Z</time></trkpt>
<trkpt lat="37.575659" lon="126.948896"><ele>215.022989</ele><time>2026-07-05T08:40:38Z</time></trkpt>
<trkpt lat="37.575665" lon="126.94884"><ele>215.923615</ele><time>2026-07-05T08:40:46Z</time></trkpt>
<trkpt lat="37.575678" lon="126.948785"><ele>215.9048</ele><time>2026-07-05T08:40:51Z</time></trkpt>
<trkpt lat="37.575706" lon="126.948732"><ele>217.733231</ele><time>2026-07-05T08:40:58Z</time></trkpt>
<trkpt lat="37.575754" lon="126.948716"><ele>218.00478</ele><time>2026-07-05T08:41:05Z</time></trkpt>
<trkpt lat="37.575752" lon="126.948778"><ele>219.224902</ele><time>2026-07-05T08:41:15Z</time></trkpt>
<trkpt lat="37.575779" lon="126.948825"><ele>219.91775</ele><time>2026-07-05T08:41:54Z</time></trkpt>
</trkseg>
<trkseg>
<trkpt lat="37.575779" lon="126.948825"><ele>219.91775</ele><time>2026-07-05T08:45:34Z</time></trkpt>
<trkpt lat="37.575764" lon="126.948651"><ele>217.243796</ele><time>2026-07-05T08:45:41Z</time></trkpt>
<trkpt lat="37.575783" lon="126.948597"><ele>218.390708</ele><time>2026-07-05T08:45:45Z</time></trkpt>
<trkpt lat="37.575783" lon="126.948539"><ele>218.017939</ele><time>2026-07-05T08:45:50Z</time></trkpt>
<trkpt lat="37.575792" lon="126.948479"><ele>218.454723</ele><time>2026-07-05T08:45:55Z</time></trkpt>
<trkpt lat="37.575821" lon="126.948429"><ele>218.545967</ele><time>2026-07-05T08:46:00Z</time></trkpt>
<trkpt lat="37.575838" lon="126.948377"><ele>220.087894</ele><time>2026-07-05T08:46:05Z</time></trkpt>
<trkpt lat="37.575855" lon="126.948317"><ele>221.782706</ele><time>2026-07-05T08:46:13Z</time></trkpt>
<trkpt lat="37.575871" lon="126.948262"><ele>223.913199</ele><time>2026-07-05T08:46:24Z</time></trkpt>
<trkpt lat="37.575909" lon="126.948226"><ele>224.315131</ele><time>2026-07-05T08:46:31Z</time></trkpt>
<trkpt lat="37.575943" lon="126.948175"><ele>224.405202</ele><time>2026-07-05T08:46:39Z</time></trkpt>
<trkpt lat="37.575982" lon="126.94814"><ele>226.231425</ele><time>2026-07-05T08:46:46Z</time></trkpt>
<trkpt lat="37.576024" lon="126.94811"><ele>230.047689</ele><time>2026-07-05T08:46:55Z</time></trkpt>
<trkpt lat="37.576062" lon="126.948069"><ele>232.611225</ele><time>2026-07-05T08:47:03Z</time></trkpt>
<trkpt lat="37.57608" lon="126.948008"><ele>233.11635</ele><time>2026-07-05T08:47:13Z</time></trkpt>
<trkpt lat="37.576132" lon="126.94799"><ele>235.013066</ele><time>2026-07-05T08:47:21Z</time></trkpt>
<trkpt lat="37.576163" lon="126.947946"><ele>236.219004</ele><time>2026-07-05T08:47:28Z</time></trkpt>
<trkpt lat="37.576197" lon="126.947907"><ele>237.91213</ele><time>2026-07-05T08:47:35Z</time></trkpt>
<trkpt lat="37.576161" lon="126.947872"><ele>240.027018</ele><time>2026-07-05T08:47:44Z</time></trkpt>
<trkpt lat="37.57612" lon="126.947843"><ele>242.080197</ele><time>2026-07-05T08:47:54Z</time></trkpt>
<trkpt lat="37.576072" lon="126.947834"><ele>244.610379</ele><time>2026-07-05T08:48:04Z</time></trkpt>
<trkpt lat="37.576037" lon="126.947872"><ele>245.962989</ele><time>2026-07-05T08:48:12Z</time></trkpt>
<trkpt lat="37.576006" lon="126.947827"><ele>248.717331</ele><time>2026-07-05T08:48:57Z</time></trkpt>
<trkpt lat="37.576018" lon="126.947767"><ele>249.634937</ele><time>2026-07-05T08:49:05Z</time></trkpt>
<trkpt lat="37.576034" lon="126.947706"><ele>252.951891</ele><time>2026-07-05T08:49:15Z</time></trkpt>
<trkpt lat="37.576076" lon="126.947678"><ele>254.393428</ele><time>2026-07-05T08:49:21Z</time></trkpt>
<trkpt lat="37.57612" lon="126.947649"><ele>254.875441</ele><time>2026-07-05T08:49:28Z</time></trkpt>
<trkpt lat="37.576161" lon="126.947611"><ele>256.091542</ele><time>2026-07-05T08:49:35Z</time></trkpt>
<trkpt lat="37.576186" lon="126.94756"><ele>257.701206</ele><time>2026-07-05T08:49:43Z</time></trkpt>
<trkpt lat="37.576194" lon="126.947497"><ele>260.802712</ele><time>2026-07-05T08:49:54Z</time></trkpt>
<trkpt lat="37.576193" lon="126.947439"><ele>261.916457</ele><time>2026-07-05T08:50:02Z</time></trkpt>
<trkpt lat="37.576229" lon="126.9474"><ele>264.454073</ele><time>2026-07-05T08:50:13Z</time></trkpt>
<trkpt lat="37.576269" lon="126.947374"><ele>264.36769</ele><time>2026-07-05T08:50:21Z</time></trkpt>
<trkpt lat="37.57631" lon="126.947349"><ele>265.551359</ele><time>2026-07-05T08:50:28Z</time></trkpt>
<trkpt lat="37.576344" lon="126.947306"><ele>267.878883</ele><time>2026-07-05T08:50:37Z</time></trkpt>
<trkpt lat="37.576378" lon="126.947264"><ele>269.271255</ele><time>2026-07-05T08:50:45Z</time></trkpt>
<trkpt lat="37.576413" lon="126.947225"><ele>271.437822</ele><time>2026-07-05T08:50:53Z</time></trkpt>
<trkpt lat="37.576449" lon="126.947191"><ele>272.946369</ele><time>2026-07-05T08:51:01Z</time></trkpt>
<trkpt lat="37.57649" lon="126.947165"><ele>275.658726</ele><time>2026-07-05T08:51:08Z</time></trkpt>
<trkpt lat="37.576526" lon="126.94713"><ele>278.237776</ele><time>2026-07-05T08:51:16Z</time></trkpt>
<trkpt lat="37.576561" lon="126.947089"><ele>279.505322</ele><time>2026-07-05T08:51:24Z</time></trkpt>
<trkpt lat="37.576588" lon="126.947043"><ele>281.158123</ele><time>2026-07-05T08:51:31Z</time></trkpt>
<trkpt lat="37.576623" lon="126.947"><ele>281.763007</ele><time>2026-07-05T08:51:38Z</time></trkpt>
<trkpt lat="37.576648" lon="126.946944"><ele>282.564847</ele><time>2026-07-05T08:51:44Z</time></trkpt>
<trkpt lat="37.576673" lon="126.946889"><ele>282.792369</ele><time>2026-07-05T08:51:51Z</time></trkpt>
<trkpt lat="37.5767" lon="126.946833"><ele>283.979276</ele><time>2026-07-05T08:51:58Z</time></trkpt>
<trkpt lat="37.576729" lon="126.94678"><ele>285.365327</ele><time>2026-07-05T08:52:05Z</time></trkpt>
<trkpt lat="37.576769" lon="126.946825"><ele>284.513895</ele><time>2026-07-05T08:52:12Z</time></trkpt>
<trkpt lat="37.576814" lon="126.946865"><ele>285.153717</ele><time>2026-07-05T08:52:19Z</time></trkpt>
<trkpt lat="37.576855" lon="126.946893"><ele>285.179805</ele><time>2026-07-05T08:52:24Z</time></trkpt>
<trkpt lat="37.576865" lon="126.946948"><ele>286.557492</ele><time>2026-07-05T08:52:29Z</time></trkpt>
<trkpt lat="37.576875" lon="126.947015"><ele>288.544253</ele><time>2026-07-05T08:52:35Z</time></trkpt>
<trkpt lat="37.576882" lon="126.947074"><ele>290.257045</ele><time>2026-07-05T08:52:44Z</time></trkpt>
<trkpt lat="37.576868" lon="126.947133"><ele>294.61401</ele><time>2026-07-05T08:52:58Z</time></trkpt>
<trkpt lat="37.57691" lon="126.947157"><ele>294.682852</ele><time>2026-07-05T08:53:12Z</time></trkpt>
<trkpt lat="37.576868" lon="126.947182"><ele>295.88308</ele><time>2026-07-05T08:53:20Z</time></trkpt>
<trkpt lat="37.576857" lon="126.947238"><ele>295.054599</ele><time>2026-07-05T08:53:28Z</time></trkpt>
<trkpt lat="37.576817" lon="126.947272"><ele>294.710464</ele><time>2026-07-05T08:55:28Z</time></trkpt>
</trkseg>
<trkseg>
<trkpt lat="37.576817" lon="126.947272"><ele>294.710464</ele><time>2026-07-05T08:58:06Z</time></trkpt>
<trkpt lat="37.576855" lon="126.947186"><ele>292.369567</ele><time>2026-07-05T08:59:04Z</time></trkpt>
<trkpt lat="37.576803" lon="126.947191"><ele>292.622352</ele><time>2026-07-05T08:59:13Z</time></trkpt>
<trkpt lat="37.57684" lon="126.947154"><ele>293.287224</ele><time>2026-07-05T08:59:47Z</time></trkpt>
<trkpt lat="37.576831" lon="126.94721"><ele>294.253747</ele><time>2026-07-05T08:59:56Z</time></trkpt>
<trkpt lat="37.57681" lon="126.947265"><ele>295.893652</ele><time>2026-07-05T09:00:27Z</time></trkpt>
</trkseg>
<trkseg>
<trkpt lat="37.57681" lon="126.947265"><ele>295.893652</ele><time>2026-07-05T09:11:05Z</time></trkpt>
<trkpt lat="37.57687" lon="126.947199"><ele>298.347263</ele><time>2026-07-05T09:11:17Z</time></trkpt>
<trkpt lat="37.576858" lon="126.94714"><ele>297.463316</ele><time>2026-07-05T09:11:26Z</time></trkpt>
<trkpt lat="37.576852" lon="126.947078"><ele>293.582473</ele><time>2026-07-05T09:11:43Z</time></trkpt>
<trkpt lat="37.576838" lon="126.947022"><ele>293.482432</ele><time>2026-07-05T09:11:48Z</time></trkpt>
<trkpt lat="37.576828" lon="126.946961"><ele>293.087987</ele><time>2026-07-05T09:11:53Z</time></trkpt>
<trkpt lat="37.576824" lon="126.9469"><ele>291.908937</ele><time>2026-07-05T09:11:59Z</time></trkpt>
<trkpt lat="37.576779" lon="126.946891"><ele>289.907293</ele><time>2026-07-05T09:12:06Z</time></trkpt>
<trkpt lat="37.576745" lon="126.946854"><ele>289.312874</ele><time>2026-07-05T09:12:10Z</time></trkpt>
<trkpt lat="37.576722" lon="126.946785"><ele>288.782736</ele><time>2026-07-05T09:12:15Z</time></trkpt>
<trkpt lat="37.576734" lon="126.94672"><ele>288.442002</ele><time>2026-07-05T09:12:19Z</time></trkpt>
<trkpt lat="37.576736" lon="126.946661"><ele>289.018518</ele><time>2026-07-05T09:12:23Z</time></trkpt>
<trkpt lat="37.57674" lon="126.946595"><ele>287.718786</ele><time>2026-07-05T09:12:28Z</time></trkpt>
<trkpt lat="37.576733" lon="126.94653"><ele>287.57646</ele><time>2026-07-05T09:12:32Z</time></trkpt>
<trkpt lat="37.576729" lon="126.946463"><ele>286.573364</ele><time>2026-07-05T09:12:37Z</time></trkpt>
<trkpt lat="37.576711" lon="126.946406"><ele>286.6147</ele><time>2026-07-05T09:12:42Z</time></trkpt>
<trkpt lat="37.576676" lon="126.946357"><ele>285.400028</ele><time>2026-07-05T09:12:48Z</time></trkpt>
<trkpt lat="37.576631" lon="126.946327"><ele>283.444704</ele><time>2026-07-05T09:12:54Z</time></trkpt>
<trkpt lat="37.576596" lon="126.946283"><ele>282.08384</ele><time>2026-07-05T09:13:00Z</time></trkpt>
<trkpt lat="37.576556" lon="126.946248"><ele>281.727586</ele><time>2026-07-05T09:13:05Z</time></trkpt>
<trkpt lat="37.576513" lon="126.946213"><ele>280.783125</ele><time>2026-07-05T09:13:11Z</time></trkpt>
<trkpt lat="37.576487" lon="126.946166"><ele>280.097122</ele><time>2026-07-05T09:13:16Z</time></trkpt>
<trkpt lat="37.576458" lon="126.946122"><ele>279.460408</ele><time>2026-07-05T09:13:21Z</time></trkpt>
<trkpt lat="37.576426" lon="126.946076"><ele>279.050008</ele><time>2026-07-05T09:13:26Z</time></trkpt>
<trkpt lat="37.576396" lon="126.946019"><ele>277.92539</ele><time>2026-07-05T09:13:31Z</time></trkpt>
<trkpt lat="37.576359" lon="126.945973"><ele>277.400806</ele><time>2026-07-05T09:13:36Z</time></trkpt>
<trkpt lat="37.576327" lon="126.945915"><ele>276.198809</ele><time>2026-07-05T09:13:41Z</time></trkpt>
<trkpt lat="37.576305" lon="126.945862"><ele>276.104997</ele><time>2026-07-05T09:13:46Z</time></trkpt>
<trkpt lat="37.576279" lon="126.945805"><ele>274.38352</ele><time>2026-07-05T09:13:52Z</time></trkpt>
<trkpt lat="37.576236" lon="126.945769"><ele>274.27528</ele><time>2026-07-05T09:13:58Z</time></trkpt>
<trkpt lat="37.576196" lon="126.945726"><ele>273.836617</ele><time>2026-07-05T09:14:04Z</time></trkpt>
<trkpt lat="37.576175" lon="126.945667"><ele>272.550622</ele><time>2026-07-05T09:14:10Z</time></trkpt>
<trkpt lat="37.57614" lon="126.94562"><ele>271.371869</ele><time>2026-07-05T09:14:16Z</time></trkpt>
<trkpt lat="37.576103" lon="126.945587"><ele>269.883257</ele><time>2026-07-05T09:14:22Z</time></trkpt>
<trkpt lat="37.576074" lon="126.945542"><ele>268.240024</ele><time>2026-07-05T09:14:28Z</time></trkpt>
<trkpt lat="37.57605" lon="126.945482"><ele>265.847039</ele><time>2026-07-05T09:14:35Z</time></trkpt>
<trkpt lat="37.576027" lon="126.945426"><ele>263.528657</ele><time>2026-07-05T09:14:44Z</time></trkpt>
<trkpt lat="37.576002" lon="126.945372"><ele>262.107665</ele><time>2026-07-05T09:14:51Z</time></trkpt>
<trkpt lat="37.575962" lon="126.945329"><ele>259.466278</ele><time>2026-07-05T09:15:00Z</time></trkpt>
<trkpt lat="37.575928" lon="126.945291"><ele>257.664906</ele><time>2026-07-05T09:15:07Z</time></trkpt>
<trkpt lat="37.575884" lon="126.945256"><ele>255.535147</ele><time>2026-07-05T09:15:16Z</time></trkpt>
<trkpt lat="37.575852" lon="126.945206"><ele>253.844368</ele><time>2026-07-05T09:15:24Z</time></trkpt>
<trkpt lat="37.575831" lon="126.945152"><ele>249.831655</ele><time>2026-07-05T09:16:12Z</time></trkpt>
<trkpt lat="37.575803" lon="126.945102"><ele>248.693715</ele><time>2026-07-05T09:16:19Z</time></trkpt>
<trkpt lat="37.575768" lon="126.945056"><ele>247.909171</ele><time>2026-07-05T09:16:28Z</time></trkpt>
<trkpt lat="37.575745" lon="126.945007"><ele>244.462544</ele><time>2026-07-05T09:16:43Z</time></trkpt>
<trkpt lat="37.575712" lon="126.944969"><ele>243.545848</ele><time>2026-07-05T09:16:59Z</time></trkpt>
<trkpt lat="37.575683" lon="126.944923"><ele>242.724276</ele><time>2026-07-05T09:17:09Z</time></trkpt>
<trkpt lat="37.575658" lon="126.944875"><ele>241.339367</ele><time>2026-07-05T09:17:15Z</time></trkpt>
<trkpt lat="37.575633" lon="126.944822"><ele>238.669287</ele><time>2026-07-05T09:17:22Z</time></trkpt>
<trkpt lat="37.575606" lon="126.944772"><ele>237.726015</ele><time>2026-07-05T09:17:28Z</time></trkpt>
<trkpt lat="37.575568" lon="126.944737"><ele>236.617839</ele><time>2026-07-05T09:17:35Z</time></trkpt>
<trkpt lat="37.575554" lon="126.944683"><ele>235.985333</ele><time>2026-07-05T09:17:40Z</time></trkpt>
<trkpt lat="37.57555" lon="126.944613"><ele>235.329486</ele><time>2026-07-05T09:17:46Z</time></trkpt>
<trkpt lat="37.575548" lon="126.944552"><ele>234.242945</ele><time>2026-07-05T09:17:52Z</time></trkpt>
<trkpt lat="37.575553" lon="126.944485"><ele>232.993034</ele><time>2026-07-05T09:17:58Z</time></trkpt>
<trkpt lat="37.575561" lon="126.944424"><ele>232.063261</ele><time>2026-07-05T09:18:02Z</time></trkpt>
<trkpt lat="37.57557" lon="126.944356"><ele>231.070491</ele><time>2026-07-05T09:18:08Z</time></trkpt>
<trkpt lat="37.575558" lon="126.944297"><ele>230.122946</ele><time>2026-07-05T09:18:14Z</time></trkpt>
<trkpt lat="37.575532" lon="126.944242"><ele>229.254727</ele><time>2026-07-05T09:18:19Z</time></trkpt>
<trkpt lat="37.575506" lon="126.944185"><ele>227.774849</ele><time>2026-07-05T09:18:24Z</time></trkpt>
<trkpt lat="37.57548" lon="126.944137"><ele>227.018049</ele><time>2026-07-05T09:18:29Z</time></trkpt>
<trkpt lat="37.575447" lon="126.944094"><ele>225.888657</ele><time>2026-07-05T09:18:34Z</time></trkpt>
<trkpt lat="37.575413" lon="126.944057"><ele>225.20657</ele><time>2026-07-05T09:18:39Z</time></trkpt>
<trkpt lat="37.575372" lon="126.944028"><ele>223.694932</ele><time>2026-07-05T09:18:44Z</time></trkpt>
<trkpt lat="37.575335" lon="126.943989"><ele>222.265094</ele><time>2026-07-05T09:18:51Z</time></trkpt>
<trkpt lat="37.575285" lon="126.943966"><ele>220.524548</ele><time>2026-07-05T09:18:57Z</time></trkpt>
<trkpt lat="37.575241" lon="126.943942"><ele>218.309325</ele><time>2026-07-05T09:19:03Z</time></trkpt>
<trkpt lat="37.575202" lon="126.94391"><ele>217.114172</ele><time>2026-07-05T09:19:08Z</time></trkpt>
<trkpt lat="37.575156" lon="126.943883"><ele>215.849575</ele><time>2026-07-05T09:19:14Z</time></trkpt>
<trkpt lat="37.575107" lon="126.943887"><ele>214.239</ele><time>2026-07-05T09:19:20Z</time></trkpt>
<trkpt lat="37.575054" lon="126.943888"><ele>213.57103</ele><time>2026-07-05T09:19:26Z</time></trkpt>
<trkpt lat="37.57501" lon="126.943867"><ele>211.944398</ele><time>2026-07-05T09:19:31Z</time></trkpt>
<trkpt lat="37.574957" lon="126.943839"><ele>210.720226</ele><time>2026-07-05T09:19:37Z</time></trkpt>
<trkpt lat="37.574911" lon="126.943809"><ele>208.199619</ele><time>2026-07-05T09:19:43Z</time></trkpt>
<trkpt lat="37.574864" lon="126.943773"><ele>207.817525</ele><time>2026-07-05T09:19:48Z</time></trkpt>
<trkpt lat="37.57482" lon="126.943733"><ele>206.760835</ele><time>2026-07-05T09:19:53Z</time></trkpt>
<trkpt lat="37.574786" lon="126.943675"><ele>206.695669</ele><time>2026-07-05T09:19:58Z</time></trkpt>
<trkpt lat="37.574754" lon="126.943634"><ele>206.430195</ele><time>2026-07-05T09:20:02Z</time></trkpt>
<trkpt lat="37.574721" lon="126.94359"><ele>206.352374</ele><time>2026-07-05T09:20:06Z</time></trkpt>
<trkpt lat="37.574681" lon="126.943564"><ele>207.043025</ele><time>2026-07-05T09:20:10Z</time></trkpt>
<trkpt lat="37.574655" lon="126.943513"><ele>205.024011</ele><time>2026-07-05T09:20:15Z</time></trkpt>
<trkpt lat="37.574606" lon="126.943533"><ele>205.468309</ele><time>2026-07-05T09:20:23Z</time></trkpt>
<trkpt lat="37.574635" lon="126.943483"><ele>201.254184</ele><time>2026-07-05T09:20:43Z</time></trkpt>
<trkpt lat="37.574662" lon="126.943538"><ele>197.575359</ele><time>2026-07-05T09:20:55Z</time></trkpt>
<trkpt lat="37.574711" lon="126.943572"><ele>203.986088</ele><time>2026-07-05T09:21:34Z</time></trkpt>
<trkpt lat="37.574755" lon="126.943595"><ele>204.671398</ele><time>2026-07-05T09:21:39Z</time></trkpt>
<trkpt lat="37.574797" lon="126.943614"><ele>204.659091</ele><time>2026-07-05T09:21:44Z</time></trkpt>
<trkpt lat="37.574828" lon="126.943572"><ele>204.273018</ele><time>2026-07-05T09:21:50Z</time></trkpt>
<trkpt lat="37.574865" lon="126.943534"><ele>202.308997</ele><time>2026-07-05T09:21:56Z</time></trkpt>
<trkpt lat="37.574907" lon="126.943494"><ele>200.673168</ele><time>2026-07-05T09:22:02Z</time></trkpt>
<trkpt lat="37.574942" lon="126.943449"><ele>199.852291</ele><time>2026-07-05T09:22:08Z</time></trkpt>
<trkpt lat="37.574976" lon="126.943402"><ele>198.96796</ele><time>2026-07-05T09:22:13Z</time></trkpt>
<trkpt lat="37.575023" lon="126.943379"><ele>198.771793</ele><time>2026-07-05T09:22:20Z</time></trkpt>
<trkpt lat="37.575058" lon="126.943342"><ele>198.28836</ele><time>2026-07-05T09:22:26Z</time></trkpt>
<trkpt lat="37.575093" lon="126.943291"><ele>197.615349</ele><time>2026-07-05T09:22:31Z</time></trkpt>
<trkpt lat="37.575122" lon="126.943246"><ele>196.528039</ele><time>2026-07-05T09:22:36Z</time></trkpt>
<trkpt lat="37.57515" lon="126.943197"><ele>195.114699</ele><time>2026-07-05T09:22:42Z</time></trkpt>
<trkpt lat="37.575174" lon="126.943146"><ele>196.122118</ele><time>2026-07-05T09:22:47Z</time></trkpt>
<trkpt lat="37.575193" lon="126.943082"><ele>194.338966</ele><time>2026-07-05T09:22:54Z</time></trkpt>
<trkpt lat="37.575218" lon="126.943026"><ele>193.59327</ele><time>2026-07-05T09:23:00Z</time></trkpt>
<trkpt lat="37.57526" lon="126.942995"><ele>191.548388</ele><time>2026-07-05T09:23:05Z</time></trkpt>
<trkpt lat="37.575311" lon="126.942984"><ele>192.895342</ele><time>2026-07-05T09:23:10Z</time></trkpt>
<trkpt lat="37.575368" lon="126.942983"><ele>192.890424</ele><time>2026-07-05T09:23:15Z</time></trkpt>
<trkpt lat="37.575421" lon="126.942985"><ele>191.900428</ele><time>2026-07-05T09:23:21Z</time></trkpt>
<trkpt lat="37.575479" lon="126.943001"><ele>190.647004</ele><time>2026-07-05T09:23:26Z</time></trkpt>
<trkpt lat="37.575534" lon="126.942994"><ele>190.34806</ele><time>2026-07-05T09:23:32Z</time></trkpt>
<trkpt lat="37.575581" lon="126.942972"><ele>190.642039</ele><time>2026-07-05T09:23:37Z</time></trkpt>
<trkpt lat="37.575631" lon="126.942966"><ele>189.697602</ele><time>2026-07-05T09:23:42Z</time></trkpt>
<trkpt lat="37.575682" lon="126.942972"><ele>189.305144</ele><time>2026-07-05T09:23:46Z</time></trkpt>
<trkpt lat="37.575719" lon="126.942924"><ele>187.141924</ele><time>2026-07-05T09:23:52Z</time></trkpt>
<trkpt lat="37.575745" lon="126.942877"><ele>187.497607</ele><time>2026-07-05T09:23:57Z</time></trkpt>
<trkpt lat="37.575771" lon="126.942831"><ele>186.501184</ele><time>2026-07-05T09:24:02Z</time></trkpt>
<trkpt lat="37.575792" lon="126.942775"><ele>185.891215</ele><time>2026-07-05T09:24:07Z</time></trkpt>
<trkpt lat="37.575838" lon="126.942759"><ele>185.47422</ele><time>2026-07-05T09:24:13Z</time></trkpt>
<trkpt lat="37.575883" lon="126.942753"><ele>184.830959</ele><time>2026-07-05T09:24:18Z</time></trkpt>
<trkpt lat="37.575935" lon="126.942749"><ele>184.064961</ele><time>2026-07-05T09:24:23Z</time></trkpt>
<trkpt lat="37.575981" lon="126.942727"><ele>184.231381</ele><time>2026-07-05T09:24:28Z</time></trkpt>
<trkpt lat="37.576027" lon="126.942713"><ele>183.716526</ele><time>2026-07-05T09:24:33Z</time></trkpt>
<trkpt lat="37.576082" lon="126.942697"><ele>183.680235</ele><time>2026-07-05T09:24:38Z</time></trkpt>
<trkpt lat="37.576127" lon="126.942686"><ele>183.179695</ele><time>2026-07-05T09:24:42Z</time></trkpt>
<trkpt lat="37.576177" lon="126.942678"><ele>182.921825</ele><time>2026-07-05T09:24:47Z</time></trkpt>
<trkpt lat="37.576224" lon="126.942641"><ele>182.651972</ele><time>2026-07-05T09:24:52Z</time></trkpt>
<trkpt lat="37.576263" lon="126.942605"><ele>183.191701</ele><time>2026-07-05T09:24:56Z</time></trkpt>
<trkpt lat="37.57631" lon="126.942581"><ele>184.06287</ele><time>2026-07-05T09:25:01Z</time></trkpt>
<trkpt lat="37.576345" lon="126.942537"><ele>185.188837</ele><time>2026-07-05T09:25:06Z</time></trkpt>
<trkpt lat="37.576391" lon="126.942506"><ele>185.652129</ele><time>2026-07-05T09:25:11Z</time></trkpt>
<trkpt lat="37.576441" lon="126.942496"><ele>186.126866</ele><time>2026-07-05T09:25:15Z</time></trkpt>
<trkpt lat="37.576493" lon="126.942488"><ele>186.038234</ele><time>2026-07-05T09:25:21Z</time></trkpt>
<trkpt lat="37.576545" lon="126.942478"><ele>185.321239</ele><time>2026-07-05T09:25:26Z</time></trkpt>
<trkpt lat="37.576593" lon="126.942455"><ele>183.297497</ele><time>2026-07-05T09:25:32Z</time></trkpt>
<trkpt lat="37.576642" lon="126.942428"><ele>181.033573</ele><time>2026-07-05T09:25:38Z</time></trkpt>
<trkpt lat="37.576692" lon="126.942409"><ele>181.348211</ele><time>2026-07-05T09:25:44Z</time></trkpt>
<trkpt lat="37.576744" lon="126.942384"><ele>180.527099</ele><time>2026-07-05T09:25:50Z</time></trkpt>
<trkpt lat="37.576795" lon="126.942382"><ele>180.047067</ele><time>2026-07-05T09:25:55Z</time></trkpt>
<trkpt lat="37.576849" lon="126.942378"><ele>180.779852</ele><time>2026-07-05T09:26:00Z</time></trkpt>
<trkpt lat="37.5769" lon="126.942379"><ele>181.188139</ele><time>2026-07-05T09:26:06Z</time></trkpt>
<trkpt lat="37.576943" lon="126.942355"><ele>182.107558</ele><time>2026-07-05T09:26:11Z</time></trkpt>
<trkpt lat="37.576983" lon="126.942321"><ele>183.543304</ele><time>2026-07-05T09:26:17Z</time></trkpt>
<trkpt lat="37.577017" lon="126.942276"><ele>182.421178</ele><time>2026-07-05T09:26:44Z</time></trkpt>
<trkpt lat="37.577072" lon="126.942262"><ele>180.398232</ele><time>2026-07-05T09:26:50Z</time></trkpt>
<trkpt lat="37.577118" lon="126.942217"><ele>180.67674</ele><time>2026-07-05T09:26:55Z</time></trkpt>
<trkpt lat="37.577157" lon="126.94217"><ele>181.168024</ele><time>2026-07-05T09:27:00Z</time></trkpt>
<trkpt lat="37.577198" lon="126.942145"><ele>181.635209</ele><time>2026-07-05T09:27:04Z</time></trkpt>
<trkpt lat="37.577243" lon="126.942129"><ele>181.060689</ele><time>2026-07-05T09:27:09Z</time></trkpt>
<trkpt lat="37.577299" lon="126.942131"><ele>180.026418</ele><time>2026-07-05T09:27:14Z</time></trkpt>
<trkpt lat="37.577349" lon="126.942135"><ele>179.412858</ele><time>2026-07-05T09:27:19Z</time></trkpt>
<trkpt lat="37.577398" lon="126.942118"><ele>178.660761</ele><time>2026-07-05T09:27:26Z</time></trkpt>
<trkpt lat="37.577446" lon="126.942099"><ele>176.950716</ele><time>2026-07-05T09:27:33Z</time></trkpt>
<trkpt lat="37.577495" lon="126.942077"><ele>174.734946</ele><time>2026-07-05T09:27:40Z</time></trkpt>
<trkpt lat="37.57754" lon="126.942066"><ele>174.643795</ele><time>2026-07-05T09:27:46Z</time></trkpt>
<trkpt lat="37.577581" lon="126.942041"><ele>173.909144</ele><time>2026-07-05T09:27:53Z</time></trkpt>
<trkpt lat="37.577621" lon="126.941998"><ele>173.817594</ele><time>2026-07-05T09:27:59Z</time></trkpt>
<trkpt lat="37.577656" lon="126.941957"><ele>172.926045</ele><time>2026-07-05T09:28:04Z</time></trkpt>
<trkpt lat="37.577694" lon="126.941926"><ele>171.745311</ele><time>2026-07-05T09:28:09Z</time></trkpt>
<trkpt lat="37.577728" lon="126.941888"><ele>171.848675</ele><time>2026-07-05T09:28:13Z</time></trkpt>
<trkpt lat="37.577771" lon="126.941859"><ele>171.289417</ele><time>2026-07-05T09:28:18Z</time></trkpt>
<trkpt lat="37.577811" lon="126.941825"><ele>171.398327</ele><time>2026-07-05T09:28:23Z</time></trkpt>
<trkpt lat="37.577858" lon="126.941819"><ele>170.963406</ele><time>2026-07-05T09:28:27Z</time></trkpt>
<trkpt lat="37.577905" lon="126.94181"><ele>170.384076</ele><time>2026-07-05T09:28:32Z</time></trkpt>
<trkpt lat="37.577948" lon="126.94179"><ele>170.247249</ele><time>2026-07-05T09:28:44Z</time></trkpt>
<trkpt lat="37.577904" lon="126.941768"><ele>166.232333</ele><time>2026-07-05T09:28:58Z</time></trkpt>
<trkpt lat="37.577858" lon="126.941733"><ele>165.033712</ele><time>2026-07-05T09:29:06Z</time></trkpt>
<trkpt lat="37.577849" lon="126.941669"><ele>163.389468</ele><time>2026-07-05T09:29:14Z</time></trkpt>
<trkpt lat="37.577859" lon="126.941608"><ele>161.671965</ele><time>2026-07-05T09:29:20Z</time></trkpt>
<trkpt lat="37.577877" lon="126.941549"><ele>158.545048</ele><time>2026-07-05T09:29:26Z</time></trkpt>
<trkpt lat="37.57785" lon="126.941496"><ele>158.147126</ele><time>2026-07-05T09:29:32Z</time></trkpt>
<trkpt lat="37.577806" lon="126.941466"><ele>156.485582</ele><time>2026-07-05T09:29:40Z</time></trkpt>
<trkpt lat="37.577772" lon="126.941507"><ele>155.221101</ele><time>2026-07-05T09:29:50Z</time></trkpt>
<trkpt lat="37.577805" lon="126.94146"><ele>155.918863</ele><time>2026-07-05T09:30:05Z</time></trkpt>
<trkpt lat="37.577851" lon="126.941445"><ele>156.143987</ele><time>2026-07-05T09:30:15Z</time></trkpt>
<trkpt lat="37.577885" lon="126.941487"><ele>154.490228</ele><time>2026-07-05T09:30:33Z</time></trkpt>
<trkpt lat="37.577891" lon="126.941557"><ele>155.077895</ele><time>2026-07-05T09:30:42Z</time></trkpt>
<trkpt lat="37.577891" lon="126.941618"><ele>155.694199</ele><time>2026-07-05T09:30:50Z</time></trkpt>
<trkpt lat="37.5779" lon="126.941675"><ele>155.555922</ele><time>2026-07-05T09:30:55Z</time></trkpt>
<trkpt lat="37.57793" lon="126.941722"><ele>157.945135</ele><time>2026-07-05T09:31:03Z</time></trkpt>
<trkpt lat="37.577955" lon="126.941773"><ele>161.402275</ele><time>2026-07-05T09:31:11Z</time></trkpt>
<trkpt lat="37.57799" lon="126.941819"><ele>163.265082</ele><time>2026-07-05T09:31:23Z</time></trkpt>
<trkpt lat="37.578029" lon="126.941851"><ele>162.611728</ele><time>2026-07-05T09:31:32Z</time></trkpt>
<trkpt lat="37.57808" lon="126.941842"><ele>163.034344</ele><time>2026-07-05T09:31:38Z</time></trkpt>
<trkpt lat="37.578125" lon="126.941832"><ele>162.085538</ele><time>2026-07-05T09:31:44Z</time></trkpt>
<trkpt lat="37.57817" lon="126.941839"><ele>161.885107</ele><time>2026-07-05T09:31:49Z</time></trkpt>
<trkpt lat="37.578213" lon="126.941822"><ele>161.603585</ele><time>2026-07-05T09:31:54Z</time></trkpt>
<trkpt lat="37.578257" lon="126.941781"><ele>160.754626</ele><time>2026-07-05T09:32:00Z</time></trkpt>
<trkpt lat="37.578304" lon="126.941756"><ele>160.711512</ele><time>2026-07-05T09:32:05Z</time></trkpt>
<trkpt lat="37.578349" lon="126.941756"><ele>161.233054</ele><time>2026-07-05T09:32:09Z</time></trkpt>
<trkpt lat="37.57839" lon="126.94179"><ele>161.216407</ele><time>2026-07-05T09:32:14Z</time></trkpt>
<trkpt lat="37.578437" lon="126.941787"><ele>161.17812</ele><time>2026-07-05T09:32:22Z</time></trkpt>
<trkpt lat="37.578439" lon="126.941731"><ele>160.122756</ele><time>2026-07-05T09:32:40Z</time></trkpt>
<trkpt lat="37.578485" lon="126.941696"><ele>159.609928</ele><time>2026-07-05T09:32:46Z</time></trkpt>
<trkpt lat="37.578521" lon="126.941651"><ele>158.269833</ele><time>2026-07-05T09:32:53Z</time></trkpt>
<trkpt lat="37.57856" lon="126.941609"><ele>156.311019</ele><time>2026-07-05T09:32:58Z</time></trkpt>
<trkpt lat="37.578603" lon="126.941569"><ele>156.711566</ele><time>2026-07-05T09:33:03Z</time></trkpt>
<trkpt lat="37.578651" lon="126.941535"><ele>155.952253</ele><time>2026-07-05T09:33:08Z</time></trkpt>
<trkpt lat="37.578691" lon="126.941498"><ele>154.431819</ele><time>2026-07-05T09:33:13Z</time></trkpt>
<trkpt lat="37.578726" lon="126.94146"><ele>153.468287</ele><time>2026-07-05T09:33:17Z</time></trkpt>
<trkpt lat="37.578756" lon="126.941417"><ele>152.936762</ele><time>2026-07-05T09:33:23Z</time></trkpt>
<trkpt lat="37.578795" lon="126.94138"><ele>152.431867</ele><time>2026-07-05T09:33:28Z</time></trkpt>
<trkpt lat="37.578841" lon="126.941364"><ele>150.533114</ele><time>2026-07-05T09:33:36Z</time></trkpt>
<trkpt lat="37.578888" lon="126.941369"><ele>149.345994</ele><time>2026-07-05T09:33:42Z</time></trkpt>
<trkpt lat="37.578927" lon="126.941402"><ele>147.108703</ele><time>2026-07-05T09:33:47Z</time></trkpt>
<trkpt lat="37.578971" lon="126.941442"><ele>144.807131</ele><time>2026-07-05T09:33:54Z</time></trkpt>
<trkpt lat="37.579016" lon="126.941463"><ele>143.174451</ele><time>2026-07-05T09:34:01Z</time></trkpt>
<trkpt lat="37.579061" lon="126.941468"><ele>143.471713</ele><time>2026-07-05T09:34:06Z</time></trkpt>
<trkpt lat="37.579114" lon="126.941474"><ele>143.138672</ele><time>2026-07-05T09:34:12Z</time></trkpt>
<trkpt lat="37.579165" lon="126.9415"><ele>142.03813</ele><time>2026-07-05T09:34:17Z</time></trkpt>
<trkpt lat="37.579216" lon="126.941499"><ele>141.60998</ele><time>2026-07-05T09:34:22Z</time></trkpt>
<trkpt lat="37.579261" lon="126.941504"><ele>141.533083</ele><time>2026-07-05T09:34:26Z</time></trkpt>
<trkpt lat="37.579316" lon="126.941512"><ele>140.846988</ele><time>2026-07-05T09:34:31Z</time></trkpt>
<trkpt lat="37.579365" lon="126.941516"><ele>141.282687</ele><time>2026-07-05T09:34:36Z</time></trkpt>
<trkpt lat="37.579416" lon="126.941533"><ele>141.716364</ele><time>2026-07-05T09:34:42Z</time></trkpt>
<trkpt lat="37.579464" lon="126.94156"><ele>140.312401</ele><time>2026-07-05T09:34:47Z</time></trkpt>
<trkpt lat="37.57951" lon="126.941587"><ele>138.514735</ele><time>2026-07-05T09:34:52Z</time></trkpt>
<trkpt lat="37.579555" lon="126.941611"><ele>138.680659</ele><time>2026-07-05T09:34:56Z</time></trkpt>
<trkpt lat="37.579611" lon="126.941637"><ele>139.445759</ele><time>2026-07-05T09:35:01Z</time></trkpt>
<trkpt lat="37.579652" lon="126.941676"><ele>140.113214</ele><time>2026-07-05T09:35:06Z</time></trkpt>
<trkpt lat="37.579698" lon="126.941689"><ele>140.014947</ele><time>2026-07-05T09:35:13Z</time></trkpt>
<trkpt lat="37.579722" lon="126.941745"><ele>139.596521</ele><time>2026-07-05T09:35:44Z</time></trkpt>
<trkpt lat="37.579765" lon="126.941763"><ele>140.336431</ele><time>2026-07-05T09:36:26Z</time></trkpt>
<trkpt lat="37.579805" lon="126.941812"><ele>140.420623</ele><time>2026-07-05T09:36:34Z</time></trkpt>
<trkpt lat="37.579843" lon="126.941846"><ele>139.656245</ele><time>2026-07-05T09:36:39Z</time></trkpt>
<trkpt lat="37.579878" lon="126.941887"><ele>138.528766</ele><time>2026-07-05T09:36:44Z</time></trkpt>
<trkpt lat="37.579913" lon="126.941922"><ele>138.056213</ele><time>2026-07-05T09:36:48Z</time></trkpt>
<trkpt lat="37.57995" lon="126.941971"><ele>138.133036</ele><time>2026-07-05T09:36:53Z</time></trkpt>
<trkpt lat="37.579988" lon="126.94202"><ele>138.511177</ele><time>2026-07-05T09:36:58Z</time></trkpt>
<trkpt lat="37.580019" lon="126.94207"><ele>138.807298</ele><time>2026-07-05T09:37:04Z</time></trkpt>
<trkpt lat="37.580054" lon="126.942107"><ele>139.18509</ele><time>2026-07-05T09:37:10Z</time></trkpt>
<trkpt lat="37.580086" lon="126.942063"><ele>140.198674</ele><time>2026-07-05T09:37:20Z</time></trkpt>
<trkpt lat="37.580141" lon="126.942047"><ele>139.816341</ele><time>2026-07-05T09:37:27Z</time></trkpt>
<trkpt lat="37.580196" lon="126.94206"><ele>139.443818</ele><time>2026-07-05T09:37:33Z</time></trkpt>
<trkpt lat="37.580245" lon="126.942038"><ele>137.912443</ele><time>2026-07-05T09:37:40Z</time></trkpt>
<trkpt lat="37.580235" lon="126.94198"><ele>134.943606</ele><time>2026-07-05T09:37:48Z</time></trkpt>
<trkpt lat="37.580235" lon="126.941917"><ele>134.14491</ele><time>2026-07-05T09:37:54Z</time></trkpt>
<trkpt lat="37.58024" lon="126.941849"><ele>132.37482</ele><time>2026-07-05T09:38:02Z</time></trkpt>
<trkpt lat="37.580259" lon="126.94179"><ele>130.411332</ele><time>2026-07-05T09:38:10Z</time></trkpt>
<trkpt lat="37.580262" lon="126.941733"><ele>129.266641</ele><time>2026-07-05T09:38:16Z</time></trkpt>
<trkpt lat="37.58027" lon="126.941677"><ele>128.14301</ele><time>2026-07-05T09:38:22Z</time></trkpt>
<trkpt lat="37.580282" lon="126.94162"><ele>127.696746</ele><time>2026-07-05T09:38:28Z</time></trkpt>
<trkpt lat="37.580295" lon="126.941565"><ele>127.202702</ele><time>2026-07-05T09:38:34Z</time></trkpt>
<trkpt lat="37.580301" lon="126.941498"><ele>127.060496</ele><time>2026-07-05T09:38:40Z</time></trkpt>
<trkpt lat="37.580312" lon="126.94144"><ele>125.783828</ele><time>2026-07-05T09:38:46Z</time></trkpt>
<trkpt lat="37.580322" lon="126.941377"><ele>123.377333</ele><time>2026-07-05T09:38:54Z</time></trkpt>
<trkpt lat="37.58033" lon="126.941319"><ele>121.111189</ele><time>2026-07-05T09:39:01Z</time></trkpt>
<trkpt lat="37.580338" lon="126.941259"><ele>118.43061</ele><time>2026-07-05T09:39:08Z</time></trkpt>
<trkpt lat="37.580342" lon="126.941202"><ele>117.729936</ele><time>2026-07-05T09:39:14Z</time></trkpt>
<trkpt lat="37.580349" lon="126.941144"><ele>116.628583</ele><time>2026-07-05T09:39:20Z</time></trkpt>
<trkpt lat="37.580366" lon="126.941082"><ele>113.643591</ele><time>2026-07-05T09:39:26Z</time></trkpt>
<trkpt lat="37.580376" lon="126.941016"><ele>113.507637</ele><time>2026-07-05T09:39:31Z</time></trkpt>
<trkpt lat="37.580384" lon="126.940941"><ele>112.798253</ele><time>2026-07-05T09:39:36Z</time></trkpt>
<trkpt lat="37.580396" lon="126.94088"><ele>112.67011</ele><time>2026-07-05T09:39:41Z</time></trkpt>
<trkpt lat="37.580442" lon="126.940843"><ele>110.444137</ele><time>2026-07-05T09:39:46Z</time></trkpt>
<trkpt lat="37.580496" lon="126.940841"><ele>109.971046</ele><time>2026-07-05T09:39:51Z</time></trkpt>
<trkpt lat="37.580541" lon="126.940822"><ele>110.19231</ele><time>2026-07-05T09:39:55Z</time></trkpt>
<trkpt lat="37.58059" lon="126.940807"><ele>110.307958</ele><time>2026-07-05T09:40:00Z</time></trkpt>
<trkpt lat="37.580636" lon="126.940804"><ele>110.280122</ele><time>2026-07-05T09:40:04Z</time></trkpt>
<trkpt lat="37.580688" lon="126.940796"><ele>110.032211</ele><time>2026-07-05T09:40:09Z</time></trkpt>
<trkpt lat="37.580741" lon="126.940797"><ele>108.693832</ele><time>2026-07-05T09:40:14Z</time></trkpt>
<trkpt lat="37.580794" lon="126.940794"><ele>108.4148</ele><time>2026-07-05T09:40:19Z</time></trkpt>
<trkpt lat="37.580829" lon="126.940758"><ele>108.004849</ele><time>2026-07-05T09:40:44Z</time></trkpt>
<trkpt lat="37.580786" lon="126.94073"><ele>106.875566</ele><time>2026-07-05T09:40:49Z</time></trkpt>
<trkpt lat="37.580733" lon="126.940738"><ele>107.200939</ele><time>2026-07-05T09:40:53Z</time></trkpt>
<trkpt lat="37.580686" lon="126.940742"><ele>107.88589</ele><time>2026-07-05T09:40:57Z</time></trkpt>
<trkpt lat="37.580633" lon="126.940754"><ele>107.493621</ele><time>2026-07-05T09:41:02Z</time></trkpt>
<trkpt lat="37.580585" lon="126.940773"><ele>107.356603</ele><time>2026-07-05T09:41:07Z</time></trkpt>
<trkpt lat="37.580531" lon="126.94079"><ele>107.815394</ele><time>2026-07-05T09:41:12Z</time></trkpt>
<trkpt lat="37.580488" lon="126.940804"><ele>107.93949</ele><time>2026-07-05T09:41:16Z</time></trkpt>
<trkpt lat="37.580437" lon="126.940815"><ele>108.042495</ele><time>2026-07-05T09:41:21Z</time></trkpt>
<trkpt lat="37.580388" lon="126.940816"><ele>108.316868</ele><time>2026-07-05T09:41:26Z</time></trkpt>
<trkpt lat="37.580336" lon="126.940825"><ele>108.437363</ele><time>2026-07-05T09:41:31Z</time></trkpt>
<trkpt lat="37.580288" lon="126.940828"><ele>108.342994</ele><time>2026-07-05T09:41:35Z</time></trkpt>
<trkpt lat="37.580243" lon="126.940821"><ele>108.019672</ele><time>2026-07-05T09:41:39Z</time></trkpt>
<trkpt lat="37.580192" lon="126.940818"><ele>108.451691</ele><time>2026-07-05T09:41:44Z</time></trkpt>
<trkpt lat="37.580147" lon="126.940796"><ele>108.423647</ele><time>2026-07-05T09:41:48Z</time></trkpt>
<trkpt lat="37.5801" lon="126.940779"><ele>108.418592</ele><time>2026-07-05T09:41:52Z</time></trkpt>
<trkpt lat="37.580054" lon="126.940747"><ele>107.615025</ele><time>2026-07-05T09:41:56Z</time></trkpt>
<trkpt lat="37.580001" lon="126.940721"><ele>106.625293</ele><time>2026-07-05T09:42:01Z</time></trkpt>
<trkpt lat="37.579964" lon="126.940686"><ele>106.854645</ele><time>2026-07-05T09:42:05Z</time></trkpt>
<trkpt lat="37.579919" lon="126.940646"><ele>106.765333</ele><time>2026-07-05T09:42:10Z</time></trkpt>
<trkpt lat="37.579882" lon="126.940612"><ele>106.83813</ele><time>2026-07-05T09:42:14Z</time></trkpt>
<trkpt lat="37.579848" lon="126.940574"><ele>106.849307</ele><time>2026-07-05T09:42:18Z</time></trkpt>
<trkpt lat="37.579812" lon="126.940537"><ele>107.044553</ele><time>2026-07-05T09:42:22Z</time></trkpt>
<trkpt lat="37.579764" lon="126.940499"><ele>106.685759</ele><time>2026-07-05T09:42:27Z</time></trkpt>
<trkpt lat="37.57972" lon="126.940461"><ele>106.308637</ele><time>2026-07-05T09:42:32Z</time></trkpt>
<trkpt lat="37.579681" lon="126.940417"><ele>106.183188</ele><time>2026-07-05T09:42:37Z</time></trkpt>
<trkpt lat="37.579647" lon="126.940374"><ele>105.447119</ele><time>2026-07-05T09:42:42Z</time></trkpt>
<trkpt lat="37.579622" lon="126.940318"><ele>105.190955</ele><time>2026-07-05T09:42:46Z</time></trkpt>
<trkpt lat="37.579583" lon="126.940288"><ele>104.59016</ele><time>2026-07-05T09:42:50Z</time></trkpt>
<trkpt lat="37.579539" lon="126.940245"><ele>104.641133</ele><time>2026-07-05T09:42:55Z</time></trkpt>
<trkpt lat="37.579498" lon="126.9402"><ele>105.155786</ele><time>2026-07-05T09:43:00Z</time></trkpt>
<trkpt lat="37.579457" lon="126.940158"><ele>104.631458</ele><time>2026-07-05T09:43:05Z</time></trkpt>
<trkpt lat="37.579421" lon="126.94012"><ele>104.551396</ele><time>2026-07-05T09:43:09Z</time></trkpt>
<trkpt lat="37.579377" lon="126.94008"><ele>105.081687</ele><time>2026-07-05T09:43:14Z</time></trkpt>
<trkpt lat="37.57934" lon="126.940042"><ele>104.808547</ele><time>2026-07-05T09:43:18Z</time></trkpt>
<trkpt lat="37.5793" lon="126.940012"><ele>104.909072</ele><time>2026-07-05T09:43:22Z</time></trkpt>
<trkpt lat="37.579254" lon="126.939982"><ele>104.768616</ele><time>2026-07-05T09:43:26Z</time></trkpt>
<trkpt lat="37.579212" lon="126.939949"><ele>103.428717</ele><time>2026-07-05T09:43:33Z</time></trkpt>
<trkpt lat="37.579184" lon="126.939894"><ele>102.277989</ele><time>2026-07-05T09:43:38Z</time></trkpt>
<trkpt lat="37.57914" lon="126.939854"><ele>101.728524</ele><time>2026-07-05T09:43:46Z</time></trkpt>
<trkpt lat="37.579088" lon="126.939846"><ele>100.94465</ele><time>2026-07-05T09:43:50Z</time></trkpt>
<trkpt lat="37.579044" lon="126.939833"><ele>101.151583</ele><time>2026-07-05T09:43:54Z</time></trkpt>
<trkpt lat="37.579" lon="126.939818"><ele>100.356119</ele><time>2026-07-05T09:43:58Z</time></trkpt>
<trkpt lat="37.578952" lon="126.93979"><ele>100.457175</ele><time>2026-07-05T09:44:03Z</time></trkpt>
<trkpt lat="37.578907" lon="126.939764"><ele>100.609571</ele><time>2026-07-05T09:44:08Z</time></trkpt>
<trkpt lat="37.578857" lon="126.939736"><ele>100.461006</ele><time>2026-07-05T09:44:13Z</time></trkpt>
<trkpt lat="37.578814" lon="126.93971"><ele>99.757908</ele><time>2026-07-05T09:44:17Z</time></trkpt>
<trkpt lat="37.578772" lon="126.939692"><ele>99.845434</ele><time>2026-07-05T09:44:21Z</time></trkpt>
<trkpt lat="37.578725" lon="126.939692"><ele>98.749779</ele><time>2026-07-05T09:44:26Z</time></trkpt>
<trkpt lat="37.578678" lon="126.939676"><ele>98.362795</ele><time>2026-07-05T09:44:30Z</time></trkpt>
<trkpt lat="37.578632" lon="126.93967"><ele>97.88202</ele><time>2026-07-05T09:44:35Z</time></trkpt>
<trkpt lat="37.578577" lon="126.939659"><ele>97.371528</ele><time>2026-07-05T09:44:40Z</time></trkpt>
<trkpt lat="37.578533" lon="126.939647"><ele>97.926282</ele><time>2026-07-05T09:44:44Z</time></trkpt>
<trkpt lat="37.578488" lon="126.939633"><ele>98.318119</ele><time>2026-07-05T09:44:49Z</time></trkpt>
<trkpt lat="37.57844" lon="126.939611"><ele>98.058606</ele><time>2026-07-05T09:44:54Z</time></trkpt>
<trkpt lat="37.578393" lon="126.939597"><ele>97.087446</ele><time>2026-07-05T09:44:59Z</time></trkpt>
<trkpt lat="37.578345" lon="126.939578"><ele>96.3209</ele><time>2026-07-05T09:45:03Z</time></trkpt>
<trkpt lat="37.578293" lon="126.939552"><ele>95.944089</ele><time>2026-07-05T09:45:08Z</time></trkpt>
<trkpt lat="37.578246" lon="126.939537"><ele>95.238754</ele><time>2026-07-05T09:45:12Z</time></trkpt>
<trkpt lat="37.5782" lon="126.939527"><ele>94.887391</ele><time>2026-07-05T09:45:16Z</time></trkpt>
<trkpt lat="37.578155" lon="126.939517"><ele>94.77341</ele><time>2026-07-05T09:45:20Z</time></trkpt>
<trkpt lat="37.578104" lon="126.939499"><ele>93.384882</ele><time>2026-07-05T09:45:25Z</time></trkpt>
<trkpt lat="37.578063" lon="126.939472"><ele>93.269127</ele><time>2026-07-05T09:45:29Z</time></trkpt>
<trkpt lat="37.578092" lon="126.939427"><ele>92.002027</ele><time>2026-07-05T09:45:33Z</time></trkpt>
<trkpt lat="37.578135" lon="126.939399"><ele>90.883557</ele><time>2026-07-05T09:45:37Z</time></trkpt>
<trkpt lat="37.578179" lon="126.939386"><ele>90.196074</ele><time>2026-07-05T09:45:41Z</time></trkpt>
<trkpt lat="37.578222" lon="126.939364"><ele>89.79902</ele><time>2026-07-05T09:45:45Z</time></trkpt>
<trkpt lat="37.578274" lon="126.939337"><ele>89.013278</ele><time>2026-07-05T09:45:50Z</time></trkpt>
<trkpt lat="37.578324" lon="126.939318"><ele>88.702657</ele><time>2026-07-05T09:45:55Z</time></trkpt>
<trkpt lat="37.578373" lon="126.939307"><ele>87.521246</ele><time>2026-07-05T09:46:00Z</time></trkpt>
<trkpt lat="37.578427" lon="126.939293"><ele>86.405498</ele><time>2026-07-05T09:46:05Z</time></trkpt>
<trkpt lat="37.57848" lon="126.939275"><ele>85.799805</ele><time>2026-07-05T09:46:10Z</time></trkpt>
<trkpt lat="37.578526" lon="126.939249"><ele>84.953068</ele><time>2026-07-05T09:46:15Z</time></trkpt>
<trkpt lat="37.578576" lon="126.93923"><ele>84.149671</ele><time>2026-07-05T09:46:20Z</time></trkpt>
<trkpt lat="37.578625" lon="126.939205"><ele>83.568344</ele><time>2026-07-05T09:46:25Z</time></trkpt>
<trkpt lat="37.578671" lon="126.939187"><ele>82.451605</ele><time>2026-07-05T09:46:30Z</time></trkpt>
<trkpt lat="37.578716" lon="126.939155"><ele>80.815927</ele><time>2026-07-05T09:46:35Z</time></trkpt>
<trkpt lat="37.578758" lon="126.93913"><ele>80.399683</ele><time>2026-07-05T09:46:39Z</time></trkpt>
<trkpt lat="37.578802" lon="126.939113"><ele>79.520924</ele><time>2026-07-05T09:46:43Z</time></trkpt>
<trkpt lat="37.578846" lon="126.939084"><ele>78.005541</ele><time>2026-07-05T09:46:48Z</time></trkpt>
<trkpt lat="37.578885" lon="126.939037"><ele>77.110565</ele><time>2026-07-05T09:46:53Z</time></trkpt>
<trkpt lat="37.578924" lon="126.93899"><ele>76.222573</ele><time>2026-07-05T09:46:58Z</time></trkpt>
<trkpt lat="37.578964" lon="126.93895"><ele>74.970071</ele><time>2026-07-05T09:47:03Z</time></trkpt>
<trkpt lat="37.579" lon="126.938915"><ele>73.746194</ele><time>2026-07-05T09:47:07Z</time></trkpt>
<trkpt lat="37.579039" lon="126.938869"><ele>73.290336</ele><time>2026-07-05T09:47:12Z</time></trkpt>
<trkpt lat="37.579072" lon="126.938827"><ele>72.705188</ele><time>2026-07-05T09:47:17Z</time></trkpt>
<trkpt lat="37.579113" lon="126.938785"><ele>71.964537</ele><time>2026-07-05T09:47:22Z</time></trkpt>
<trkpt lat="37.579146" lon="126.93873"><ele>72.06515</ele><time>2026-07-05T09:47:27Z</time></trkpt>
<trkpt lat="37.579181" lon="126.938686"><ele>72.041475</ele><time>2026-07-05T09:47:31Z</time></trkpt>
<trkpt lat="37.579227" lon="126.93865"><ele>71.320388</ele><time>2026-07-05T09:47:36Z</time></trkpt>
<trkpt lat="37.579258" lon="126.938607"><ele>71.48149</ele><time>2026-07-05T09:47:40Z</time></trkpt>
<trkpt lat="37.579294" lon="126.938565"><ele>71.181842</ele><time>2026-07-05T09:47:44Z</time></trkpt>
<trkpt lat="37.579327" lon="126.938523"><ele>71.273064</ele><time>2026-07-05T09:47:48Z</time></trkpt>
<trkpt lat="37.57936" lon="126.938485"><ele>70.578742</ele><time>2026-07-05T09:47:52Z</time></trkpt>
<trkpt lat="37.5794" lon="126.938456"><ele>69.872049</ele><time>2026-07-05T09:47:56Z</time></trkpt>
<trkpt lat="37.579433" lon="126.93841"><ele>68.964289</ele><time>2026-07-05T09:48:01Z</time></trkpt>
<trkpt lat="37.579428" lon="126.938337"><ele>68.569828</ele><time>2026-07-05T09:48:06Z</time></trkpt>
<trkpt lat="37.579417" lon="126.93827"><ele>66.766921</ele><time>2026-07-05T09:48:12Z</time></trkpt>
<trkpt lat="37.579401" lon="126.938212"><ele>65.513859</ele><time>2026-07-05T09:48:17Z</time></trkpt>
<trkpt lat="37.579388" lon="126.938155"><ele>65.338043</ele><time>2026-07-05T09:48:22Z</time></trkpt>
<trkpt lat="37.579364" lon="126.938099"><ele>64.459637</ele><time>2026-07-05T09:48:27Z</time></trkpt>
<trkpt lat="37.579345" lon="126.938042"><ele>63.694801</ele><time>2026-07-05T09:48:32Z</time></trkpt>
<trkpt lat="37.579325" lon="126.937985"><ele>62.962302</ele><time>2026-07-05T09:48:37Z</time></trkpt>
<trkpt lat="37.579316" lon="126.937923"><ele>62.789505</ele><time>2026-07-05T09:48:43Z</time></trkpt>
<trkpt lat="37.579292" lon="126.937863"><ele>62.10627</ele><time>2026-07-05T09:48:48Z</time></trkpt>
<trkpt lat="37.579279" lon="126.9378"><ele>61.343075</ele><time>2026-07-05T09:48:53Z</time></trkpt>
<trkpt lat="37.579286" lon="126.937744"><ele>60.941633</ele><time>2026-07-05T09:48:58Z</time></trkpt>
<trkpt lat="37.579288" lon="126.937678"><ele>60.163835</ele><time>2026-07-05T09:49:03Z</time></trkpt>
<trkpt lat="37.57929" lon="126.937619"><ele>60.163305</ele><time>2026-07-05T09:49:08Z</time></trkpt>
<trkpt lat="37.579293" lon="126.93755"><ele>57.998451</ele><time>2026-07-05T09:49:14Z</time></trkpt>
<trkpt lat="37.579299" lon="126.937492"><ele>56.865126</ele><time>2026-07-05T09:49:19Z</time></trkpt>
<trkpt lat="37.579315" lon="126.937426"><ele>56.502846</ele><time>2026-07-05T09:49:24Z</time></trkpt>
<trkpt lat="37.57934" lon="126.937369"><ele>55.293604</ele><time>2026-07-05T09:49:29Z</time></trkpt>
<trkpt lat="37.579359" lon="126.937303"><ele>54.68305</ele><time>2026-07-05T09:49:34Z</time></trkpt>
<trkpt lat="37.579379" lon="126.937248"><ele>53.903315</ele><time>2026-07-05T09:49:39Z</time></trkpt>
<trkpt lat="37.579392" lon="126.937179"><ele>53.335872</ele><time>2026-07-05T09:49:44Z</time></trkpt>
<trkpt lat="37.579388" lon="126.93711"><ele>51.842586</ele><time>2026-07-05T09:49:51Z</time></trkpt>
<trkpt lat="37.579353" lon="126.937073"><ele>51.140094</ele><time>2026-07-05T09:49:55Z</time></trkpt>
<trkpt lat="37.579307" lon="126.937063"><ele>50.872437</ele><time>2026-07-05T09:49:59Z</time></trkpt>
<trkpt lat="37.57926" lon="126.937039"><ele>51.832717</ele><time>2026-07-05T09:50:03Z</time></trkpt>
<trkpt lat="37.579215" lon="126.93701"><ele>51.932925</ele><time>2026-07-05T09:50:06Z</time></trkpt>
<trkpt lat="37.579163" lon="126.936988"><ele>52.790131</ele><time>2026-07-05T09:50:10Z</time></trkpt>
<trkpt lat="37.579111" lon="126.936959"><ele>51.625727</ele><time>2026-07-05T09:50:15Z</time></trkpt>
<trkpt lat="37.579055" lon="126.936959"><ele>52.022849</ele><time>2026-07-05T09:50:19Z</time></trkpt>
<trkpt lat="37.579009" lon="126.936946"><ele>53.312678</ele><time>2026-07-05T09:50:23Z</time></trkpt>
<trkpt lat="37.578963" lon="126.936937"><ele>53.069085</ele><time>2026-07-05T09:50:27Z</time></trkpt>
<trkpt lat="37.578909" lon="126.936927"><ele>53.436773</ele><time>2026-07-05T09:50:32Z</time></trkpt>
<trkpt lat="37.578856" lon="126.936921"><ele>54.459958</ele><time>2026-07-05T09:50:37Z</time></trkpt>
<trkpt lat="37.578808" lon="126.936928"><ele>55.394177</ele><time>2026-07-05T09:50:41Z</time></trkpt>
<trkpt lat="37.578759" lon="126.936927"><ele>55.482475</ele><time>2026-07-05T09:50:45Z</time></trkpt>
<trkpt lat="37.578707" lon="126.936932"><ele>55.393253</ele><time>2026-07-05T09:50:49Z</time></trkpt>
<trkpt lat="37.578662" lon="126.936918"><ele>55.93601</ele><time>2026-07-05T09:50:54Z</time></trkpt>
<trkpt lat="37.578615" lon="126.936933"><ele>54.688689</ele><time>2026-07-05T09:51:00Z</time></trkpt>
<trkpt lat="37.578566" lon="126.936944"><ele>55.644162</ele><time>2026-07-05T09:51:05Z</time></trkpt>
<trkpt lat="37.578519" lon="126.936937"><ele>55.328857</ele><time>2026-07-05T09:51:10Z</time></trkpt>
<trkpt lat="37.578473" lon="126.936935"><ele>55.270287</ele><time>2026-07-05T09:51:14Z</time></trkpt>
<trkpt lat="37.578427" lon="126.936909"><ele>53.630062</ele><time>2026-07-05T09:51:19Z</time></trkpt>
<trkpt lat="37.578379" lon="126.936911"><ele>52.87515</ele><time>2026-07-05T09:51:25Z</time></trkpt>
<trkpt lat="37.578333" lon="126.936937"><ele>52.313577</ele><time>2026-07-05T09:51:31Z</time></trkpt>
</trkseg>
</trk>
<wpt lat="37.57679" lon="126.94717"><name>안산 서대문구</name><type>1</type></wpt>
</gpx>
