<?xml version="1.0" encoding="utf-8"?>
<gpx version="1.1" creator="NaverMapGPX_Automation">
  <trk>
    <name>가리왕산제1코스</name>
    <trkseg>
      <trkpt lat="37.4614474" lon="128.5634039"></trkpt>
      <trkpt lat="37.461392" lon="128.5633638"></trkpt>
      <trkpt lat="37.4613497" lon="128.5633108"></trkpt>
      <trkpt lat="37.4609688" lon="128.562686"></trkpt>
      <trkpt lat="37.4609486" lon="128.5626428"></trkpt>
      <trkpt lat="37.4609267" lon="128.5625818"></trkpt>
      <trkpt lat="37.4608163" lon="128.5622198"></trkpt>
      <trkpt lat="37.4608024" lon="128.5621827"></trkpt>
      <trkpt lat="37.4607853" lon="128.5621498"></trkpt>
      <trkpt lat="37.4607646" lon="128.5621237"></trkpt>
      <trkpt lat="37.4607033" lon="128.5620637"></trkpt>
      <trkpt lat="37.4606465" lon="128.561974"></trkpt>
      <trkpt lat="37.4606148" lon="128.5619334"></trkpt>
      <trkpt lat="37.4604725" lon="128.5618005"></trkpt>
      <trkpt lat="37.4604274" lon="128.561753"></trkpt>
      <trkpt lat="37.4603525" lon="128.5616489"></trkpt>
      <trkpt lat="37.4602958" lon="128.561558"></trkpt>
      <trkpt lat="37.460272" lon="128.5615084"></trkpt>
      <trkpt lat="37.4602512" lon="128.5614561"></trkpt>
      <trkpt lat="37.460029" lon="128.5608562"></trkpt>
      <trkpt lat="37.4600007" lon="128.5607902"></trkpt>
      <trkpt lat="37.4599705" lon="128.5607345"></trkpt>
      <trkpt lat="37.4595861" lon="128.5601132"></trkpt>
      <trkpt lat="37.4595394" lon="128.5600544"></trkpt>
      <trkpt lat="37.4594461" lon="128.5599648"></trkpt>
      <trkpt lat="37.4594131" lon="128.5599169"></trkpt>
      <trkpt lat="37.4593838" lon="128.5598436"></trkpt>
      <trkpt lat="37.4593168" lon="128.5596339"></trkpt>
      <trkpt lat="37.4592871" lon="128.5595601"></trkpt>
      <trkpt lat="37.4592401" lon="128.5594831"></trkpt>
      <trkpt lat="37.4591186" lon="128.5593121"></trkpt>
      <trkpt lat="37.4590994" lon="128.5592802"></trkpt>
      <trkpt lat="37.4590844" lon="128.5592465"></trkpt>
      <trkpt lat="37.4590771" lon="128.5592202"></trkpt>
      <trkpt lat="37.4590732" lon="128.5591869"></trkpt>
      <trkpt lat="37.4590787" lon="128.559115"></trkpt>
      <trkpt lat="37.4590767" lon="128.5590838"></trkpt>
      <trkpt lat="37.4590644" lon="128.5590421"></trkpt>
      <trkpt lat="37.4590209" lon="128.5589401"></trkpt>
      <trkpt lat="37.4590074" lon="128.5588941"></trkpt>
      <trkpt lat="37.4589979" lon="128.5588298"></trkpt>
      <trkpt lat="37.4589853" lon="128.5586646"></trkpt>
      <trkpt lat="37.4589747" lon="128.5586017"></trkpt>
      <trkpt lat="37.458962" lon="128.5585658"></trkpt>
      <trkpt lat="37.4589444" lon="128.5585322"></trkpt>
      <trkpt lat="37.4588381" lon="128.5583734"></trkpt>
      <trkpt lat="37.4588097" lon="128.5583194"></trkpt>
      <trkpt lat="37.4587905" lon="128.558252"></trkpt>
      <trkpt lat="37.4587628" lon="128.5580841"></trkpt>
      <trkpt lat="37.458747" lon="128.558033"></trkpt>
      <trkpt lat="37.4587139" lon="128.5579773"></trkpt>
      <trkpt lat="37.4586318" lon="128.5578759"></trkpt>
      <trkpt lat="37.4585945" lon="128.5578218"></trkpt>
      <trkpt lat="37.4585699" lon="128.5577724"></trkpt>
      <trkpt lat="37.4585131" lon="128.5576291"></trkpt>
      <trkpt lat="37.4584867" lon="128.557571"></trkpt>
      <trkpt lat="37.4584538" lon="128.5575188"></trkpt>
      <trkpt lat="37.4583831" lon="128.5574285"></trkpt>
      <trkpt lat="37.4583619" lon="128.5573969"></trkpt>
      <trkpt lat="37.4583427" lon="128.557356"></trkpt>
      <trkpt lat="37.4583286" lon="128.5573025"></trkpt>
      <trkpt lat="37.4583082" lon="128.5571684"></trkpt>
      <trkpt lat="37.4583001" lon="128.5570881"></trkpt>
      <trkpt lat="37.4582999" lon="128.5570245"></trkpt>
      <trkpt lat="37.4583058" lon="128.5569299"></trkpt>
      <trkpt lat="37.4582573" lon="128.556916"></trkpt>
      <trkpt lat="37.4580332" lon="128.5568248"></trkpt>
      <trkpt lat="37.4578555" lon="128.5567666"></trkpt>
      <trkpt lat="37.4576581" lon="128.5567176"></trkpt>
      <trkpt lat="37.457422" lon="128.5566785"></trkpt>
      <trkpt lat="37.4573178" lon="128.5566668"></trkpt>
      <trkpt lat="37.4571971" lon="128.5566586"></trkpt>
      <trkpt lat="37.4570847" lon="128.5566566"></trkpt>
      <trkpt lat="37.4569934" lon="128.5566597"></trkpt>
      <trkpt lat="37.4568835" lon="128.55667"></trkpt>
      <trkpt lat="37.4567999" lon="128.5566834"></trkpt>
      <trkpt lat="37.4567295" lon="128.5566998"></trkpt>
      <trkpt lat="37.4566598" lon="128.5567224"></trkpt>
      <trkpt lat="37.4566015" lon="128.5567463"></trkpt>
      <trkpt lat="37.4565087" lon="128.5567922"></trkpt>
      <trkpt lat="37.4564176" lon="128.5568457"></trkpt>
      <trkpt lat="37.456345" lon="128.5568936"></trkpt>
      <trkpt lat="37.4561908" lon="128.5570064"></trkpt>
      <trkpt lat="37.4558652" lon="128.5572604"></trkpt>
      <trkpt lat="37.455705" lon="128.5573729"></trkpt>
      <trkpt lat="37.4555783" lon="128.5574469"></trkpt>
      <trkpt lat="37.4554172" lon="128.5575243"></trkpt>
      <trkpt lat="37.455302" lon="128.5575731"></trkpt>
      <trkpt lat="37.4551569" lon="128.5576273"></trkpt>
      <trkpt lat="37.4549989" lon="128.5576791"></trkpt>
      <trkpt lat="37.4548746" lon="128.5577156"></trkpt>
      <trkpt lat="37.4546771" lon="128.5577682"></trkpt>
      <trkpt lat="37.4539838" lon="128.557937"></trkpt>
      <trkpt lat="37.4537437" lon="128.5580046"></trkpt>
      <trkpt lat="37.453606" lon="128.5580487"></trkpt>
      <trkpt lat="37.4534436" lon="128.5581081"></trkpt>
      <trkpt lat="37.4532931" lon="128.5581718"></trkpt>
      <trkpt lat="37.4531836" lon="128.5582246"></trkpt>
      <trkpt lat="37.453085" lon="128.5582777"></trkpt>
      <trkpt lat="37.452989" lon="128.5583354"></trkpt>
      <trkpt lat="37.452888" lon="128.5584036"></trkpt>
      <trkpt lat="37.4527982" lon="128.5584706"></trkpt>
      <trkpt lat="37.4527095" lon="128.558542"></trkpt>
      <trkpt lat="37.4525709" lon="128.5586614"></trkpt>
      <trkpt lat="37.4522202" lon="128.5589771"></trkpt>
      <trkpt lat="37.45211" lon="128.5590718"></trkpt>
      <trkpt lat="37.4519444" lon="128.5592017"></trkpt>
      <trkpt lat="37.451799" lon="128.5592995"></trkpt>
      <trkpt lat="37.451675" lon="128.55937"></trkpt>
      <trkpt lat="37.451474" lon="128.5594753"></trkpt>
      <trkpt lat="37.4513106" lon="128.5595563"></trkpt>
      <trkpt lat="37.4511663" lon="128.559621"></trkpt>
      <trkpt lat="37.4510346" lon="128.5596722"></trkpt>
      <trkpt lat="37.4509314" lon="128.5597056"></trkpt>
      <trkpt lat="37.4508248" lon="128.5597326"></trkpt>
      <trkpt lat="37.4507198" lon="128.5597508"></trkpt>
      <trkpt lat="37.4506149" lon="128.5597591"></trkpt>
      <trkpt lat="37.4505256" lon="128.5597568"></trkpt>
      <trkpt lat="37.4504302" lon="128.5597434"></trkpt>
      <trkpt lat="37.4503395" lon="128.5597206"></trkpt>
      <trkpt lat="37.4502568" lon="128.5596929"></trkpt>
      <trkpt lat="37.4501644" lon="128.5596557"></trkpt>
      <trkpt lat="37.4497754" lon="128.5594721"></trkpt>
      <trkpt lat="37.4496286" lon="128.559411"></trkpt>
      <trkpt lat="37.4495238" lon="128.5593762"></trkpt>
      <trkpt lat="37.4493914" lon="128.5593395"></trkpt>
      <trkpt lat="37.4492091" lon="128.5592946"></trkpt>
      <trkpt lat="37.4490649" lon="128.5592635"></trkpt>
      <trkpt lat="37.4488048" lon="128.5592143"></trkpt>
      <trkpt lat="37.4484165" lon="128.5591547"></trkpt>
      <trkpt lat="37.4478355" lon="128.5590762"></trkpt>
      <trkpt lat="37.4471664" lon="128.5589947"></trkpt>
      <trkpt lat="37.4467161" lon="128.5589447"></trkpt>
      <trkpt lat="37.4463515" lon="128.55891"></trkpt>
      <trkpt lat="37.4460159" lon="128.5588841"></trkpt>
      <trkpt lat="37.4456017" lon="128.5588601"></trkpt>
      <trkpt lat="37.4452591" lon="128.5588488"></trkpt>
      <trkpt lat="37.4448928" lon="128.5588457"></trkpt>
      <trkpt lat="37.4444148" lon="128.5588532"></trkpt>
      <trkpt lat="37.4441896" lon="128.5588468"></trkpt>
      <trkpt lat="37.4437791" lon="128.5588264"></trkpt>
      <trkpt lat="37.4436405" lon="128.5588224"></trkpt>
      <trkpt lat="37.443485" lon="128.5588232"></trkpt>
      <trkpt lat="37.4433627" lon="128.5588286"></trkpt>
      <trkpt lat="37.443236" lon="128.5588411"></trkpt>
      <trkpt lat="37.4431337" lon="128.558857"></trkpt>
      <trkpt lat="37.4430372" lon="128.5588781"></trkpt>
      <trkpt lat="37.4429648" lon="128.5588984"></trkpt>
      <trkpt lat="37.4428894" lon="128.5589244"></trkpt>
      <trkpt lat="37.4428176" lon="128.5589545"></trkpt>
      <trkpt lat="37.4427492" lon="128.5589886"></trkpt>
      <trkpt lat="37.442684" lon="128.5590268"></trkpt>
      <trkpt lat="37.4426322" lon="128.5590621"></trkpt>
      <trkpt lat="37.4425691" lon="128.5591118"></trkpt>
      <trkpt lat="37.4425131" lon="128.5591623"></trkpt>
      <trkpt lat="37.4424522" lon="128.5592235"></trkpt>
      <trkpt lat="37.4424001" lon="128.5592819"></trkpt>
      <trkpt lat="37.4422823" lon="128.5594269"></trkpt>
      <trkpt lat="37.4421528" lon="128.5596058"></trkpt>
      <trkpt lat="37.4419411" lon="128.5599134"></trkpt>
      <trkpt lat="37.4417913" lon="128.5601167"></trkpt>
      <trkpt lat="37.4416894" lon="128.5602385"></trkpt>
      <trkpt lat="37.4414976" lon="128.5604438"></trkpt>
      <trkpt lat="37.4411405" lon="128.5608115"></trkpt>
      <trkpt lat="37.4409682" lon="128.5609788"></trkpt>
      <trkpt lat="37.4408158" lon="128.5611167"></trkpt>
      <trkpt lat="37.4406672" lon="128.56124"></trkpt>
      <trkpt lat="37.4405372" lon="128.5613379"></trkpt>
      <trkpt lat="37.4404139" lon="128.5614212"></trkpt>
      <trkpt lat="37.4402781" lon="128.5615016"></trkpt>
      <trkpt lat="37.4401499" lon="128.5615655"></trkpt>
      <trkpt lat="37.4400147" lon="128.5616192"></trkpt>
      <trkpt lat="37.4398702" lon="128.5616635"></trkpt>
      <trkpt lat="37.439707" lon="128.5617007"></trkpt>
      <trkpt lat="37.4395299" lon="128.5617297"></trkpt>
      <trkpt lat="37.4393684" lon="128.561749"></trkpt>
      <trkpt lat="37.4388481" lon="128.5617935"></trkpt>
      <trkpt lat="37.4385756" lon="128.5618243"></trkpt>
      <trkpt lat="37.4383841" lon="128.5618566"></trkpt>
      <trkpt lat="37.4381884" lon="128.5619037"></trkpt>
      <trkpt lat="37.4380162" lon="128.5619553"></trkpt>
      <trkpt lat="37.4377669" lon="128.5620431"></trkpt>
      <trkpt lat="37.4376138" lon="128.5621025"></trkpt>
      <trkpt lat="37.4370566" lon="128.5623304"></trkpt>
      <trkpt lat="37.4368317" lon="128.5624179"></trkpt>
      <trkpt lat="37.4366956" lon="128.562467"></trkpt>
      <trkpt lat="37.4365551" lon="128.5625129"></trkpt>
      <trkpt lat="37.4363867" lon="128.5625606"></trkpt>
      <trkpt lat="37.4362356" lon="128.5625949"></trkpt>
      <trkpt lat="37.4361385" lon="128.5626118"></trkpt>
      <trkpt lat="37.4359837" lon="128.5626302"></trkpt>
      <trkpt lat="37.4358537" lon="128.5626354"></trkpt>
      <trkpt lat="37.4357281" lon="128.5626307"></trkpt>
      <trkpt lat="37.4355833" lon="128.5626118"></trkpt>
      <trkpt lat="37.4354518" lon="128.5625814"></trkpt>
      <trkpt lat="37.4353311" lon="128.5625428"></trkpt>
      <trkpt lat="37.4349718" lon="128.5626211"></trkpt>
      <trkpt lat="37.4339249" lon="128.563394"></trkpt>
      <trkpt lat="37.4336769" lon="128.5634625"></trkpt>
      <trkpt lat="37.4333047" lon="128.5634404"></trkpt>
      <trkpt lat="37.4329507" lon="128.5633413"></trkpt>
      <trkpt lat="37.4326653" lon="128.5631682"></trkpt>
      <trkpt lat="37.4325148" lon="128.56297"></trkpt>
      <trkpt lat="37.4323842" lon="128.5627663"></trkpt>
      <trkpt lat="37.4323467" lon="128.562713"></trkpt>
      <trkpt lat="37.4322879" lon="128.5626772"></trkpt>
      <trkpt lat="37.4322336" lon="128.5626858"></trkpt>
      <trkpt lat="37.4321625" lon="128.5627329"></trkpt>
      <trkpt lat="37.4319262" lon="128.5630854"></trkpt>
      <trkpt lat="37.4317981" lon="128.5631871"></trkpt>
      <trkpt lat="37.4316485" lon="128.5632386"></trkpt>
      <trkpt lat="37.4314336" lon="128.5632996"></trkpt>
      <trkpt lat="37.4313847" lon="128.5632803"></trkpt>
      <trkpt lat="37.4313621" lon="128.5632512"></trkpt>
      <trkpt lat="37.4313479" lon="128.5632059"></trkpt>
      <trkpt lat="37.431342" lon="128.5631445"></trkpt>
      <trkpt lat="37.4313218" lon="128.5630883"></trkpt>
      <trkpt lat="37.4312631" lon="128.5630506"></trkpt>
      <trkpt lat="37.4311965" lon="128.5630547"></trkpt>
      <trkpt lat="37.4310861" lon="128.5631026"></trkpt>
      <trkpt lat="37.43097" lon="128.5631724"></trkpt>
      <trkpt lat="37.4307624" lon="128.5633023"></trkpt>
      <trkpt lat="37.4306115" lon="128.5634807"></trkpt>
      <trkpt lat="37.4302631" lon="128.5635609"></trkpt>
      <trkpt lat="37.4301529" lon="128.5634333"></trkpt>
      <trkpt lat="37.4300032" lon="128.5634653"></trkpt>
      <trkpt lat="37.4295931" lon="128.563766"></trkpt>
      <trkpt lat="37.4293419" lon="128.5638433"></trkpt>
      <trkpt lat="37.4291703" lon="128.5638179"></trkpt>
      <trkpt lat="37.4290165" lon="128.5638566"></trkpt>
      <trkpt lat="37.4289279" lon="128.5639013"></trkpt>
      <trkpt lat="37.4288365" lon="128.5639477"></trkpt>
      <trkpt lat="37.428753" lon="128.5640214"></trkpt>
      <trkpt lat="37.4286926" lon="128.5640904"></trkpt>
      <trkpt lat="37.4285991" lon="128.5642185"></trkpt>
      <trkpt lat="37.428536" lon="128.5642908"></trkpt>
      <trkpt lat="37.4284598" lon="128.5643477"></trkpt>
      <trkpt lat="37.4283514" lon="128.5643529"></trkpt>
      <trkpt lat="37.4282497" lon="128.5643508"></trkpt>
      <trkpt lat="37.4280932" lon="128.5642999"></trkpt>
      <trkpt lat="37.4279767" lon="128.56421"></trkpt>
      <trkpt lat="37.4278438" lon="128.5641039"></trkpt>
      <trkpt lat="37.4277408" lon="128.5640752"></trkpt>
      <trkpt lat="37.4276903" lon="128.5641052"></trkpt>
      <trkpt lat="37.4276284" lon="128.5641894"></trkpt>
      <trkpt lat="37.4275494" lon="128.5642065"></trkpt>
      <trkpt lat="37.4274242" lon="128.5641763"></trkpt>
      <trkpt lat="37.4272864" lon="128.5640892"></trkpt>
      <trkpt lat="37.4271458" lon="128.5639438"></trkpt>
      <trkpt lat="37.4270896" lon="128.5639264"></trkpt>
      <trkpt lat="37.4270462" lon="128.5639262"></trkpt>
      <trkpt lat="37.427014" lon="128.5639547"></trkpt>
      <trkpt lat="37.4268799" lon="128.5640676"></trkpt>
      <trkpt lat="37.4268447" lon="128.564085"></trkpt>
      <trkpt lat="37.4268055" lon="128.5640782"></trkpt>
      <trkpt lat="37.4267623" lon="128.5640486"></trkpt>
      <trkpt lat="37.4266763" lon="128.5639852"></trkpt>
      <trkpt lat="37.4265683" lon="128.5639488"></trkpt>
      <trkpt lat="37.4264254" lon="128.563951"></trkpt>
      <trkpt lat="37.4263279" lon="128.5639599"></trkpt>
      <trkpt lat="37.4262904" lon="128.5639764"></trkpt>
      <trkpt lat="37.4262631" lon="128.5640296"></trkpt>
      <trkpt lat="37.4262551" lon="128.5643105"></trkpt>
      <trkpt lat="37.4262401" lon="128.564352"></trkpt>
      <trkpt lat="37.426211" lon="128.5643818"></trkpt>
      <trkpt lat="37.4261834" lon="128.5643925"></trkpt>
      <trkpt lat="37.4261526" lon="128.5643913"></trkpt>
      <trkpt lat="37.4259163" lon="128.5643525"></trkpt>
    </trkseg>
  </trk>
</gpx>