<?xml version="1.0" encoding="UTF-8"?>
<gpx version="1.1" creator="네이버지도" xmlns="http://www.topografix.com/GPX/1/1" xmlns:nmap="https://map.naver.com/gpx/1" xmlns:xsi="http://www.w3.org/2001/XMLSchema-instance" xsi:schemaLocation="http://www.topografix.com/GPX/1/1 http://www.topografix.com/GPX/1/1/gpx.xsd">
  <metadata>
    <name>서울 강서구 염창동 222-서울 강서구 염창동 222_260725</name>
    <desc>서울 강서구 염창동 222-서울 강서구 염창동 221-3-서울 영등포구 선유로 313-서울 영등포구 당산동 58-1-서울 영등포구 당산동 60-4-서울 영등포구 당산동 53-2-서울 영등포구 노들로 113-서울 영등포구 양화동 1-1-서울 영등포구 양화동 1-1-서울 영등포구 양화동 177-1-서울 강서구 염창동 221-2-서울 강서구 염창동 221-3-서울 강서구 염창동 222</desc>
    <author><name>네이버지도</name></author>
    <link href="https://map.naver.com"><text>네이버지도</text></link>
    <time>2026-07-25T09:56:54.037Z</time>
    <bounds minlat="37.5400421" minlon="126.8756339" maxlat="37.5545128" maxlon="126.9009026"/>
    <extensions>
      <nmap:walkCourse schemaVersion="1.0">
        <nmap:distance>6266</nmap:distance>
        <nmap:duration>5871.5</nmap:duration>
        <nmap:stepCount>9787</nmap:stepCount>
        <nmap:calories>343</nmap:calories>
        <nmap:totalAscent>80</nmap:totalAscent>
        <nmap:totalDescent>79</nmap:totalDescent>
        <nmap:altMin>5</nmap:altMin>
        <nmap:altMax>13</nmap:altMax>
      </nmap:walkCourse>
    </extensions>
  </metadata>
  <wpt lat="37.5524339" lon="126.8765739">
    <name>출발지</name>
    <desc>서울 강서구 염창동 222</desc>
  </wpt>
  <wpt lat="37.5544609" lon="126.8757079">
    <name>경유지 #1</name>
    <desc>서울 강서구 염창동 221-3</desc>
  </wpt>
  <wpt lat="37.5403375" lon="126.9008959">
    <name>경유지 #2</name>
    <desc>서울 영등포구 선유로 313</desc>
  </wpt>
  <wpt lat="37.5408811" lon="126.8991303">
    <name>경유지 #3</name>
    <desc>서울 영등포구 당산동 58-1</desc>
  </wpt>
  <wpt lat="37.5404255" lon="126.8987049">
    <name>경유지 #4</name>
    <desc>서울 영등포구 당산동 60-4</desc>
  </wpt>
  <wpt lat="37.5407867" lon="126.8983002">
    <name>경유지 #5</name>
    <desc>서울 영등포구 당산동 53-2</desc>
  </wpt>
  <wpt lat="37.5427002" lon="126.894933">
    <name>경유지 #6</name>
    <desc>서울 영등포구 노들로 113</desc>
  </wpt>
  <wpt lat="37.5460711" lon="126.8907003">
    <name>경유지 #7</name>
    <desc>서울 영등포구 양화동 1-1</desc>
  </wpt>
  <wpt lat="37.5473654" lon="126.8896437">
    <name>경유지 #8</name>
    <desc>서울 영등포구 양화동 1-1</desc>
  </wpt>
  <wpt lat="37.5499925" lon="126.8857585">
    <name>경유지 #9</name>
    <desc>서울 영등포구 양화동 177-1</desc>
  </wpt>
  <wpt lat="37.5538817" lon="126.8778321">
    <name>경유지 #10</name>
    <desc>서울 강서구 염창동 221-2</desc>
  </wpt>
  <wpt lat="37.5545128" lon="126.8756339">
    <name>경유지 #11</name>
    <desc>서울 강서구 염창동 221-3</desc>
  </wpt>
  <wpt lat="37.5524108" lon="126.8764756">
    <name>도착지</name>
    <desc>서울 강서구 염창동 222</desc>
  </wpt>
  <rte>
    <name>서울 강서구 염창동 222-서울 강서구 염창동 222_260725</name>
    <desc>서울 강서구 염창동 222-서울 강서구 염창동 221-3-서울 영등포구 선유로 313-서울 영등포구 당산동 58-1-서울 영등포구 당산동 60-4-서울 영등포구 당산동 53-2-서울 영등포구 노들로 113-서울 영등포구 양화동 1-1-서울 영등포구 양화동 1-1-서울 영등포구 양화동 177-1-서울 강서구 염창동 221-2-서울 강서구 염창동 221-3-서울 강서구 염창동 222</desc>
    <type>walking</type>
    <rtept lat="37.5524339" lon="126.8765739">
      <name>출발지</name>
      <desc>서울 강서구 염창동 222</desc>
      <type>start</type>
    </rtept>
    <rtept lat="37.5544609" lon="126.8757079">
      <name>경유지 #1</name>
      <desc>서울 강서구 염창동 221-3</desc>
      <type>waypoint</type>
    </rtept>
    <rtept lat="37.5403375" lon="126.9008959">
      <name>경유지 #2</name>
      <desc>서울 영등포구 선유로 313</desc>
      <type>waypoint</type>
    </rtept>
    <rtept lat="37.5408811" lon="126.8991303">
      <name>경유지 #3</name>
      <desc>서울 영등포구 당산동 58-1</desc>
      <type>waypoint</type>
    </rtept>
    <rtept lat="37.5404255" lon="126.8987049">
      <name>경유지 #4</name>
      <desc>서울 영등포구 당산동 60-4</desc>
      <type>waypoint</type>
    </rtept>
    <rtept lat="37.5407867" lon="126.8983002">
      <name>경유지 #5</name>
      <desc>서울 영등포구 당산동 53-2</desc>
      <type>waypoint</type>
    </rtept>
    <rtept lat="37.5427002" lon="126.894933">
      <name>경유지 #6</name>
      <desc>서울 영등포구 노들로 113</desc>
      <type>waypoint</type>
    </rtept>
    <rtept lat="37.5460711" lon="126.8907003">
      <name>경유지 #7</name>
      <desc>서울 영등포구 양화동 1-1</desc>
      <type>waypoint</type>
    </rtept>
    <rtept lat="37.5473654" lon="126.8896437">
      <name>경유지 #8</name>
      <desc>서울 영등포구 양화동 1-1</desc>
      <type>waypoint</type>
    </rtept>
    <rtept lat="37.5499925" lon="126.8857585">
      <name>경유지 #9</name>
      <desc>서울 영등포구 양화동 177-1</desc>
      <type>waypoint</type>
    </rtept>
    <rtept lat="37.5538817" lon="126.8778321">
      <name>경유지 #10</name>
      <desc>서울 강서구 염창동 221-2</desc>
      <type>waypoint</type>
    </rtept>
    <rtept lat="37.5545128" lon="126.8756339">
      <name>경유지 #11</name>
      <desc>서울 강서구 염창동 221-3</desc>
      <type>waypoint</type>
    </rtept>
    <rtept lat="37.5524108" lon="126.8764756">
      <name>도착지</name>
      <desc>서울 강서구 염창동 222</desc>
      <type>goal</type>
    </rtept>
  </rte>
  <trk>
    <name>서울 강서구 염창동 222-서울 강서구 염창동 222_260725</name>
    <desc>서울 강서구 염창동 222-서울 강서구 염창동 221-3-서울 영등포구 선유로 313-서울 영등포구 당산동 58-1-서울 영등포구 당산동 60-4-서울 영등포구 당산동 53-2-서울 영등포구 노들로 113-서울 영등포구 양화동 1-1-서울 영등포구 양화동 1-1-서울 영등포구 양화동 177-1-서울 강서구 염창동 221-2-서울 강서구 염창동 221-3-서울 강서구 염창동 222</desc>
    <type>walking</type>
    <trkseg>
      <trkpt lat="37.5524339" lon="126.8765739"><ele>10.32</ele></trkpt>
      <trkpt lat="37.5524621" lon="126.8766258"><ele>10.03</ele></trkpt>
      <trkpt lat="37.5528554" lon="126.8763508"><ele>9.51</ele></trkpt>
      <trkpt lat="37.5528868" lon="126.876329"><ele>8.7</ele></trkpt>
      <trkpt lat="37.5529147" lon="126.8763175"><ele>7.8</ele></trkpt>
      <trkpt lat="37.5529535" lon="126.8763205"><ele>6.75</ele></trkpt>
      <trkpt lat="37.5531105" lon="126.8763509"><ele>5</ele></trkpt>
      <trkpt lat="37.5532308" lon="126.8762616"><ele>5</ele></trkpt>
      <trkpt lat="37.5533215" lon="126.8761963"><ele>5.04</ele></trkpt>
      <trkpt lat="37.5535199" lon="126.8760396"><ele>6.52</ele></trkpt>
      <trkpt lat="37.5535648" lon="126.8760143"><ele>5.96</ele></trkpt>
      <trkpt lat="37.5538096" lon="126.875942"><ele>5.85</ele></trkpt>
      <trkpt lat="37.5541344" lon="126.8758284"><ele>6</ele></trkpt>
      <trkpt lat="37.5542971" lon="126.8757466"><ele>6.44</ele></trkpt>
      <trkpt lat="37.5544724" lon="126.8756614"><ele>6.03</ele></trkpt>
      <trkpt lat="37.5544609" lon="126.8757079"><ele>5.99</ele></trkpt>
      <trkpt lat="37.5544609" lon="126.8757068"><ele>5.99</ele></trkpt>
      <trkpt lat="37.5541559" lon="126.8768302"><ele>5</ele></trkpt>
      <trkpt lat="37.5539074" lon="126.877747"><ele>5</ele></trkpt>
      <trkpt lat="37.5538383" lon="126.8779706"><ele>5</ele></trkpt>
      <trkpt lat="37.5538099" lon="126.878058"><ele>5.06</ele></trkpt>
      <trkpt lat="37.5535123" lon="126.8788779"><ele>7.4</ele></trkpt>
      <trkpt lat="37.5534607" lon="126.8790097"><ele>7.8</ele></trkpt>
      <trkpt lat="37.5534438" lon="126.8790483"><ele>8.49</ele></trkpt>
      <trkpt lat="37.5533823" lon="126.8791926"><ele>6.58</ele></trkpt>
      <trkpt lat="37.5532592" lon="126.8794313"><ele>7.43</ele></trkpt>
      <trkpt lat="37.5532369" lon="126.8794734"><ele>6.46</ele></trkpt>
      <trkpt lat="37.5531611" lon="126.8796212"><ele>7.29</ele></trkpt>
      <trkpt lat="37.5530861" lon="126.8797668"><ele>7.1</ele></trkpt>
      <trkpt lat="37.5525667" lon="126.8807549"><ele>6.81</ele></trkpt>
      <trkpt lat="37.5525204" lon="126.8808526"><ele>7.7</ele></trkpt>
      <trkpt lat="37.5524472" lon="126.8810049"><ele>7.44</ele></trkpt>
      <trkpt lat="37.5523894" lon="126.8811424"><ele>6.6</ele></trkpt>
      <trkpt lat="37.5523805" lon="126.8811685"><ele>5.91</ele></trkpt>
      <trkpt lat="37.552297" lon="126.8814047"><ele>6.87</ele></trkpt>
      <trkpt lat="37.5521169" lon="126.8819587"><ele>6.89</ele></trkpt>
      <trkpt lat="37.552069" lon="126.8820915"><ele>6.56</ele></trkpt>
      <trkpt lat="37.5520583" lon="126.8821165"><ele>6.03</ele></trkpt>
      <trkpt lat="37.551972" lon="126.8823312"><ele>7.26</ele></trkpt>
      <trkpt lat="37.5518865" lon="126.8825334"><ele>6.58</ele></trkpt>
      <trkpt lat="37.5518402" lon="126.8826436"><ele>7.84</ele></trkpt>
      <trkpt lat="37.5518126" lon="126.8827084"><ele>6.42</ele></trkpt>
      <trkpt lat="37.5517717" lon="126.8828072"><ele>7.65</ele></trkpt>
      <trkpt lat="37.5517619" lon="126.882831"><ele>6.9</ele></trkpt>
      <trkpt lat="37.5517405" lon="126.8828765"><ele>6.14</ele></trkpt>
      <trkpt lat="37.5516193" lon="126.8831379"><ele>7.92</ele></trkpt>
      <trkpt lat="37.551613" lon="126.8831515"><ele>7.11</ele></trkpt>
      <trkpt lat="37.5515666" lon="126.8832368"><ele>6.75</ele></trkpt>
      <trkpt lat="37.5514291" lon="126.8834882"><ele>7.75</ele></trkpt>
      <trkpt lat="37.5511809" lon="126.8839442"><ele>7.74</ele></trkpt>
      <trkpt lat="37.5508761" lon="126.8844346"><ele>8.18</ele></trkpt>
      <trkpt lat="37.5502098" lon="126.8854341"><ele>6.66</ele></trkpt>
      <trkpt lat="37.5500998" lon="126.8855991"><ele>7.55</ele></trkpt>
      <trkpt lat="37.55003" lon="126.8857039"><ele>6.65</ele></trkpt>
      <trkpt lat="37.5499603" lon="126.8858074"><ele>7.26</ele></trkpt>
      <trkpt lat="37.5497054" lon="126.8861899"><ele>7.88</ele></trkpt>
      <trkpt lat="37.5496473" lon="126.8862776"><ele>8.5</ele></trkpt>
      <trkpt lat="37.5494318" lon="126.886611"><ele>8.81</ele></trkpt>
      <trkpt lat="37.5493862" lon="126.8866816"><ele>6.68</ele></trkpt>
      <trkpt lat="37.5493173" lon="126.8867874"><ele>8.66</ele></trkpt>
      <trkpt lat="37.5493003" lon="126.8868147"><ele>6.45</ele></trkpt>
      <trkpt lat="37.5491062" lon="126.887105"><ele>8.75</ele></trkpt>
      <trkpt lat="37.5489935" lon="126.8872746"><ele>6.69</ele></trkpt>
      <trkpt lat="37.5488952" lon="126.8874226"><ele>6.81</ele></trkpt>
      <trkpt lat="37.5485803" lon="126.887895"><ele>6.79</ele></trkpt>
      <trkpt lat="37.5485043" lon="126.8880009"><ele>6.24</ele></trkpt>
      <trkpt lat="37.5483888" lon="126.8881626"><ele>7.89</ele></trkpt>
      <trkpt lat="37.5481663" lon="126.8885233"><ele>8</ele></trkpt>
      <trkpt lat="37.5479391" lon="126.8888715"><ele>7.22</ele></trkpt>
      <trkpt lat="37.547787" lon="126.8890788"><ele>7.19</ele></trkpt>
      <trkpt lat="37.5476402" lon="126.8892792"><ele>8.07</ele></trkpt>
      <trkpt lat="37.5476151" lon="126.8893123"><ele>12.74</ele></trkpt>
      <trkpt lat="37.5475999" lon="126.8893328"><ele>12.8</ele></trkpt>
      <trkpt lat="37.5474997" lon="126.8894706"><ele>12.77</ele></trkpt>
      <trkpt lat="37.5474612" lon="126.8895218"><ele>12.72</ele></trkpt>
      <trkpt lat="37.5472848" lon="126.8897451"><ele>8.52</ele></trkpt>
      <trkpt lat="37.547189" lon="126.8898659"><ele>7.86</ele></trkpt>
      <trkpt lat="37.5470966" lon="126.8899606"><ele>8.69</ele></trkpt>
      <trkpt lat="37.5470437" lon="126.890012"><ele>8.31</ele></trkpt>
      <trkpt lat="37.5469763" lon="126.890059"><ele>8.44</ele></trkpt>
      <trkpt lat="37.5469161" lon="126.8900991"><ele>8.76</ele></trkpt>
      <trkpt lat="37.5467068" lon="126.8902298"><ele>9.09</ele></trkpt>
      <trkpt lat="37.5465785" lon="126.890343"><ele>8.64</ele></trkpt>
      <trkpt lat="37.5463764" lon="126.8906582"><ele>6.53</ele></trkpt>
      <trkpt lat="37.5462541" lon="126.890881"><ele>5</ele></trkpt>
      <trkpt lat="37.546199" lon="126.8910332"><ele>5.05</ele></trkpt>
      <trkpt lat="37.5461039" lon="126.8914777"><ele>5.56</ele></trkpt>
      <trkpt lat="37.5460312" lon="126.8917104"><ele>5.45</ele></trkpt>
      <trkpt lat="37.5459377" lon="126.891924"><ele>5.15</ele></trkpt>
      <trkpt lat="37.5452931" lon="126.8929446"><ele>5.08</ele></trkpt>
      <trkpt lat="37.5452294" lon="126.8930017"><ele>5.22</ele></trkpt>
      <trkpt lat="37.5451493" lon="126.8930352"><ele>5.48</ele></trkpt>
      <trkpt lat="37.5450584" lon="126.8930495"><ele>5.71</ele></trkpt>
      <trkpt lat="37.5449943" lon="126.893041"><ele>5.93</ele></trkpt>
      <trkpt lat="37.5449158" lon="126.8930303"><ele>6.15</ele></trkpt>
      <trkpt lat="37.5448393" lon="126.8930422"><ele>6.37</ele></trkpt>
      <trkpt lat="37.5447575" lon="126.8930927"><ele>6.6</ele></trkpt>
      <trkpt lat="37.544609" lon="126.8932988"><ele>6.55</ele></trkpt>
      <trkpt lat="37.5441808" lon="126.894003"><ele>6.46</ele></trkpt>
      <trkpt lat="37.5439951" lon="126.8941664"><ele>6.7</ele></trkpt>
      <trkpt lat="37.5438046" lon="126.8944509"><ele>6.78</ele></trkpt>
      <trkpt lat="37.543658" lon="126.8946943"><ele>6.72</ele></trkpt>
      <trkpt lat="37.5436268" lon="126.8947591"><ele>6.75</ele></trkpt>
      <trkpt lat="37.5436078" lon="126.89492"><ele>6.5</ele></trkpt>
      <trkpt lat="37.5435142" lon="126.8951347"><ele>6.36</ele></trkpt>
      <trkpt lat="37.543393" lon="126.8953938"><ele>6.28</ele></trkpt>
      <trkpt lat="37.5433702" lon="126.8955264"><ele>5.98</ele></trkpt>
      <trkpt lat="37.5433622" lon="126.895548"><ele>6.01</ele></trkpt>
      <trkpt lat="37.5433356" lon="126.8956308"><ele>5.82</ele></trkpt>
      <trkpt lat="37.5432392" lon="126.8958105"><ele>5.8</ele></trkpt>
      <trkpt lat="37.5431175" lon="126.8959801"><ele>6.02</ele></trkpt>
      <trkpt lat="37.543001" lon="126.8961271"><ele>6.02</ele></trkpt>
      <trkpt lat="37.5429195" lon="126.8962319"><ele>6.07</ele></trkpt>
      <trkpt lat="37.5428426" lon="126.8963412"><ele>6.11</ele></trkpt>
      <trkpt lat="37.5427397" lon="126.8964892"><ele>6.04</ele></trkpt>
      <trkpt lat="37.5425233" lon="126.8968237"><ele>5.92</ele></trkpt>
      <trkpt lat="37.5424115" lon="126.897008"><ele>5.84</ele></trkpt>
      <trkpt lat="37.5423204" lon="126.8971581"><ele>5.86</ele></trkpt>
      <trkpt lat="37.5420628" lon="126.8975621"><ele>6</ele></trkpt>
      <trkpt lat="37.5420405" lon="126.8976075"><ele>6.05</ele></trkpt>
      <trkpt lat="37.5420141" lon="126.89773"><ele>6</ele></trkpt>
      <trkpt lat="37.5418664" lon="126.898459"><ele>5.01</ele></trkpt>
      <trkpt lat="37.5416609" lon="126.8988071"><ele>5</ele></trkpt>
      <trkpt lat="37.5411299" lon="126.8996773"><ele>5</ele></trkpt>
      <trkpt lat="37.5410548" lon="126.8998001"><ele>5</ele></trkpt>
      <trkpt lat="37.5409583" lon="126.8999684"><ele>5</ele></trkpt>
      <trkpt lat="37.5409288" lon="126.900006"><ele>5</ele></trkpt>
      <trkpt lat="37.5408991" lon="126.9000119"><ele>5</ele></trkpt>
      <trkpt lat="37.5408566" lon="126.8999953"><ele>5</ele></trkpt>
      <trkpt lat="37.540825" lon="126.8999785"><ele>5</ele></trkpt>
      <trkpt lat="37.5407998" lon="126.8999821"><ele>5</ele></trkpt>
      <trkpt lat="37.5407863" lon="126.8999992"><ele>5</ele></trkpt>
      <trkpt lat="37.5407704" lon="126.9000639"><ele>5</ele></trkpt>
      <trkpt lat="37.540762" lon="126.9001726"><ele>5</ele></trkpt>
      <trkpt lat="37.5407486" lon="126.900201"><ele>5</ele></trkpt>
      <trkpt lat="37.5407145" lon="126.9002273"><ele>5</ele></trkpt>
      <trkpt lat="37.5405887" lon="126.9002997"><ele>5</ele></trkpt>
      <trkpt lat="37.5405636" lon="126.9003361"><ele>5</ele></trkpt>
      <trkpt lat="37.5405656" lon="126.9003644"><ele>5</ele></trkpt>
      <trkpt lat="37.5405909" lon="126.9003958"><ele>5</ele></trkpt>
      <trkpt lat="37.5406344" lon="126.9004329"><ele>5</ele></trkpt>
      <trkpt lat="37.5406364" lon="126.9004668"><ele>5</ele></trkpt>
      <trkpt lat="37.5403475" lon="126.9009026"><ele>5</ele></trkpt>
      <trkpt lat="37.5403375" lon="126.9008959"><ele>5.01</ele></trkpt>
      <trkpt lat="37.5403366" lon="126.9008959"><ele>5.01</ele></trkpt>
      <trkpt lat="37.5402697" lon="126.9008478"><ele>5.12</ele></trkpt>
      <trkpt lat="37.5400421" lon="126.900767"><ele>6.4</ele></trkpt>
      <trkpt lat="37.5401799" lon="126.9005587"><ele>6.22</ele></trkpt>
      <trkpt lat="37.5404056" lon="126.9002773"><ele>5.75</ele></trkpt>
      <trkpt lat="37.5405482" lon="126.900146"><ele>5.42</ele></trkpt>
      <trkpt lat="37.5405877" lon="126.9001027"><ele>5.4</ele></trkpt>
      <trkpt lat="37.5406315" lon="126.9000401"><ele>5.24</ele></trkpt>
      <trkpt lat="37.540659" lon="126.8999504"><ele>5.46</ele></trkpt>
      <trkpt lat="37.5406941" lon="126.8997634"><ele>5.86</ele></trkpt>
      <trkpt lat="37.5407607" lon="126.8995648"><ele>6.24</ele></trkpt>
      <trkpt lat="37.540823" lon="126.8994182"><ele>6.35</ele></trkpt>
      <trkpt lat="37.540832" lon="126.8993989"><ele>6.47</ele></trkpt>
      <trkpt lat="37.5409256" lon="126.8992035"><ele>6.54</ele></trkpt>
      <trkpt lat="37.5409037" lon="126.8991505"><ele>6.77</ele></trkpt>
      <trkpt lat="37.5408811" lon="126.8991303"><ele>6.9</ele></trkpt>
      <trkpt lat="37.5408792" lon="126.899128"><ele>6.91</ele></trkpt>
      <trkpt lat="37.5406728" lon="126.8989338"><ele>8.09</ele></trkpt>
      <trkpt lat="37.5405043" lon="126.898779"><ele>9.08</ele></trkpt>
      <trkpt lat="37.5404255" lon="126.8987049"><ele>9.58</ele></trkpt>
      <trkpt lat="37.5404246" lon="126.8987049"><ele>9.59</ele></trkpt>
      <trkpt lat="37.5405043" lon="126.898779"><ele>9.08</ele></trkpt>
      <trkpt lat="37.5407197" lon="126.8984241"><ele>9.09</ele></trkpt>
      <trkpt lat="37.5407867" lon="126.8983002"><ele>9.12</ele></trkpt>
      <trkpt lat="37.5407867" lon="126.898299"><ele>9.12</ele></trkpt>
      <trkpt lat="37.5408644" lon="126.8981524"><ele>9.16</ele></trkpt>
      <trkpt lat="37.5410973" lon="126.8978698"><ele>8.96</ele></trkpt>
      <trkpt lat="37.5409903" lon="126.8977495"><ele>9.55</ele></trkpt>
      <trkpt lat="37.5411074" lon="126.8975641"><ele>9.57</ele></trkpt>
      <trkpt lat="37.5415625" lon="126.8968416"><ele>9.63</ele></trkpt>
      <trkpt lat="37.5417512" lon="126.8965435"><ele>9.6</ele></trkpt>
      <trkpt lat="37.5418665" lon="126.8963604"><ele>9.62</ele></trkpt>
      <trkpt lat="37.542048" lon="126.8960714"><ele>9.72</ele></trkpt>
      <trkpt lat="37.5421027" lon="126.8960042"><ele>9.57</ele></trkpt>
      <trkpt lat="37.5421331" lon="126.8959654"><ele>9.54</ele></trkpt>
      <trkpt lat="37.5422641" lon="126.8958421"><ele>9.48</ele></trkpt>
      <trkpt lat="37.5423287" lon="126.8957816"><ele>9.34</ele></trkpt>
      <trkpt lat="37.5424392" lon="126.8957151"><ele>9.15</ele></trkpt>
      <trkpt lat="37.542557" lon="126.8956598"><ele>8.71</ele></trkpt>
      <trkpt lat="37.5424374" lon="126.8955509"><ele>9.46</ele></trkpt>
      <trkpt lat="37.5424767" lon="126.8954759"><ele>9.52</ele></trkpt>
      <trkpt lat="37.5424971" lon="126.8954123"><ele>9.47</ele></trkpt>
      <trkpt lat="37.5425209" lon="126.895308"><ele>9.6</ele></trkpt>
      <trkpt lat="37.5425521" lon="126.8952319"><ele>9.55</ele></trkpt>
      <trkpt lat="37.542635" lon="126.8950513"><ele>9.64</ele></trkpt>
      <trkpt lat="37.5427002" lon="126.894933"><ele>9.64</ele></trkpt>
      <trkpt lat="37.5427002" lon="126.894933"><ele>9.64</ele></trkpt>
      <trkpt lat="37.542953" lon="126.8944872"><ele>9.65</ele></trkpt>
      <trkpt lat="37.5438796" lon="126.8927467"><ele>9.79</ele></trkpt>
      <trkpt lat="37.5439521" lon="126.8926317"><ele>9.78</ele></trkpt>
      <trkpt lat="37.5445715" lon="126.8919758"><ele>9.66</ele></trkpt>
      <trkpt lat="37.5446531" lon="126.8918835"><ele>9.45</ele></trkpt>
      <trkpt lat="37.5447201" lon="126.8917822"><ele>9.49</ele></trkpt>
      <trkpt lat="37.5447657" lon="126.8917059"><ele>9.44</ele></trkpt>
      <trkpt lat="37.544797" lon="126.8916615"><ele>9.43</ele></trkpt>
      <trkpt lat="37.5449405" lon="126.8915211"><ele>9.35</ele></trkpt>
      <trkpt lat="37.545094" lon="126.8913988"><ele>9.35</ele></trkpt>
      <trkpt lat="37.5454406" lon="126.8911424"><ele>9.3</ele></trkpt>
      <trkpt lat="37.5457701" lon="126.8908906"><ele>8.96</ele></trkpt>
      <trkpt lat="37.5458177" lon="126.8908586"><ele>8.84</ele></trkpt>
      <trkpt lat="37.5458411" lon="126.8908425"><ele>8.56</ele></trkpt>
      <trkpt lat="37.5459399" lon="126.8907761"><ele>8.28</ele></trkpt>
      <trkpt lat="37.5459902" lon="126.8907474"><ele>8.02</ele></trkpt>
      <trkpt lat="37.5460711" lon="126.8907003"><ele>7.64</ele></trkpt>
      <trkpt lat="37.5460702" lon="126.8907003"><ele>7.64</ele></trkpt>
      <trkpt lat="37.5460837" lon="126.8906934"><ele>7.58</ele></trkpt>
      <trkpt lat="37.5461519" lon="126.8906396"><ele>7.86</ele></trkpt>
      <trkpt lat="37.5462756" lon="126.8905164"><ele>8.18</ele></trkpt>
      <trkpt lat="37.5463583" lon="126.8904625"><ele>8.84</ele></trkpt>
      <trkpt lat="37.5465011" lon="126.8903685"><ele>9.29</ele></trkpt>
      <trkpt lat="37.5465785" lon="126.890343"><ele>8.64</ele></trkpt>
      <trkpt lat="37.5467068" lon="126.8902298"><ele>9.09</ele></trkpt>
      <trkpt lat="37.5469161" lon="126.8900991"><ele>8.76</ele></trkpt>
      <trkpt lat="37.5469763" lon="126.890059"><ele>8.44</ele></trkpt>
      <trkpt lat="37.5470437" lon="126.890012"><ele>8.31</ele></trkpt>
      <trkpt lat="37.5470966" lon="126.8899606"><ele>8.69</ele></trkpt>
      <trkpt lat="37.547189" lon="126.8898659"><ele>7.86</ele></trkpt>
      <trkpt lat="37.5472848" lon="126.8897451"><ele>8.52</ele></trkpt>
      <trkpt lat="37.5473654" lon="126.8896437"><ele>10.43</ele></trkpt>
      <trkpt lat="37.5473645" lon="126.8896449"><ele>10.41</ele></trkpt>
      <trkpt lat="37.5474612" lon="126.8895218"><ele>12.72</ele></trkpt>
      <trkpt lat="37.5474997" lon="126.8894706"><ele>12.77</ele></trkpt>
      <trkpt lat="37.5475999" lon="126.8893328"><ele>12.8</ele></trkpt>
      <trkpt lat="37.5476151" lon="126.8893123"><ele>12.74</ele></trkpt>
      <trkpt lat="37.5476402" lon="126.8892792"><ele>8.07</ele></trkpt>
      <trkpt lat="37.547787" lon="126.8890788"><ele>7.19</ele></trkpt>
      <trkpt lat="37.5479391" lon="126.8888715"><ele>7.22</ele></trkpt>
      <trkpt lat="37.5481663" lon="126.8885233"><ele>8</ele></trkpt>
      <trkpt lat="37.5483888" lon="126.8881626"><ele>7.89</ele></trkpt>
      <trkpt lat="37.5485043" lon="126.8880009"><ele>6.24</ele></trkpt>
      <trkpt lat="37.5485803" lon="126.887895"><ele>6.79</ele></trkpt>
      <trkpt lat="37.5488952" lon="126.8874226"><ele>6.81</ele></trkpt>
      <trkpt lat="37.5489935" lon="126.8872746"><ele>6.69</ele></trkpt>
      <trkpt lat="37.5491062" lon="126.887105"><ele>8.75</ele></trkpt>
      <trkpt lat="37.5493003" lon="126.8868147"><ele>6.45</ele></trkpt>
      <trkpt lat="37.5493173" lon="126.8867874"><ele>8.66</ele></trkpt>
      <trkpt lat="37.5493862" lon="126.8866816"><ele>6.68</ele></trkpt>
      <trkpt lat="37.5494318" lon="126.886611"><ele>8.81</ele></trkpt>
      <trkpt lat="37.5496473" lon="126.8862776"><ele>8.5</ele></trkpt>
      <trkpt lat="37.5497054" lon="126.8861899"><ele>7.88</ele></trkpt>
      <trkpt lat="37.5499603" lon="126.8858074"><ele>7.26</ele></trkpt>
      <trkpt lat="37.5499925" lon="126.8857585"><ele>6.97</ele></trkpt>
      <trkpt lat="37.5499925" lon="126.8857585"><ele>6.97</ele></trkpt>
      <trkpt lat="37.55003" lon="126.8857039"><ele>6.65</ele></trkpt>
      <trkpt lat="37.5500998" lon="126.8855991"><ele>7.55</ele></trkpt>
      <trkpt lat="37.5502098" lon="126.8854341"><ele>6.66</ele></trkpt>
      <trkpt lat="37.5508761" lon="126.8844346"><ele>8.18</ele></trkpt>
      <trkpt lat="37.5511809" lon="126.8839442"><ele>7.74</ele></trkpt>
      <trkpt lat="37.5514291" lon="126.8834882"><ele>7.75</ele></trkpt>
      <trkpt lat="37.5515666" lon="126.8832368"><ele>6.75</ele></trkpt>
      <trkpt lat="37.551613" lon="126.8831515"><ele>7.11</ele></trkpt>
      <trkpt lat="37.5516193" lon="126.8831379"><ele>7.92</ele></trkpt>
      <trkpt lat="37.5517405" lon="126.8828765"><ele>6.14</ele></trkpt>
      <trkpt lat="37.5517619" lon="126.882831"><ele>6.9</ele></trkpt>
      <trkpt lat="37.5517717" lon="126.8828072"><ele>7.65</ele></trkpt>
      <trkpt lat="37.5518126" lon="126.8827084"><ele>6.42</ele></trkpt>
      <trkpt lat="37.5518402" lon="126.8826436"><ele>7.84</ele></trkpt>
      <trkpt lat="37.5518865" lon="126.8825334"><ele>6.58</ele></trkpt>
      <trkpt lat="37.551972" lon="126.8823312"><ele>7.26</ele></trkpt>
      <trkpt lat="37.5520583" lon="126.8821165"><ele>6.03</ele></trkpt>
      <trkpt lat="37.552069" lon="126.8820915"><ele>6.56</ele></trkpt>
      <trkpt lat="37.5521169" lon="126.8819587"><ele>6.89</ele></trkpt>
      <trkpt lat="37.552297" lon="126.8814047"><ele>6.87</ele></trkpt>
      <trkpt lat="37.5523805" lon="126.8811685"><ele>5.91</ele></trkpt>
      <trkpt lat="37.5523894" lon="126.8811424"><ele>6.6</ele></trkpt>
      <trkpt lat="37.5524472" lon="126.8810049"><ele>7.44</ele></trkpt>
      <trkpt lat="37.5525204" lon="126.8808526"><ele>7.7</ele></trkpt>
      <trkpt lat="37.5525667" lon="126.8807549"><ele>6.81</ele></trkpt>
      <trkpt lat="37.5530861" lon="126.8797668"><ele>7.1</ele></trkpt>
      <trkpt lat="37.5531611" lon="126.8796212"><ele>7.29</ele></trkpt>
      <trkpt lat="37.5532369" lon="126.8794734"><ele>6.46</ele></trkpt>
      <trkpt lat="37.5532592" lon="126.8794313"><ele>7.43</ele></trkpt>
      <trkpt lat="37.5533823" lon="126.8791926"><ele>6.58</ele></trkpt>
      <trkpt lat="37.5534438" lon="126.8790483"><ele>8.49</ele></trkpt>
      <trkpt lat="37.5534607" lon="126.8790097"><ele>7.8</ele></trkpt>
      <trkpt lat="37.5535123" lon="126.8788779"><ele>7.4</ele></trkpt>
      <trkpt lat="37.5538099" lon="126.878058"><ele>5.06</ele></trkpt>
      <trkpt lat="37.5538383" lon="126.8779706"><ele>5</ele></trkpt>
      <trkpt lat="37.5538817" lon="126.8778321"><ele>5</ele></trkpt>
      <trkpt lat="37.5538817" lon="126.8778299"><ele>5</ele></trkpt>
      <trkpt lat="37.5539074" lon="126.877747"><ele>5</ele></trkpt>
      <trkpt lat="37.5541559" lon="126.8768302"><ele>5</ele></trkpt>
      <trkpt lat="37.5544724" lon="126.8756614"><ele>6.03</ele></trkpt>
      <trkpt lat="37.5545128" lon="126.8756339"><ele>5.81</ele></trkpt>
      <trkpt lat="37.5545119" lon="126.8756339"><ele>5.82</ele></trkpt>
      <trkpt lat="37.5544724" lon="126.8756614"><ele>6.03</ele></trkpt>
      <trkpt lat="37.5542971" lon="126.8757466"><ele>6.44</ele></trkpt>
      <trkpt lat="37.5541344" lon="126.8758284"><ele>6</ele></trkpt>
      <trkpt lat="37.5538096" lon="126.875942"><ele>5.85</ele></trkpt>
      <trkpt lat="37.5535648" lon="126.8760143"><ele>5.96</ele></trkpt>
      <trkpt lat="37.5535199" lon="126.8760396"><ele>6.52</ele></trkpt>
      <trkpt lat="37.5533215" lon="126.8761963"><ele>5.04</ele></trkpt>
      <trkpt lat="37.5532308" lon="126.8762616"><ele>5</ele></trkpt>
      <trkpt lat="37.5531105" lon="126.8763509"><ele>5</ele></trkpt>
      <trkpt lat="37.5529535" lon="126.8763205"><ele>6.75</ele></trkpt>
      <trkpt lat="37.5529147" lon="126.8763175"><ele>7.8</ele></trkpt>
      <trkpt lat="37.5528868" lon="126.876329"><ele>8.7</ele></trkpt>
      <trkpt lat="37.5528554" lon="126.8763508"><ele>9.51</ele></trkpt>
      <trkpt lat="37.5524621" lon="126.8766258"><ele>10.03</ele></trkpt>
      <trkpt lat="37.5524193" lon="126.8765469"><ele>10.48</ele></trkpt>
      <trkpt lat="37.5524399" lon="126.876532"><ele>10.72</ele></trkpt>
      <trkpt lat="37.5524108" lon="126.8764756"><ele>11.06</ele></trkpt>
    </trkseg>
  </trk>
</gpx>