{"type": "FeatureCollection", "name": "bukhansan-spots", "properties": {"source": "PMNTN_SPOT_북한산_114100801", "crs_from": "EPSG:5186"}, "features": [{"type": "Feature", "properties": {"id": 44700, "category": "시종점", "detail": "시종점", "etc": ""}, "geometry": {"type": "Point", "coordinates": [126.932745, 37.622036]}}, {"type": "Feature", "properties": {"id": 44701, "category": "시종점", "detail": "시종점", "etc": ""}, "geometry": {"type": "Point", "coordinates": [126.933918, 37.6143]}}, {"type": "Feature", "properties": {"id": 44702, "category": "분기점", "detail": "분기점", "etc": ""}, "geometry": {"type": "Point", "coordinates": [126.934785, 37.621825]}}, {"type": "Feature", "properties": {"id": 44703, "category": "분기점", "detail": "분기점", "etc": ""}, "geometry": {"type": "Point", "coordinates": [126.935019, 37.614771]}}, {"type": "Feature", "properties": {"id": 44704, "category": "분기점", "detail": "분기점", "etc": ""}, "geometry": {"type": "Point", "coordinates": [126.936625, 37.620216]}}, {"type": "Feature", "properties": {"id": 44705, "category": "분기점", "detail": "분기점", "etc": ""}, "geometry": {"type": "Point", "coordinates": [126.938771, 37.621996]}}, {"type": "Feature", "properties": {"id": 44706, "category": "분기점", "detail": "분기점", "etc": ""}, "geometry": {"type": "Point", "coordinates": [126.938868, 37.621824]}}, {"type": "Feature", "properties": {"id": 44707, "category": "시종점", "detail": "시종점", "etc": ""}, "geometry": {"type": "Point", "coordinates": [126.939779, 37.644513]}}, {"type": "Feature", "properties": {"id": 44708, "category": "분기점", "detail": "분기점", "etc": ""}, "geometry": {"type": "Point", "coordinates": [126.940652, 37.644654]}}, {"type": "Feature", "properties": {"id": 44709, "category": "분기점", "detail": "분기점", "etc": ""}, "geometry": {"type": "Point", "coordinates": [126.942531, 37.618511]}}, {"type": "Feature", "properties": {"id": 44710, "category": "시종점", "detail": "시종점", "etc": ""}, "geometry": {"type": "Point", "coordinates": [126.943268, 37.640761]}}, {"type": "Feature", "properties": {"id": 44711, "category": "분기점", "detail": "분기점", "etc": ""}, "geometry": {"type": "Point", "coordinates": [126.943381, 37.615243]}}, {"type": "Feature", "properties": {"id": 44712, "category": "시종점", "detail": "시종점", "etc": ""}, "geometry": {"type": "Point", "coordinates": [126.943382, 37.614047]}}, {"type": "Feature", "properties": {"id": 44713, "category": "분기점", "detail": "분기점", "etc": ""}, "geometry": {"type": "Point", "coordinates": [126.943824, 37.618498]}}, {"type": "Feature", "properties": {"id": 44714, "category": "분기점", "detail": "분기점", "etc": ""}, "geometry": {"type": "Point", "coordinates": [126.944035, 37.643632]}}, {"type": "Feature", "properties": {"id": 44715, "category": "분기점", "detail": "분기점", "etc": ""}, "geometry": {"type": "Point", "coordinates": [126.944365, 37.618974]}}, {"type": "Feature", "properties": {"id": 44716, "category": "분기점", "detail": "분기점", "etc": ""}, "geometry": {"type": "Point", "coordinates": [126.94445, 37.625593]}}, {"type": "Feature", "properties": {"id": 44717, "category": "분기점", "detail": "분기점", "etc": ""}, "geometry": {"type": "Point", "coordinates": [126.944633, 37.619864]}}, {"type": "Feature", "properties": {"id": 44718, "category": "분기점", "detail": "분기점", "etc": ""}, "geometry": {"type": "Point", "coordinates": [126.94463, 37.623422]}}, {"type": "Feature", "properties": {"id": 44719, "category": "시종점", "detail": "시종점", "etc": ""}, "geometry": {"type": "Point", "coordinates": [126.945127, 37.610748]}}, {"type": "Feature", "properties": {"id": 44720, "category": "분기점", "detail": "분기점", "etc": ""}, "geometry": {"type": "Point", "coordinates": [126.945487, 37.613886]}}, {"type": "Feature", "properties": {"id": 44721, "category": "시종점", "detail": "시종점", "etc": ""}, "geometry": {"type": "Point", "coordinates": [126.946439, 37.658402]}}, {"type": "Feature", "properties": {"id": 44722, "category": "분기점", "detail": "분기점", "etc": ""}, "geometry": {"type": "Point", "coordinates": [126.946641, 37.627088]}}, {"type": "Feature", "properties": {"id": 44723, "category": "분기점", "detail": "분기점", "etc": ""}, "geometry": {"type": "Point", "coordinates": [126.946785, 37.642763]}}, {"type": "Feature", "properties": {"id": 44724, "category": "분기점", "detail": "분기점", "etc": ""}, "geometry": {"type": "Point", "coordinates": [126.947294, 37.651961]}}, {"type": "Feature", "properties": {"id": 44725, "category": "시종점", "detail": "시종점", "etc": ""}, "geometry": {"type": "Point", "coordinates": [126.947782, 37.658936]}}, {"type": "Feature", "properties": {"id": 44726, "category": "분기점", "detail": "분기점", "etc": ""}, "geometry": {"type": "Point", "coordinates": [126.947852, 37.622143]}}, {"type": "Feature", "properties": {"id": 44727, "category": "시종점", "detail": "시종점", "etc": ""}, "geometry": {"type": "Point", "coordinates": [126.94786, 37.61072]}}, {"type": "Feature", "properties": {"id": 44728, "category": "분기점", "detail": "분기점", "etc": ""}, "geometry": {"type": "Point", "coordinates": [126.948349, 37.615204]}}, {"type": "Feature", "properties": {"id": 44729, "category": "분기점", "detail": "분기점", "etc": ""}, "geometry": {"type": "Point", "coordinates": [126.949223, 37.655188]}}, {"type": "Feature", "properties": {"id": 44730, "category": "분기점", "detail": "분기점", "etc": ""}, "geometry": {"type": "Point", "coordinates": [126.94927, 37.642924]}}, {"type": "Feature", "properties": {"id": 44731, "category": "분기점", "detail": "분기점", "etc": ""}, "geometry": {"type": "Point", "coordinates": [126.950047, 37.618123]}}, {"type": "Feature", "properties": {"id": 44732, "category": "분기점", "detail": "분기점", "etc": ""}, "geometry": {"type": "Point", "coordinates": [126.95047, 37.654845]}}, {"type": "Feature", "properties": {"id": 44733, "category": "분기점", "detail": "분기점", "etc": ""}, "geometry": {"type": "Point", "coordinates": [126.95096, 37.65493]}}, {"type": "Feature", "properties": {"id": 44734, "category": "분기점", "detail": "분기점", "etc": ""}, "geometry": {"type": "Point", "coordinates": [126.951001, 37.654456]}}, {"type": "Feature", "properties": {"id": 44735, "category": "시종점", "detail": "시종점", "etc": ""}, "geometry": {"type": "Point", "coordinates": [126.951043, 37.662396]}}, {"type": "Feature", "properties": {"id": 44736, "category": "분기점", "detail": "분기점", "etc": ""}, "geometry": {"type": "Point", "coordinates": [126.951241, 37.658719]}}, {"type": "Feature", "properties": {"id": 44737, "category": "분기점", "detail": "분기점", "etc": ""}, "geometry": {"type": "Point", "coordinates": [126.951641, 37.652991]}}, {"type": "Feature", "properties": {"id": 44738, "category": "분기점", "detail": "분기점", "etc": ""}, "geometry": {"type": "Point", "coordinates": [126.951673, 37.625272]}}, {"type": "Feature", "properties": {"id": 44739, "category": "분기점", "detail": "분기점", "etc": ""}, "geometry": {"type": "Point", "coordinates": [126.952076, 37.662176]}}, {"type": "Feature", "properties": {"id": 44740, "category": "시종점", "detail": "시종점", "etc": ""}, "geometry": {"type": "Point", "coordinates": [126.952687, 37.614248]}}, {"type": "Feature", "properties": {"id": 44741, "category": "분기점", "detail": "분기점", "etc": ""}, "geometry": {"type": "Point", "coordinates": [126.953023, 37.651537]}}, {"type": "Feature", "properties": {"id": 44742, "category": "분기점", "detail": "분기점", "etc": ""}, "geometry": {"type": "Point", "coordinates": [126.953447, 37.623514]}}, {"type": "Feature", "properties": {"id": 44743, "category": "분기점", "detail": "분기점", "etc": ""}, "geometry": {"type": "Point", "coordinates": [126.953812, 37.652685]}}, {"type": "Feature", "properties": {"id": 44744, "category": "시종점", "detail": "시종점", "etc": ""}, "geometry": {"type": "Point", "coordinates": [126.95387, 37.656875]}}, {"type": "Feature", "properties": {"id": 44745, "category": "분기점", "detail": "분기점", "etc": ""}, "geometry": {"type": "Point", "coordinates": [126.954294, 37.622145]}}, {"type": "Feature", "properties": {"id": 44746, "category": "분기점", "detail": "분기점", "etc": ""}, "geometry": {"type": "Point", "coordinates": [126.954362, 37.625737]}}, {"type": "Feature", "properties": {"id": 44747, "category": "분기점", "detail": "분기점", "etc": ""}, "geometry": {"type": "Point", "coordinates": [126.954737, 37.652798]}}, {"type": "Feature", "properties": {"id": 44748, "category": "시종점", "detail": "시종점", "etc": ""}, "geometry": {"type": "Point", "coordinates": [126.955071, 37.669597]}}, {"type": "Feature", "properties": {"id": 44749, "category": "시종점", "detail": "시종점", "etc": ""}, "geometry": {"type": "Point", "coordinates": [126.955092, 37.670076]}}, {"type": "Feature", "properties": {"id": 44750, "category": "시종점", "detail": "시종점", "etc": ""}, "geometry": {"type": "Point", "coordinates": [126.955695, 37.674525]}}, {"type": "Feature", "properties": {"id": 44751, "category": "분기점", "detail": "분기점", "etc": ""}, "geometry": {"type": "Point", "coordinates": [126.955837, 37.653503]}}, {"type": "Feature", "properties": {"id": 44752, "category": "분기점", "detail": "분기점", "etc": ""}, "geometry": {"type": "Point", "coordinates": [126.955949, 37.670623]}}, {"type": "Feature", "properties": {"id": 44753, "category": "시종점", "detail": "시종점", "etc": ""}, "geometry": {"type": "Point", "coordinates": [126.956648, 37.608574]}}, {"type": "Feature", "properties": {"id": 44754, "category": "시종점", "detail": "시종점", "etc": ""}, "geometry": {"type": "Point", "coordinates": [126.956634, 37.675628]}}, {"type": "Feature", "properties": {"id": 44755, "category": "분기점", "detail": "분기점", "etc": ""}, "geometry": {"type": "Point", "coordinates": [126.956658, 37.657868]}}, {"type": "Feature", "properties": {"id": 44756, "category": "분기점", "detail": "분기점", "etc": ""}, "geometry": {"type": "Point", "coordinates": [126.957121, 37.675032]}}, {"type": "Feature", "properties": {"id": 44757, "category": "시종점", "detail": "시종점", "etc": ""}, "geometry": {"type": "Point", "coordinates": [126.957744, 37.613536]}}, {"type": "Feature", "properties": {"id": 44758, "category": "분기점", "detail": "분기점", "etc": ""}, "geometry": {"type": "Point", "coordinates": [126.958586, 37.627591]}}, {"type": "Feature", "properties": {"id": 44759, "category": "분기점", "detail": "분기점", "etc": ""}, "geometry": {"type": "Point", "coordinates": [126.958783, 37.63854]}}, {"type": "Feature", "properties": {"id": 44760, "category": "분기점", "detail": "분기점", "etc": ""}, "geometry": {"type": "Point", "coordinates": [126.95896, 37.675345]}}, {"type": "Feature", "properties": {"id": 44761, "category": "시종점", "detail": "시종점", "etc": ""}, "geometry": {"type": "Point", "coordinates": [126.95905, 37.679259]}}, {"type": "Feature", "properties": {"id": 44762, "category": "분기점", "detail": "분기점", "etc": ""}, "geometry": {"type": "Point", "coordinates": [126.959346, 37.62809]}}, {"type": "Feature", "properties": {"id": 44763, "category": "분기점", "detail": "분기점", "etc": ""}, "geometry": {"type": "Point", "coordinates": [126.959586, 37.675384]}}, {"type": "Feature", "properties": {"id": 44764, "category": "분기점", "detail": "분기점", "etc": ""}, "geometry": {"type": "Point", "coordinates": [126.960151, 37.628731]}}, {"type": "Feature", "properties": {"id": 44765, "category": "분기점", "detail": "분기점", "etc": ""}, "geometry": {"type": "Point", "coordinates": [126.960317, 37.638064]}}, {"type": "Feature", "properties": {"id": 44766, "category": "분기점", "detail": "분기점", "etc": ""}, "geometry": {"type": "Point", "coordinates": [126.960334, 37.666816]}}, {"type": "Feature", "properties": {"id": 44767, "category": "분기점", "detail": "분기점", "etc": ""}, "geometry": {"type": "Point", "coordinates": [126.960466, 37.625101]}}, {"type": "Feature", "properties": {"id": 44768, "category": "분기점", "detail": "분기점", "etc": ""}, "geometry": {"type": "Point", "coordinates": [126.960633, 37.648124]}}, {"type": "Feature", "properties": {"id": 44769, "category": "분기점", "detail": "분기점", "etc": ""}, "geometry": {"type": "Point", "coordinates": [126.961082, 37.646157]}}, {"type": "Feature", "properties": {"id": 44770, "category": "분기점", "detail": "분기점", "etc": ""}, "geometry": {"type": "Point", "coordinates": [126.961094, 37.645863]}}, {"type": "Feature", "properties": {"id": 44771, "category": "분기점", "detail": "분기점", "etc": ""}, "geometry": {"type": "Point", "coordinates": [126.961293, 37.67916]}}, {"type": "Feature", "properties": {"id": 44772, "category": "분기점", "detail": "분기점", "etc": ""}, "geometry": {"type": "Point", "coordinates": [126.961476, 37.652857]}}, {"type": "Feature", "properties": {"id": 44773, "category": "분기점", "detail": "분기점", "etc": ""}, "geometry": {"type": "Point", "coordinates": [126.961693, 37.675523]}}, {"type": "Feature", "properties": {"id": 44774, "category": "분기점", "detail": "분기점", "etc": ""}, "geometry": {"type": "Point", "coordinates": [126.962151, 37.665854]}}, {"type": "Feature", "properties": {"id": 44775, "category": "분기점", "detail": "분기점", "etc": ""}, "geometry": {"type": "Point", "coordinates": [126.962455, 37.673851]}}, {"type": "Feature", "properties": {"id": 44776, "category": "분기점", "detail": "분기점", "etc": ""}, "geometry": {"type": "Point", "coordinates": [126.962734, 37.652288]}}, {"type": "Feature", "properties": {"id": 44777, "category": "분기점", "detail": "분기점", "etc": ""}, "geometry": {"type": "Point", "coordinates": [126.963341, 37.665287]}}, {"type": "Feature", "properties": {"id": 44778, "category": "분기점", "detail": "분기점", "etc": ""}, "geometry": {"type": "Point", "coordinates": [126.963695, 37.674015]}}, {"type": "Feature", "properties": {"id": 44779, "category": "분기점", "detail": "분기점", "etc": ""}, "geometry": {"type": "Point", "coordinates": [126.963895, 37.658088]}}, {"type": "Feature", "properties": {"id": 44780, "category": "분기점", "detail": "분기점", "etc": ""}, "geometry": {"type": "Point", "coordinates": [126.96436, 37.621224]}}, {"type": "Feature", "properties": {"id": 44781, "category": "분기점", "detail": "분기점", "etc": ""}, "geometry": {"type": "Point", "coordinates": [126.964421, 37.676435]}}, {"type": "Feature", "properties": {"id": 44782, "category": "시종점", "detail": "시종점", "etc": ""}, "geometry": {"type": "Point", "coordinates": [126.965983, 37.693174]}}, {"type": "Feature", "properties": {"id": 44783, "category": "분기점", "detail": "분기점", "etc": ""}, "geometry": {"type": "Point", "coordinates": [126.96604, 37.666629]}}, {"type": "Feature", "properties": {"id": 44784, "category": "분기점", "detail": "분기점", "etc": ""}, "geometry": {"type": "Point", "coordinates": [126.966189, 37.641227]}}, {"type": "Feature", "properties": {"id": 44785, "category": "분기점", "detail": "분기점", "etc": ""}, "geometry": {"type": "Point", "coordinates": [126.9662, 37.675775]}}, {"type": "Feature", "properties": {"id": 44786, "category": "분기점", "detail": "분기점", "etc": ""}, "geometry": {"type": "Point", "coordinates": [126.966711, 37.666664]}}, {"type": "Feature", "properties": {"id": 44787, "category": "분기점", "detail": "분기점", "etc": ""}, "geometry": {"type": "Point", "coordinates": [126.966774, 37.649989]}}, {"type": "Feature", "properties": {"id": 44788, "category": "분기점", "detail": "분기점", "etc": ""}, "geometry": {"type": "Point", "coordinates": [126.967028, 37.65784]}}, {"type": "Feature", "properties": {"id": 44789, "category": "분기점", "detail": "분기점", "etc": ""}, "geometry": {"type": "Point", "coordinates": [126.967162, 37.640268]}}, {"type": "Feature", "properties": {"id": 44790, "category": "분기점", "detail": "분기점", "etc": ""}, "geometry": {"type": "Point", "coordinates": [126.967212, 37.657884]}}, {"type": "Feature", "properties": {"id": 44791, "category": "분기점", "detail": "분기점", "etc": ""}, "geometry": {"type": "Point", "coordinates": [126.967388, 37.654602]}}, {"type": "Feature", "properties": {"id": 44792, "category": "분기점", "detail": "분기점", "etc": ""}, "geometry": {"type": "Point", "coordinates": [126.968094, 37.658341]}}, {"type": "Feature", "properties": {"id": 44793, "category": "분기점", "detail": "분기점", "etc": ""}, "geometry": {"type": "Point", "coordinates": [126.968674, 37.631416]}}, {"type": "Feature", "properties": {"id": 44794, "category": "분기점", "detail": "분기점", "etc": ""}, "geometry": {"type": "Point", "coordinates": [126.969462, 37.674868]}}, {"type": "Feature", "properties": {"id": 44795, "category": "시종점", "detail": "시종점", "etc": ""}, "geometry": {"type": "Point", "coordinates": [126.969862, 37.661265]}}, {"type": "Feature", "properties": {"id": 44796, "category": "시종점", "detail": "시종점", "etc": ""}, "geometry": {"type": "Point", "coordinates": [126.970092, 37.700373]}}, {"type": "Feature", "properties": {"id": 44797, "category": "분기점", "detail": "분기점", "etc": ""}, "geometry": {"type": "Point", "coordinates": [126.970252, 37.655457]}}, {"type": "Feature", "properties": {"id": 44798, "category": "분기점", "detail": "분기점", "etc": ""}, "geometry": {"type": "Point", "coordinates": [126.970753, 37.63368]}}, {"type": "Feature", "properties": {"id": 44799, "category": "분기점", "detail": "분기점", "etc": ""}, "geometry": {"type": "Point", "coordinates": [126.97126, 37.667451]}}, {"type": "Feature", "properties": {"id": 44800, "category": "분기점", "detail": "분기점", "etc": ""}, "geometry": {"type": "Point", "coordinates": [126.971394, 37.672392]}}, {"type": "Feature", "properties": {"id": 44801, "category": "분기점", "detail": "분기점", "etc": ""}, "geometry": {"type": "Point", "coordinates": [126.971648, 37.633324]}}, {"type": "Feature", "properties": {"id": 44802, "category": "분기점", "detail": "분기점", "etc": ""}, "geometry": {"type": "Point", "coordinates": [126.9717, 37.676278]}}, {"type": "Feature", "properties": {"id": 44803, "category": "분기점", "detail": "분기점", "etc": ""}, "geometry": {"type": "Point", "coordinates": [126.972435, 37.667836]}}, {"type": "Feature", "properties": {"id": 44804, "category": "분기점", "detail": "분기점", "etc": ""}, "geometry": {"type": "Point", "coordinates": [126.972686, 37.648331]}}, {"type": "Feature", "properties": {"id": 44805, "category": "분기점", "detail": "분기점", "etc": ""}, "geometry": {"type": "Point", "coordinates": [126.973272, 37.645311]}}, {"type": "Feature", "properties": {"id": 44806, "category": "시종점", "detail": "시종점", "etc": ""}, "geometry": {"type": "Point", "coordinates": [126.973891, 37.616173]}}, {"type": "Feature", "properties": {"id": 44807, "category": "분기점", "detail": "분기점", "etc": ""}, "geometry": {"type": "Point", "coordinates": [126.974413, 37.631879]}}, {"type": "Feature", "properties": {"id": 44808, "category": "분기점", "detail": "분기점", "etc": ""}, "geometry": {"type": "Point", "coordinates": [126.974467, 37.632115]}}, {"type": "Feature", "properties": {"id": 44809, "category": "분기점", "detail": "분기점", "etc": ""}, "geometry": {"type": "Point", "coordinates": [126.974808, 37.637994]}}, {"type": "Feature", "properties": {"id": 44810, "category": "분기점", "detail": "분기점", "etc": ""}, "geometry": {"type": "Point", "coordinates": [126.975132, 37.631295]}}, {"type": "Feature", "properties": {"id": 44811, "category": "분기점", "detail": "분기점", "etc": ""}, "geometry": {"type": "Point", "coordinates": [126.975429, 37.686308]}}, {"type": "Feature", "properties": {"id": 44812, "category": "분기점", "detail": "분기점", "etc": ""}, "geometry": {"type": "Point", "coordinates": [126.97559, 37.617384]}}, {"type": "Feature", "properties": {"id": 44813, "category": "시종점", "detail": "시종점", "etc": ""}, "geometry": {"type": "Point", "coordinates": [126.976194, 37.66617]}}, {"type": "Feature", "properties": {"id": 44814, "category": "시종점", "detail": "시종점", "etc": ""}, "geometry": {"type": "Point", "coordinates": [126.976231, 37.682662]}}, {"type": "Feature", "properties": {"id": 44815, "category": "시종점", "detail": "시종점", "etc": ""}, "geometry": {"type": "Point", "coordinates": [126.976742, 37.653181]}}, {"type": "Feature", "properties": {"id": 44816, "category": "분기점", "detail": "분기점", "etc": ""}, "geometry": {"type": "Point", "coordinates": [126.976879, 37.645068]}}, {"type": "Feature", "properties": {"id": 44817, "category": "분기점", "detail": "분기점", "etc": ""}, "geometry": {"type": "Point", "coordinates": [126.976913, 37.661243]}}, {"type": "Feature", "properties": {"id": 44818, "category": "분기점", "detail": "분기점", "etc": ""}, "geometry": {"type": "Point", "coordinates": [126.976991, 37.661881]}}, {"type": "Feature", "properties": {"id": 44819, "category": "분기점", "detail": "분기점", "etc": ""}, "geometry": {"type": "Point", "coordinates": [126.977039, 37.627807]}}, {"type": "Feature", "properties": {"id": 44820, "category": "분기점", "detail": "분기점", "etc": ""}, "geometry": {"type": "Point", "coordinates": [126.97721, 37.633316]}}, {"type": "Feature", "properties": {"id": 44821, "category": "분기점", "detail": "분기점", "etc": ""}, "geometry": {"type": "Point", "coordinates": [126.977735, 37.626244]}}, {"type": "Feature", "properties": {"id": 44822, "category": "분기점", "detail": "분기점", "etc": ""}, "geometry": {"type": "Point", "coordinates": [126.978058, 37.640245]}}, {"type": "Feature", "properties": {"id": 44823, "category": "분기점", "detail": "분기점", "etc": ""}, "geometry": {"type": "Point", "coordinates": [126.978237, 37.628209]}}, {"type": "Feature", "properties": {"id": 44824, "category": "분기점", "detail": "분기점", "etc": ""}, "geometry": {"type": "Point", "coordinates": [126.978264, 37.653679]}}, {"type": "Feature", "properties": {"id": 44825, "category": "분기점", "detail": "분기점", "etc": ""}, "geometry": {"type": "Point", "coordinates": [126.978755, 37.657344]}}, {"type": "Feature", "properties": {"id": 44826, "category": "분기점", "detail": "분기점", "etc": ""}, "geometry": {"type": "Point", "coordinates": [126.978943, 37.626387]}}, {"type": "Feature", "properties": {"id": 44827, "category": "분기점", "detail": "분기점", "etc": ""}, "geometry": {"type": "Point", "coordinates": [126.979207, 37.658342]}}, {"type": "Feature", "properties": {"id": 44828, "category": "분기점", "detail": "분기점", "etc": ""}, "geometry": {"type": "Point", "coordinates": [126.979292, 37.659373]}}, {"type": "Feature", "properties": {"id": 44829, "category": "분기점", "detail": "분기점", "etc": ""}, "geometry": {"type": "Point", "coordinates": [126.979431, 37.642079]}}, {"type": "Feature", "properties": {"id": 44830, "category": "분기점", "detail": "분기점", "etc": ""}, "geometry": {"type": "Point", "coordinates": [126.979426, 37.657843]}}, {"type": "Feature", "properties": {"id": 44831, "category": "분기점", "detail": "분기점", "etc": ""}, "geometry": {"type": "Point", "coordinates": [126.979658, 37.628273]}}, {"type": "Feature", "properties": {"id": 44832, "category": "분기점", "detail": "분기점", "etc": ""}, "geometry": {"type": "Point", "coordinates": [126.980097, 37.6598]}}, {"type": "Feature", "properties": {"id": 44833, "category": "분기점", "detail": "분기점", "etc": ""}, "geometry": {"type": "Point", "coordinates": [126.980416, 37.640016]}}, {"type": "Feature", "properties": {"id": 44834, "category": "분기점", "detail": "분기점", "etc": ""}, "geometry": {"type": "Point", "coordinates": [126.980666, 37.638843]}}, {"type": "Feature", "properties": {"id": 44835, "category": "분기점", "detail": "분기점", "etc": ""}, "geometry": {"type": "Point", "coordinates": [126.980858, 37.658626]}}, {"type": "Feature", "properties": {"id": 44836, "category": "분기점", "detail": "분기점", "etc": ""}, "geometry": {"type": "Point", "coordinates": [126.980901, 37.658316]}}, {"type": "Feature", "properties": {"id": 44837, "category": "분기점", "detail": "분기점", "etc": ""}, "geometry": {"type": "Point", "coordinates": [126.981172, 37.659124]}}, {"type": "Feature", "properties": {"id": 44838, "category": "시종점", "detail": "시종점", "etc": ""}, "geometry": {"type": "Point", "coordinates": [126.981631, 37.612652]}}, {"type": "Feature", "properties": {"id": 44839, "category": "분기점", "detail": "분기점", "etc": ""}, "geometry": {"type": "Point", "coordinates": [126.981651, 37.657564]}}, {"type": "Feature", "properties": {"id": 44840, "category": "분기점", "detail": "분기점", "etc": ""}, "geometry": {"type": "Point", "coordinates": [126.981987, 37.620481]}}, {"type": "Feature", "properties": {"id": 44841, "category": "분기점", "detail": "분기점", "etc": ""}, "geometry": {"type": "Point", "coordinates": [126.98229, 37.612861]}}, {"type": "Feature", "properties": {"id": 44842, "category": "분기점", "detail": "분기점", "etc": ""}, "geometry": {"type": "Point", "coordinates": [126.982292, 37.650904]}}, {"type": "Feature", "properties": {"id": 44843, "category": "분기점", "detail": "분기점", "etc": ""}, "geometry": {"type": "Point", "coordinates": [126.982561, 37.64941]}}, {"type": "Feature", "properties": {"id": 44844, "category": "분기점", "detail": "분기점", "etc": ""}, "geometry": {"type": "Point", "coordinates": [126.982606, 37.650727]}}, {"type": "Feature", "properties": {"id": 44845, "category": "분기점", "detail": "분기점", "etc": ""}, "geometry": {"type": "Point", "coordinates": [126.982693, 37.659409]}}, {"type": "Feature", "properties": {"id": 44846, "category": "분기점", "detail": "분기점", "etc": ""}, "geometry": {"type": "Point", "coordinates": [126.982807, 37.635917]}}, {"type": "Feature", "properties": {"id": 44847, "category": "분기점", "detail": "분기점", "etc": ""}, "geometry": {"type": "Point", "coordinates": [126.984653, 37.63665]}}, {"type": "Feature", "properties": {"id": 44848, "category": "분기점", "detail": "분기점", "etc": ""}, "geometry": {"type": "Point", "coordinates": [126.984684, 37.662255]}}, {"type": "Feature", "properties": {"id": 44849, "category": "분기점", "detail": "분기점", "etc": ""}, "geometry": {"type": "Point", "coordinates": [126.984694, 37.65977]}}, {"type": "Feature", "properties": {"id": 44850, "category": "분기점", "detail": "분기점", "etc": ""}, "geometry": {"type": "Point", "coordinates": [126.984841, 37.661437]}}, {"type": "Feature", "properties": {"id": 44851, "category": "분기점", "detail": "분기점", "etc": ""}, "geometry": {"type": "Point", "coordinates": [126.984886, 37.660406]}}, {"type": "Feature", "properties": {"id": 44852, "category": "분기점", "detail": "분기점", "etc": ""}, "geometry": {"type": "Point", "coordinates": [126.98511, 37.661758]}}, {"type": "Feature", "properties": {"id": 44853, "category": "분기점", "detail": "분기점", "etc": ""}, "geometry": {"type": "Point", "coordinates": [126.985513, 37.659872]}}, {"type": "Feature", "properties": {"id": 44854, "category": "분기점", "detail": "분기점", "etc": ""}, "geometry": {"type": "Point", "coordinates": [126.985567, 37.613934]}}, {"type": "Feature", "properties": {"id": 44855, "category": "시종점", "detail": "시종점", "etc": ""}, "geometry": {"type": "Point", "coordinates": [126.98589, 37.679593]}}, {"type": "Feature", "properties": {"id": 44856, "category": "분기점", "detail": "분기점", "etc": ""}, "geometry": {"type": "Point", "coordinates": [126.985934, 37.640503]}}, {"type": "Feature", "properties": {"id": 44857, "category": "분기점", "detail": "분기점", "etc": ""}, "geometry": {"type": "Point", "coordinates": [126.98636, 37.640422]}}, {"type": "Feature", "properties": {"id": 44858, "category": "분기점", "detail": "분기점", "etc": ""}, "geometry": {"type": "Point", "coordinates": [126.986595, 37.618844]}}, {"type": "Feature", "properties": {"id": 44859, "category": "분기점", "detail": "분기점", "etc": ""}, "geometry": {"type": "Point", "coordinates": [126.986899, 37.668626]}}, {"type": "Feature", "properties": {"id": 44860, "category": "분기점", "detail": "분기점", "etc": ""}, "geometry": {"type": "Point", "coordinates": [126.987034, 37.662185]}}, {"type": "Feature", "properties": {"id": 44861, "category": "분기점", "detail": "분기점", "etc": ""}, "geometry": {"type": "Point", "coordinates": [126.987502, 37.641774]}}, {"type": "Feature", "properties": {"id": 44862, "category": "분기점", "detail": "분기점", "etc": ""}, "geometry": {"type": "Point", "coordinates": [126.987821, 37.662887]}}, {"type": "Feature", "properties": {"id": 44863, "category": "분기점", "detail": "분기점", "etc": ""}, "geometry": {"type": "Point", "coordinates": [126.987837, 37.682574]}}, {"type": "Feature", "properties": {"id": 44864, "category": "분기점", "detail": "분기점", "etc": ""}, "geometry": {"type": "Point", "coordinates": [126.988208, 37.614521]}}, {"type": "Feature", "properties": {"id": 44865, "category": "분기점", "detail": "분기점", "etc": ""}, "geometry": {"type": "Point", "coordinates": [126.988261, 37.615511]}}, {"type": "Feature", "properties": {"id": 44866, "category": "분기점", "detail": "분기점", "etc": ""}, "geometry": {"type": "Point", "coordinates": [126.988979, 37.660042]}}, {"type": "Feature", "properties": {"id": 44867, "category": "분기점", "detail": "분기점", "etc": ""}, "geometry": {"type": "Point", "coordinates": [126.989774, 37.64314]}}, {"type": "Feature", "properties": {"id": 44868, "category": "분기점", "detail": "분기점", "etc": ""}, "geometry": {"type": "Point", "coordinates": [126.989986, 37.680475]}}, {"type": "Feature", "properties": {"id": 44869, "category": "분기점", "detail": "분기점", "etc": ""}, "geometry": {"type": "Point", "coordinates": [126.990472, 37.664107]}}, {"type": "Feature", "properties": {"id": 44870, "category": "분기점", "detail": "분기점", "etc": ""}, "geometry": {"type": "Point", "coordinates": [126.991647, 37.679493]}}, {"type": "Feature", "properties": {"id": 44871, "category": "분기점", "detail": "분기점", "etc": ""}, "geometry": {"type": "Point", "coordinates": [126.991661, 37.658516]}}, {"type": "Feature", "properties": {"id": 44872, "category": "분기점", "detail": "분기점", "etc": ""}, "geometry": {"type": "Point", "coordinates": [126.992096, 37.689756]}}, {"type": "Feature", "properties": {"id": 44873, "category": "시종점", "detail": "시종점", "etc": ""}, "geometry": {"type": "Point", "coordinates": [126.992142, 37.612084]}}, {"type": "Feature", "properties": {"id": 44874, "category": "분기점", "detail": "분기점", "etc": ""}, "geometry": {"type": "Point", "coordinates": [126.99241, 37.621798]}}, {"type": "Feature", "properties": {"id": 44875, "category": "분기점", "detail": "분기점", "etc": ""}, "geometry": {"type": "Point", "coordinates": [126.99251, 37.664917]}}, {"type": "Feature", "properties": {"id": 44876, "category": "분기점", "detail": "분기점", "etc": ""}, "geometry": {"type": "Point", "coordinates": [126.992785, 37.673869]}}, {"type": "Feature", "properties": {"id": 44877, "category": "분기점", "detail": "분기점", "etc": ""}, "geometry": {"type": "Point", "coordinates": [126.993215, 37.621371]}}, {"type": "Feature", "properties": {"id": 44878, "category": "분기점", "detail": "분기점", "etc": ""}, "geometry": {"type": "Point", "coordinates": [126.993642, 37.673658]}}, {"type": "Feature", "properties": {"id": 44879, "category": "시종점", "detail": "시종점", "etc": ""}, "geometry": {"type": "Point", "coordinates": [126.993658, 37.675458]}}, {"type": "Feature", "properties": {"id": 44880, "category": "분기점", "detail": "분기점", "etc": ""}, "geometry": {"type": "Point", "coordinates": [126.993848, 37.670953]}}, {"type": "Feature", "properties": {"id": 44881, "category": "분기점", "detail": "분기점", "etc": ""}, "geometry": {"type": "Point", "coordinates": [126.993882, 37.670263]}}, {"type": "Feature", "properties": {"id": 44882, "category": "분기점", "detail": "분기점", "etc": ""}, "geometry": {"type": "Point", "coordinates": [126.993882, 37.67133]}}, {"type": "Feature", "properties": {"id": 44883, "category": "분기점", "detail": "분기점", "etc": ""}, "geometry": {"type": "Point", "coordinates": [126.994074, 37.666299]}}, {"type": "Feature", "properties": {"id": 44884, "category": "시종점", "detail": "시종점", "etc": ""}, "geometry": {"type": "Point", "coordinates": [126.994238, 37.695136]}}, {"type": "Feature", "properties": {"id": 44885, "category": "분기점", "detail": "분기점", "etc": ""}, "geometry": {"type": "Point", "coordinates": [126.994691, 37.629876]}}, {"type": "Feature", "properties": {"id": 44886, "category": "분기점", "detail": "분기점", "etc": ""}, "geometry": {"type": "Point", "coordinates": [126.994958, 37.650479]}}, {"type": "Feature", "properties": {"id": 44887, "category": "분기점", "detail": "분기점", "etc": ""}, "geometry": {"type": "Point", "coordinates": [126.99512, 37.685085]}}, {"type": "Feature", "properties": {"id": 44888, "category": "분기점", "detail": "분기점", "etc": ""}, "geometry": {"type": "Point", "coordinates": [126.995139, 37.620197]}}, {"type": "Feature", "properties": {"id": 44889, "category": "시종점", "detail": "시종점", "etc": ""}, "geometry": {"type": "Point", "coordinates": [126.995509, 37.665479]}}, {"type": "Feature", "properties": {"id": 44890, "category": "분기점", "detail": "분기점", "etc": ""}, "geometry": {"type": "Point", "coordinates": [126.996307, 37.629184]}}, {"type": "Feature", "properties": {"id": 44891, "category": "분기점", "detail": "분기점", "etc": ""}, "geometry": {"type": "Point", "coordinates": [126.996658, 37.618786]}}, {"type": "Feature", "properties": {"id": 44892, "category": "분기점", "detail": "분기점", "etc": ""}, "geometry": {"type": "Point", "coordinates": [126.996873, 37.684642]}}, {"type": "Feature", "properties": {"id": 44893, "category": "분기점", "detail": "분기점", "etc": ""}, "geometry": {"type": "Point", "coordinates": [126.997037, 37.650286]}}, {"type": "Feature", "properties": {"id": 44894, "category": "분기점", "detail": "분기점", "etc": ""}, "geometry": {"type": "Point", "coordinates": [126.998372, 37.654964]}}, {"type": "Feature", "properties": {"id": 44895, "category": "시종점", "detail": "시종점", "etc": ""}, "geometry": {"type": "Point", "coordinates": [126.998837, 37.618003]}}, {"type": "Feature", "properties": {"id": 44896, "category": "분기점", "detail": "분기점", "etc": ""}, "geometry": {"type": "Point", "coordinates": [127.000555, 37.656549]}}, {"type": "Feature", "properties": {"id": 44897, "category": "분기점", "detail": "분기점", "etc": ""}, "geometry": {"type": "Point", "coordinates": [127.000999, 37.64265]}}, {"type": "Feature", "properties": {"id": 44898, "category": "분기점", "detail": "분기점", "etc": ""}, "geometry": {"type": "Point", "coordinates": [127.00186, 37.642235]}}, {"type": "Feature", "properties": {"id": 44899, "category": "분기점", "detail": "분기점", "etc": ""}, "geometry": {"type": "Point", "coordinates": [127.002074, 37.658165]}}, {"type": "Feature", "properties": {"id": 44900, "category": "시종점", "detail": "시종점", "etc": ""}, "geometry": {"type": "Point", "coordinates": [127.002208, 37.642366]}}, {"type": "Feature", "properties": {"id": 44901, "category": "분기점", "detail": "분기점", "etc": ""}, "geometry": {"type": "Point", "coordinates": [127.00279, 37.656764]}}, {"type": "Feature", "properties": {"id": 44902, "category": "시종점", "detail": "시종점", "etc": ""}, "geometry": {"type": "Point", "coordinates": [127.002948, 37.6432]}}, {"type": "Feature", "properties": {"id": 44903, "category": "분기점", "detail": "분기점", "etc": ""}, "geometry": {"type": "Point", "coordinates": [127.003331, 37.65672]}}, {"type": "Feature", "properties": {"id": 44904, "category": "분기점", "detail": "분기점", "etc": ""}, "geometry": {"type": "Point", "coordinates": [127.004069, 37.658698]}}, {"type": "Feature", "properties": {"id": 44905, "category": "시종점", "detail": "시종점", "etc": ""}, "geometry": {"type": "Point", "coordinates": [127.004087, 37.635213]}}, {"type": "Feature", "properties": {"id": 44906, "category": "분기점", "detail": "분기점", "etc": ""}, "geometry": {"type": "Point", "coordinates": [127.004238, 37.671313]}}, {"type": "Feature", "properties": {"id": 44907, "category": "분기점", "detail": "분기점", "etc": ""}, "geometry": {"type": "Point", "coordinates": [127.004357, 37.658948]}}, {"type": "Feature", "properties": {"id": 44908, "category": "시종점", "detail": "시종점", "etc": ""}, "geometry": {"type": "Point", "coordinates": [127.004704, 37.644573]}}, {"type": "Feature", "properties": {"id": 44909, "category": "분기점", "detail": "분기점", "etc": ""}, "geometry": {"type": "Point", "coordinates": [127.006702, 37.656976]}}, {"type": "Feature", "properties": {"id": 44910, "category": "분기점", "detail": "분기점", "etc": ""}, "geometry": {"type": "Point", "coordinates": [127.006793, 37.660859]}}, {"type": "Feature", "properties": {"id": 44911, "category": "분기점", "detail": "분기점", "etc": ""}, "geometry": {"type": "Point", "coordinates": [127.006909, 37.657092]}}, {"type": "Feature", "properties": {"id": 44912, "category": "시종점", "detail": "시종점", "etc": ""}, "geometry": {"type": "Point", "coordinates": [127.007714, 37.66126]}}, {"type": "Feature", "properties": {"id": 44913, "category": "분기점", "detail": "분기점", "etc": ""}, "geometry": {"type": "Point", "coordinates": [127.007852, 37.655438]}}, {"type": "Feature", "properties": {"id": 44914, "category": "시종점", "detail": "시종점", "etc": ""}, "geometry": {"type": "Point", "coordinates": [127.008966, 37.661037]}}, {"type": "Feature", "properties": {"id": 44915, "category": "시종점", "detail": "시종점", "etc": ""}, "geometry": {"type": "Point", "coordinates": [127.009187, 37.633149]}}, {"type": "Feature", "properties": {"id": 44916, "category": "시종점", "detail": "시종점", "etc": ""}, "geometry": {"type": "Point", "coordinates": [127.009679, 37.627527]}}, {"type": "Feature", "properties": {"id": 44917, "category": "시종점", "detail": "시종점", "etc": ""}, "geometry": {"type": "Point", "coordinates": [127.010169, 37.653493]}}, {"type": "Feature", "properties": {"id": 44918, "category": "시종점", "detail": "시종점", "etc": ""}, "geometry": {"type": "Point", "coordinates": [127.010552, 37.65725]}}, {"type": "Feature", "properties": {"id": 44919, "category": "시종점", "detail": "시종점", "etc": ""}, "geometry": {"type": "Point", "coordinates": [127.0116, 37.664333]}}, {"type": "Feature", "properties": {"id": 44920, "category": "시종점", "detail": "시종점", "etc": ""}, "geometry": {"type": "Point", "coordinates": [127.011702, 37.664577]}}]}