{"type":"FeatureCollection","features":[{"type":"Feature","geometry":{"type":"Point","coordinates":[127.008497,37.412195]},"properties":{"id":84411,"category":"조망점","detail":"조망,주걱바위","etc":"평촌보임,밥주걱모양,수자원기능,사기막2약수"}},{"type":"Feature","geometry":{"type":"Point","coordinates":[127.042506,37.419798]},"properties":{"id":84540,"category":"조망점","detail":"조망,군사시설,위험","etc":"청결불량,군사도로"}},{"type":"Feature","geometry":{"type":"Point","coordinates":[127.042077,37.425823]},"properties":{"id":84555,"category":"조망점","detail":"조망,T.P기준석,팬스","etc":null}},{"type":"Feature","geometry":{"type":"Point","coordinates":[127.04137,37.4212]},"properties":{"id":84573,"category":"조망점","detail":"조망,금정수","etc":"하늘샘'"}},{"type":"Feature","geometry":{"type":"Point","coordinates":[127.033401,37.437086]},"properties":{"id":84581,"category":"조망점","detail":"조망,마당바위","etc":"규모작음"}},{"type":"Feature","geometry":{"type":"Point","coordinates":[127.041215,37.429663]},"properties":{"id":84598,"category":"조망점","detail":"조망,로프","etc":null}},{"type":"Feature","geometry":{"type":"Point","coordinates":[127.011664,37.415357]},"properties":{"id":84605,"category":"음수대","detail":"샘터","etc":null}},{"type":"Feature","geometry":{"type":"Point","coordinates":[127.056843,37.428281]},"properties":{"id":84609,"category":"음수대","detail":"옺샘","etc":null}},{"type":"Feature","geometry":{"type":"Point","coordinates":[127.065984,37.424409]},"properties":{"id":84612,"category":"화장실","detail":"화장실","etc":null}},{"type":"Feature","geometry":{"type":"Point","coordinates":[127.044554,37.417945]},"properties":{"id":84616,"category":"음수대","detail":"동자샘 약수터","etc":null}},{"type":"Feature","geometry":{"type":"Point","coordinates":[127.042853,37.41754]},"properties":{"id":84617,"category":"분기점","detail":"망경대 갈림길","etc":null}},{"type":"Feature","geometry":{"type":"Point","coordinates":[127.046685,37.413595]},"properties":{"id":84620,"category":"헬기장","detail":"헬기장","etc":null}},{"type":"Feature","geometry":{"type":"Point","coordinates":[127.057291,37.418866]},"properties":{"id":84625,"category":"음수대","detail":"천수샘약수터","etc":null}},{"type":"Feature","geometry":{"type":"Point","coordinates":[127.058674,37.419501]},"properties":{"id":84626,"category":"정자","detail":"정자","etc":null}},{"type":"Feature","geometry":{"type":"Point","coordinates":[127.042579,37.419486]},"properties":{"id":84633,"category":"화장실","detail":"화장실,헬기장","etc":null}},{"type":"Feature","geometry":{"type":"Point","coordinates":[127.041981,37.420586]},"properties":{"id":84635,"category":"조망점","detail":"조망점","etc":null}},{"type":"Feature","geometry":{"type":"Point","coordinates":[127.046282,37.413614]},"properties":{"id":84650,"category":"분기점","detail":"국사봉갈림길","etc":null}},{"type":"Feature","geometry":{"type":"Point","coordinates":[127.054073,37.402726]},"properties":{"id":84652,"category":"분기점","detail":"정신문화연구원 갈림길","etc":null}},{"type":"Feature","geometry":{"type":"Point","coordinates":[126.99216,37.402197]},"properties":{"id":84706,"category":"시종점","detail":"시종점","etc":"푸른산..,당부말씀,산림욕..,주현미집"}},{"type":"Feature","geometry":{"type":"Point","coordinates":[126.998106,37.408482]},"properties":{"id":84707,"category":"시종점","detail":"시종점,주차장,산소가는길","etc":"낙엽송"}},{"type":"Feature","geometry":{"type":"Point","coordinates":[126.998229,37.415238]},"properties":{"id":84708,"category":"시종점","detail":"시종점,주말농장","etc":null}},{"type":"Feature","geometry":{"type":"Point","coordinates":[126.999256,37.423464]},"properties":{"id":84709,"category":"시종점","detail":"시종점,등산지도,도원농원,진입로","etc":"위치교정,음식점"}},{"type":"Feature","geometry":{"type":"Point","coordinates":[127.000515,37.425031]},"properties":{"id":84710,"category":"시종점","detail":"시종점","etc":null}},{"type":"Feature","geometry":{"type":"Point","coordinates":[127.000773,37.417625]},"properties":{"id":84711,"category":"시종점","detail":"시종점","etc":"과천성일"}},{"type":"Feature","geometry":{"type":"Point","coordinates":[127.001108,37.405913]},"properties":{"id":84712,"category":"분기점","detail":"분기점","etc":"문원낚시터,학의 방향"}},{"type":"Feature","geometry":{"type":"Point","coordinates":[127.001786,37.411114]},"properties":{"id":84713,"category":"시종점","detail":"시종점","etc":null}},{"type":"Feature","geometry":{"type":"Point","coordinates":[127.002452,37.4216]},"properties":{"id":84714,"category":"분기점","detail":"분기점","etc":"5,6호약수"}},{"type":"Feature","geometry":{"type":"Point","coordinates":[127.002582,37.41551]},"properties":{"id":84715,"category":"분기점","detail":"분기점","etc":"세골방향"}},{"type":"Feature","geometry":{"type":"Point","coordinates":[127.003839,37.395578]},"properties":{"id":84716,"category":"시종점","detail":"시종점","etc":"명진농원"}},{"type":"Feature","geometry":{"type":"Point","coordinates":[127.004364,37.422845]},"properties":{"id":84717,"category":"분기점","detail":"분기점","etc":"5,6호약수"}},{"type":"Feature","geometry":{"type":"Point","coordinates":[127.005022,37.417679]},"properties":{"id":84718,"category":"시종점","detail":"시종점,종합안내판,돌담,경계석,공용취사장,통제초소,자전거보관,테이블의","etc":"정OO별장,소하천,입산통제..,문화시민..,안내문,과천시,이용객적음,만남의장소,태양열"}},{"type":"Feature","geometry":{"type":"Point","coordinates":[127.005918,37.430228]},"properties":{"id":84719,"category":"시종점","detail":"시종점,원숭이학교,목계단","etc":"서울대공원"}},{"type":"Feature","geometry":{"type":"Point","coordinates":[127.006074,37.420539]},"properties":{"id":84721,"category":"분기점","detail":"분기점","etc":"5,6호약수"}},{"type":"Feature","geometry":{"type":"Point","coordinates":[127.006834,37.413798]},"properties":{"id":84722,"category":"분기점","detail":"분기점","etc":"매봉골"}},{"type":"Feature","geometry":{"type":"Point","coordinates":[127.00823,37.422046]},"properties":{"id":84724,"category":"시종점","detail":"시종점,전홍논원,표석,다리,비닐하우스","etc":null}},{"type":"Feature","geometry":{"type":"Point","coordinates":[127.008559,37.412122]},"properties":{"id":84725,"category":"분기점","detail":"분기점","etc":null}},{"type":"Feature","geometry":{"type":"Point","coordinates":[127.009733,37.425662]},"properties":{"id":84726,"category":"시종점","detail":"시종점,주차장,목계단","etc":"공용,불법투기"}},{"type":"Feature","geometry":{"type":"Point","coordinates":[127.010063,37.415147]},"properties":{"id":84728,"category":"분기점","detail":"분기점","etc":null}},{"type":"Feature","geometry":{"type":"Point","coordinates":[127.011273,37.427844]},"properties":{"id":84729,"category":"시종점","detail":"시종점","etc":"서울대공원 배드민턴장"}},{"type":"Feature","geometry":{"type":"Point","coordinates":[127.011359,37.424853]},"properties":{"id":84730,"category":"시종점","detail":"시종점,영보수녀원,돌계단,표시석","etc":"개발제한"}},{"type":"Feature","geometry":{"type":"Point","coordinates":[127.011556,37.422096]},"properties":{"id":84731,"category":"시종점","detail":"시종점","etc":null}},{"type":"Feature","geometry":{"type":"Point","coordinates":[127.013139,37.412918]},"properties":{"id":84734,"category":"분기점","detail":"분기점","etc":"사기막1약수"}},{"type":"Feature","geometry":{"type":"Point","coordinates":[127.01345,37.413929]},"properties":{"id":84735,"category":"분기점","detail":"분기점","etc":null}},{"type":"Feature","geometry":{"type":"Point","coordinates":[127.013459,37.416501]},"properties":{"id":84736,"category":"분기점","detail":"분기점","etc":null}},{"type":"Feature","geometry":{"type":"Point","coordinates":[127.013469,37.41713]},"properties":{"id":84737,"category":"분기점","detail":"분기점","etc":"5,6호약수"}},{"type":"Feature","geometry":{"type":"Point","coordinates":[127.013557,37.41803]},"properties":{"id":84739,"category":"분기점","detail":"분기점","etc":"매봉1약수"}},{"type":"Feature","geometry":{"type":"Point","coordinates":[127.013638,37.417414]},"properties":{"id":84740,"category":"분기점","detail":"분기점","etc":"5,6호약수"}},{"type":"Feature","geometry":{"type":"Point","coordinates":[127.016855,37.413566]},"properties":{"id":84742,"category":"분기점","detail":"분기점","etc":null}},{"type":"Feature","geometry":{"type":"Point","coordinates":[127.018894,37.435974]},"properties":{"id":84743,"category":"시종점","detail":"시종점,도로,현수막","etc":"입구"}},{"type":"Feature","geometry":{"type":"Point","coordinates":[127.024136,37.394392]},"properties":{"id":84744,"category":"분기점","detail":"분기점","etc":null}},{"type":"Feature","geometry":{"type":"Point","coordinates":[127.02521,37.443968]},"properties":{"id":84745,"category":"시종점","detail":"시종점","etc":null}},{"type":"Feature","geometry":{"type":"Point","coordinates":[127.0258,37.405532]},"properties":{"id":84746,"category":"시종점","detail":"시종점","etc":"청계산"}},{"type":"Feature","geometry":{"type":"Point","coordinates":[127.027927,37.401309]},"properties":{"id":84747,"category":"분기점","detail":"분기점","etc":null}},{"type":"Feature","geometry":{"type":"Point","coordinates":[127.029563,37.373063]},"properties":{"id":84749,"category":"시종점","detail":"시종점","etc":null}},{"type":"Feature","geometry":{"type":"Point","coordinates":[127.031214,37.379442]},"properties":{"id":84751,"category":"정상","detail":"정상부,하오고개 이정표,","etc":null}},{"type":"Feature","geometry":{"type":"Point","coordinates":[127.032855,37.435576]},"properties":{"id":84753,"category":"분기점","detail":"분기점","etc":"폭포가는길"}},{"type":"Feature","geometry":{"type":"Point","coordinates":[127.033862,37.404618]},"properties":{"id":84754,"category":"분기점","detail":"분기점","etc":null}},{"type":"Feature","geometry":{"type":"Point","coordinates":[127.035142,37.411187]},"properties":{"id":84756,"category":"주차장","detail":"주차장","etc":"청계사"}},{"type":"Feature","geometry":{"type":"Point","coordinates":[127.035535,37.441263]},"properties":{"id":84757,"category":"분기점","detail":"분기점","etc":null}},{"type":"Feature","geometry":{"type":"Point","coordinates":[127.035747,37.457395]},"properties":{"id":84758,"category":"시종점","detail":"시종점,안내판,주차장,산소,전단지걸이,개인주택","etc":"묶어있음"}},{"type":"Feature","geometry":{"type":"Point","coordinates":[127.035847,37.439199]},"properties":{"id":84759,"category":"조망점","detail":"조망,긴급연락처,헬기장,팬스","etc":"등산지도,과천시전망,황토맨발길,옥녀봉,대공원설치"}},{"type":"Feature","geometry":{"type":"Point","coordinates":[127.036614,37.403113]},"properties":{"id":84760,"category":"분기점","detail":"분기점","etc":null}},{"type":"Feature","geometry":{"type":"Point","coordinates":[127.037603,37.393247]},"properties":{"id":84763,"category":"분기점","detail":"분기점","etc":null}},{"type":"Feature","geometry":{"type":"Point","coordinates":[127.03777,37.413794]},"properties":{"id":84764,"category":"분기점","detail":"분기점","etc":null}},{"type":"Feature","geometry":{"type":"Point","coordinates":[127.039126,37.394394]},"properties":{"id":84766,"category":"시종점","detail":"시종점","etc":null}},{"type":"Feature","geometry":{"type":"Point","coordinates":[127.039219,37.458002]},"properties":{"id":84767,"category":"시종점","detail":"시종점","etc":null}},{"type":"Feature","geometry":{"type":"Point","coordinates":[127.041711,37.423656]},"properties":{"id":84768,"category":"분기점","detail":"분기점","etc":null}},{"type":"Feature","geometry":{"type":"Point","coordinates":[127.041722,37.415693]},"properties":{"id":84769,"category":"분기점","detail":"분기점","etc":null}},{"type":"Feature","geometry":{"type":"Point","coordinates":[127.041755,37.416914]},"properties":{"id":84770,"category":"분기점","detail":"분기점","etc":null}},{"type":"Feature","geometry":{"type":"Point","coordinates":[127.041865,37.423044]},"properties":{"id":84773,"category":"분기점","detail":"분기점","etc":null}},{"type":"Feature","geometry":{"type":"Point","coordinates":[127.042407,37.419856]},"properties":{"id":84775,"category":"분기점","detail":"분기점","etc":null}},{"type":"Feature","geometry":{"type":"Point","coordinates":[127.042675,37.41971]},"properties":{"id":84776,"category":"분기점","detail":"분기점","etc":null}},{"type":"Feature","geometry":{"type":"Point","coordinates":[127.043053,37.404943]},"properties":{"id":84778,"category":"분기점","detail":"분기점","etc":null}},{"type":"Feature","geometry":{"type":"Point","coordinates":[127.046794,37.413709]},"properties":{"id":84781,"category":"분기점","detail":"분기점","etc":null}},{"type":"Feature","geometry":{"type":"Point","coordinates":[127.047375,37.430822]},"properties":{"id":84782,"category":"분기점","detail":"분기점","etc":null}},{"type":"Feature","geometry":{"type":"Point","coordinates":[127.048003,37.413712]},"properties":{"id":84783,"category":"분기점","detail":"분기점","etc":null}},{"type":"Feature","geometry":{"type":"Point","coordinates":[127.053611,37.402574]},"properties":{"id":84784,"category":"분기점","detail":"분기점","etc":null}},{"type":"Feature","geometry":{"type":"Point","coordinates":[127.054765,37.393402]},"properties":{"id":84785,"category":"시종점","detail":"시종점","etc":null}},{"type":"Feature","geometry":{"type":"Point","coordinates":[127.057546,37.392809]},"properties":{"id":84787,"category":"시종점","detail":"시종점,이정표","etc":null}},{"type":"Feature","geometry":{"type":"Point","coordinates":[127.059381,37.429446]},"properties":{"id":84788,"category":"분기점","detail":"분기점","etc":null}},{"type":"Feature","geometry":{"type":"Point","coordinates":[127.063439,37.422234]},"properties":{"id":84789,"category":"분기점","detail":"분기점","etc":null}},{"type":"Feature","geometry":{"type":"Point","coordinates":[127.070343,37.407938]},"properties":{"id":84790,"category":"시종점","detail":"시종점,이정표,산불감시초소","etc":null}},{"type":"Feature","geometry":{"type":"Point","coordinates":[127.071372,37.428725]},"properties":{"id":84791,"category":"시종점","detail":"시종점","etc":null}},{"type":"Feature","geometry":{"type":"Point","coordinates":[127.072232,37.430696]},"properties":{"id":84793,"category":"시종점","detail":"시종점","etc":null}},{"type":"Feature","geometry":{"type":"Point","coordinates":[127.072339,37.424437]},"properties":{"id":84794,"category":"시종점","detail":"시종점,화장실","etc":null}},{"type":"Feature","geometry":{"type":"Point","coordinates":[127.075664,37.422175]},"properties":{"id":84795,"category":"시종점","detail":"시종점","etc":null}},{"type":"Feature","geometry":{"type":"Point","coordinates":[127.088029,37.445044]},"properties":{"id":84796,"category":"정상","detail":"인릉산정상,헬기장,이정표","etc":null}},{"type":"Feature","geometry":{"type":"Point","coordinates":[127.102005,37.457695]},"properties":{"id":84797,"category":"시종점","detail":"시종점","etc":null}},{"type":"Feature","geometry":{"type":"Point","coordinates":[127.043818,37.404136]},"properties":{"id":84798,"category":"분기점","detail":"분기점","etc":null}},{"type":"Feature","geometry":{"type":"Point","coordinates":[127.068181,37.427835]},"properties":{"id":84799,"category":"시종점","detail":"시종점","etc":null}}]}