{
  "type": "FeatureCollection",
  "name": "peaks",
  "features": [
    { "type": "Feature", "properties": { "name": "백운대", "elev": 836, "park": "북한산" }, "geometry": { "type": "Point", "coordinates": [126.9880, 37.6591] } },
    { "type": "Feature", "properties": { "name": "인수봉", "elev": 810, "park": "북한산" }, "geometry": { "type": "Point", "coordinates": [126.9855, 37.6620] } },
    { "type": "Feature", "properties": { "name": "비봉", "elev": 560, "park": "북한산" }, "geometry": { "type": "Point", "coordinates": [126.9600, 37.6360] } },
    { "type": "Feature", "properties": { "name": "대남문", "elev": 663, "park": "북한산" }, "geometry": { "type": "Point", "coordinates": [126.9720, 37.6300] } },
    { "type": "Feature", "properties": { "name": "대청봉", "elev": 1708, "park": "설악산" }, "geometry": { "type": "Point", "coordinates": [128.4655, 38.1194] } },
    { "type": "Feature", "properties": { "name": "울산바위", "elev": 873, "park": "설악산" }, "geometry": { "type": "Point", "coordinates": [128.4530, 38.1560] } },
    { "type": "Feature", "properties": { "name": "공룡능선", "elev": 1275, "park": "설악산" }, "geometry": { "type": "Point", "coordinates": [128.4570, 38.1360] } }
  ]
}
