{"type":"FeatureCollection","features":[{"type":"Feature","geometry":{"type":"Point","coordinates":[128.301492,38.182933]},"properties":{"id":51916,"category":"시종점","detail":"시종점","etc":null}},{"type":"Feature","geometry":{"type":"Point","coordinates":[128.341666,38.119711]},"properties":{"id":51917,"category":"시종점","detail":"시종점","etc":null}},{"type":"Feature","geometry":{"type":"Point","coordinates":[128.347341,38.136936]},"properties":{"id":51918,"category":"분기점","detail":"분기점","etc":null}},{"type":"Feature","geometry":{"type":"Point","coordinates":[128.357827,38.19183]},"properties":{"id":51919,"category":"시종점","detail":"시종점","etc":null}},{"type":"Feature","geometry":{"type":"Point","coordinates":[128.37722,38.157672]},"properties":{"id":51920,"category":"분기점","detail":"분기점","etc":null}},{"type":"Feature","geometry":{"type":"Point","coordinates":[128.380257,38.1567]},"properties":{"id":51921,"category":"분기점","detail":"분기점","etc":null}},{"type":"Feature","geometry":{"type":"Point","coordinates":[128.389004,38.15386]},"properties":{"id":51922,"category":"분기점","detail":"분기점","etc":null}},{"type":"Feature","geometry":{"type":"Point","coordinates":[128.402053,38.100105]},"properties":{"id":51923,"category":"시종점","detail":"시종점","etc":null}},{"type":"Feature","geometry":{"type":"Point","coordinates":[128.406715,38.150541]},"properties":{"id":51924,"category":"분기점","detail":"분기점","etc":null}},{"type":"Feature","geometry":{"type":"Point","coordinates":[128.40631,38.097312]},"properties":{"id":51925,"category":"시종점","detail":"시종점","etc":null}},{"type":"Feature","geometry":{"type":"Point","coordinates":[128.414279,38.146429]},"properties":{"id":51926,"category":"분기점","detail":"분기점","etc":null}},{"type":"Feature","geometry":{"type":"Point","coordinates":[128.415456,38.147359]},"properties":{"id":51927,"category":"분기점","detail":"분기점","etc":null}},{"type":"Feature","geometry":{"type":"Point","coordinates":[128.415552,38.147186]},"properties":{"id":51928,"category":"분기점","detail":"분기점","etc":null}},{"type":"Feature","geometry":{"type":"Point","coordinates":[128.420778,38.180745]},"properties":{"id":51929,"category":"분기점","detail":"분기점","etc":null}},{"type":"Feature","geometry":{"type":"Point","coordinates":[128.42284,38.184613]},"properties":{"id":51930,"category":"시종점","detail":"시종점","etc":null}},{"type":"Feature","geometry":{"type":"Point","coordinates":[128.423467,38.149558]},"properties":{"id":51931,"category":"분기점","detail":"분기점","etc":null}},{"type":"Feature","geometry":{"type":"Point","coordinates":[128.427727,38.1507]},"properties":{"id":51932,"category":"분기점","detail":"분기점","etc":null}},{"type":"Feature","geometry":{"type":"Point","coordinates":[128.437593,38.157902]},"properties":{"id":51933,"category":"분기점","detail":"분기점","etc":null}},{"type":"Feature","geometry":{"type":"Point","coordinates":[128.437805,38.158071]},"properties":{"id":51934,"category":"분기점","detail":"분기점","etc":null}},{"type":"Feature","geometry":{"type":"Point","coordinates":[128.437947,38.159298]},"properties":{"id":51935,"category":"분기점","detail":"분기점","etc":null}},{"type":"Feature","geometry":{"type":"Point","coordinates":[128.444446,38.140306]},"properties":{"id":51936,"category":"분기점","detail":"분기점","etc":null}},{"type":"Feature","geometry":{"type":"Point","coordinates":[128.446496,38.129956]},"properties":{"id":51937,"category":"분기점","detail":"분기점","etc":null}},{"type":"Feature","geometry":{"type":"Point","coordinates":[128.447566,38.128713]},"properties":{"id":51938,"category":"분기점","detail":"분기점","etc":null}},{"type":"Feature","geometry":{"type":"Point","coordinates":[128.448952,38.084683]},"properties":{"id":51939,"category":"시종점","detail":"시종점","etc":null}},{"type":"Feature","geometry":{"type":"Point","coordinates":[128.456711,38.125643]},"properties":{"id":51940,"category":"분기점","detail":"분기점","etc":null}},{"type":"Feature","geometry":{"type":"Point","coordinates":[128.459358,38.121559]},"properties":{"id":51941,"category":"분기점","detail":"분기점","etc":null}},{"type":"Feature","geometry":{"type":"Point","coordinates":[128.461891,38.138849]},"properties":{"id":51942,"category":"분기점","detail":"분기점","etc":null}},{"type":"Feature","geometry":{"type":"Point","coordinates":[128.464271,38.134658]},"properties":{"id":51943,"category":"분기점","detail":"분기점","etc":null}},{"type":"Feature","geometry":{"type":"Point","coordinates":[128.464456,38.134448]},"properties":{"id":51944,"category":"분기점","detail":"분기점","etc":null}},{"type":"Feature","geometry":{"type":"Point","coordinates":[128.464736,38.132686]},"properties":{"id":51945,"category":"분기점","detail":"분기점","etc":null}},{"type":"Feature","geometry":{"type":"Point","coordinates":[128.465147,38.11927]},"properties":{"id":51946,"category":"분기점","detail":"분기점","etc":null}},{"type":"Feature","geometry":{"type":"Point","coordinates":[128.466523,38.162697]},"properties":{"id":51947,"category":"분기점","detail":"분기점","etc":null}},{"type":"Feature","geometry":{"type":"Point","coordinates":[128.466771,38.119172]},"properties":{"id":51948,"category":"분기점","detail":"분기점","etc":null}},{"type":"Feature","geometry":{"type":"Point","coordinates":[128.469312,38.116222]},"properties":{"id":51949,"category":"분기점","detail":"분기점","etc":null}},{"type":"Feature","geometry":{"type":"Point","coordinates":[128.471127,38.074927]},"properties":{"id":51950,"category":"시종점","detail":"시종점","etc":null}},{"type":"Feature","geometry":{"type":"Point","coordinates":[128.473459,38.170888]},"properties":{"id":51951,"category":"분기점","detail":"분기점","etc":null}},{"type":"Feature","geometry":{"type":"Point","coordinates":[128.47612,38.114964]},"properties":{"id":51952,"category":"분기점","detail":"분기점","etc":null}},{"type":"Feature","geometry":{"type":"Point","coordinates":[128.476603,38.107035]},"properties":{"id":51953,"category":"분기점","detail":"분기점","etc":null}},{"type":"Feature","geometry":{"type":"Point","coordinates":[128.486626,38.174047]},"properties":{"id":51954,"category":"시종점","detail":"시종점","etc":null}},{"type":"Feature","geometry":{"type":"Point","coordinates":[128.490533,38.171077]},"properties":{"id":51955,"category":"시종점","detail":"시종점","etc":null}},{"type":"Feature","geometry":{"type":"Point","coordinates":[128.490977,38.108714]},"properties":{"id":51956,"category":"분기점","detail":"분기점","etc":null}},{"type":"Feature","geometry":{"type":"Point","coordinates":[128.500581,38.092897]},"properties":{"id":51957,"category":"시종점","detail":"시종점","etc":null}},{"type":"Feature","geometry":{"type":"Point","coordinates":[128.504216,38.075343]},"properties":{"id":51958,"category":"시종점","detail":"시종점","etc":null}},{"type":"Feature","geometry":{"type":"Point","coordinates":[128.504685,38.090336]},"properties":{"id":51959,"category":"분기점","detail":"분기점","etc":null}},{"type":"Feature","geometry":{"type":"Point","coordinates":[128.504804,38.090147]},"properties":{"id":51960,"category":"분기점","detail":"분기점","etc":null}}]}