{"type":"FeatureCollection","features":[{"type":"Feature","geometry":{"type":"MultiLineString","coordinates":[[[128.465147,38.11927],[128.46639,38.119181],[128.466771,38.119172]]]},"properties":{"name":"설악산 대청봉 구간 1","difficulty":"초급","distance_km":0.14,"time_hr":0.0,"kind":"산림청 구간","desc":"산림청 등산로 구간 데이터(미큐레이션)"}},{"type":"Feature","geometry":{"type":"MultiLineString","coordinates":[[[128.461891,38.138849],[128.461884,38.138956],[128.461832,38.139035],[128.461698,38.139166],[128.461464,38.139212],[128.461323,38.139435],[128.461148,38.139801],[128.461039,38.139826],[128.460908,38.139933],[128.46066,38.140208],[128.460102,38.140358],[128.459453,38.140531],[128.458987,38.140537],[128.458702,38.14054],[128.458359,38.140587],[128.457823,38.140959],[128.457265,38.141108],[128.457002,38.141112],[128.456839,38.141092],[128.456737,38.140986],[128.456573,38.140924],[128.456428,38.140947],[128.456322,38.141077],[128.455883,38.14129],[128.455742,38.141485],[128.455249,38.142185],[128.454681,38.142764],[128.454584,38.142886],[128.45441,38.143239],[128.454179,38.143485],[128.45422,38.14366],[128.454229,38.143699],[128.453977,38.144238],[128.454032,38.144745],[128.453953,38.144882],[128.453866,38.145055],[128.453696,38.14515],[128.45358,38.145216],[128.453455,38.145339],[128.453395,38.145475],[128.45338,38.145654],[128.453484,38.145846],[128.453307,38.146084],[128.452704,38.146263],[128.452397,38.146317],[128.452021,38.146543],[128.451733,38.146611],[128.451476,38.146879],[128.451188,38.146954],[128.45096,38.147329],[128.450593,38.147576],[128.450551,38.14772],[128.450002,38.148377],[128.449823,38.148473],[128.449569,38.148426],[128.449291,38.148586],[128.448461,38.14874],[128.448383,38.148898],[128.448161,38.149115],[128.447846,38.149219],[128.44764,38.149315],[128.447407,38.149453],[128.44728,38.149462],[128.447015,38.149787],[128.446808,38.149861],[128.446466,38.149966],[128.44627,38.150132],[128.44602,38.1503],[128.445696,38.15039],[128.445259,38.15071],[128.445105,38.150747],[128.444851,38.150693],[128.444684,38.150502],[128.444493,38.150469],[128.44439,38.150284],[128.444083,38.150317],[128.444063,38.150252],[128.443955,38.150254],[128.443675,38.150286],[128.443405,38.150389],[128.442941,38.150745],[128.442748,38.150767],[128.44248,38.150862],[128.442214,38.151076],[128.442222,38.151469],[128.442116,38.151628],[128.442085,38.151852],[128.442077,38.151907],[128.441695,38.152291],[128.441193,38.152547],[128.441193,38.153026],[128.441052,38.153221],[128.441074,38.153414],[128.440977,38.153537],[128.440785,38.153468],[128.440561,38.153549],[128.440291,38.153674],[128.440024,38.154378],[128.439684,38.154539],[128.439452,38.154735],[128.439272,38.154795],[128.438867,38.154943],[128.438707,38.15508],[128.438436,38.155591],[128.438157,38.155706],[128.438129,38.155718],[128.437871,38.155834],[128.437622,38.156142],[128.437746,38.156448],[128.438004,38.156681],[128.438138,38.157037],[128.438241,38.1572],[128.438032,38.15788],[128.438002,38.157975],[128.437805,38.158071]]]},"properties":{"name":"설악산 대청봉 구간 2","difficulty":"초급","distance_km":3.53,"time_hr":1.0,"kind":"산림청 구간","desc":"산림청 등산로 구간 데이터(미큐레이션)"}},{"type":"Feature","geometry":{"type":"MultiLineString","coordinates":[[[128.437947,38.159298],[128.437823,38.15945],[128.437735,38.159572],[128.437683,38.15973],[128.437841,38.159861],[128.437897,38.159935],[128.438126,38.160236],[128.438287,38.160449],[128.438345,38.160609],[128.438421,38.160819],[128.438662,38.16138],[128.438678,38.161402],[128.438966,38.161821],[128.438964,38.162178],[128.438947,38.162305],[128.438909,38.162594],[128.438819,38.162602],[128.438575,38.162655],[128.438121,38.162834],[128.438104,38.162856],[128.438002,38.162984],[128.437744,38.163201],[128.437367,38.163385],[128.43659,38.163973],[128.436384,38.164047],[128.435867,38.164476],[128.435781,38.164713],[128.435743,38.165092],[128.435647,38.165294],[128.435344,38.165555],[128.43534,38.165798],[128.435225,38.165906],[128.434882,38.165968],[128.434467,38.166094],[128.433922,38.166437],[128.433825,38.166581],[128.433758,38.16734],[128.433536,38.16755],[128.433288,38.167818],[128.433368,38.168203],[128.433162,38.168332],[128.432714,38.168611],[128.432626,38.168922],[128.432587,38.169056],[128.432269,38.169468],[128.43175,38.169796],[128.431236,38.169902],[128.430709,38.170245],[128.430479,38.170526],[128.428584,38.171365],[128.428299,38.17164],[128.428056,38.172186],[128.427706,38.17227],[128.427675,38.172277],[128.426753,38.172717],[128.426211,38.172795],[128.426027,38.17309],[128.425866,38.173233],[128.425798,38.173294],[128.425546,38.173518],[128.424692,38.17385],[128.42467,38.174122],[128.424438,38.1744],[128.424387,38.174462],[128.424391,38.174662],[128.424476,38.175069],[128.424477,38.175131],[128.424472,38.175227],[128.42441,38.175318],[128.42421,38.17536],[128.424113,38.175491],[128.423951,38.175611],[128.423822,38.175613],[128.42357,38.175602],[128.423401,38.175595],[128.423103,38.175812],[128.423037,38.175978],[128.42293,38.176013],[128.422723,38.176015],[128.422398,38.17597],[128.422021,38.175917],[128.421685,38.175898],[128.421471,38.175929],[128.421379,38.175981],[128.42121,38.176079],[128.421012,38.176177],[128.420843,38.176309],[128.420674,38.17644],[128.420569,38.176538],[128.420379,38.176692],[128.420252,38.176806],[128.420118,38.176904],[128.420027,38.176984],[128.419958,38.17712],[128.419933,38.177295],[128.419943,38.177408],[128.420017,38.177576],[128.420065,38.177841],[128.420316,38.178605],[128.420539,38.179081],[128.420769,38.179496],[128.420712,38.179874],[128.420787,38.180082],[128.420798,38.180257],[128.420778,38.180745]]]},"properties":{"name":"설악산 대청봉 구간 3","difficulty":"초급","distance_km":3.37,"time_hr":1.0,"kind":"산림청 구간","desc":"산림청 등산로 구간 데이터(미큐레이션)"}},{"type":"Feature","geometry":{"type":"MultiLineString","coordinates":[[[128.466523,38.162697],[128.466605,38.162521],[128.467402,38.161845],[128.467522,38.161743],[128.468071,38.160787],[128.468156,38.160646],[128.468407,38.160491],[128.468479,38.16025],[128.468897,38.160171],[128.469137,38.160072],[128.469273,38.159966],[128.469289,38.159909],[128.469309,38.159817],[128.469318,38.159699],[128.469249,38.159565],[128.469179,38.159383],[128.469143,38.158966],[128.469324,38.158628],[128.469519,38.158469],[128.469669,38.157975],[128.469684,38.157887],[128.469988,38.157657],[128.470234,38.157288],[128.470309,38.157143],[128.470289,38.156983],[128.47033,38.156821],[128.470361,38.156707],[128.470248,38.156565],[128.470186,38.156252],[128.470382,38.155866],[128.470462,38.155717],[128.470692,38.155649],[128.470884,38.155564],[128.471003,38.155454],[128.471149,38.155308],[128.471202,38.155203],[128.471399,38.154977],[128.471103,38.154659],[128.470727,38.153498],[128.470552,38.152906],[128.470359,38.152752],[128.470227,38.15251],[128.47012,38.152168],[128.469853,38.151914],[128.469768,38.151744],[128.470112,38.15131],[128.470387,38.151028],[128.4708,38.150858],[128.471296,38.150716],[128.471503,38.150671],[128.471569,38.15037],[128.471855,38.150151],[128.472388,38.150095],[128.472901,38.149945],[128.473391,38.149532],[128.473611,38.14925],[128.47375,38.148941],[128.473893,38.148417],[128.473845,38.148253],[128.473695,38.147998],[128.473388,38.147615],[128.473248,38.14741],[128.473209,38.14726],[128.473243,38.147138],[128.473387,38.147093],[128.473477,38.147092],[128.473595,38.147069],[128.473653,38.146833],[128.473649,38.146618],[128.473238,38.145536],[128.472818,38.144483],[128.472607,38.1439],[128.472541,38.143772],[128.472675,38.143642],[128.472881,38.143546],[128.473124,38.143479],[128.473495,38.14346],[128.473821,38.143463],[128.47393,38.143461],[128.474092,38.143459],[128.474191,38.142943],[128.474463,38.141638],[128.474225,38.14014],[128.47412,38.139763],[128.473971,38.139128],[128.473691,38.137802],[128.473478,38.136239],[128.473357,38.136083],[128.473264,38.135955],[128.473198,38.135806],[128.473077,38.13565],[128.47293,38.135516],[128.472791,38.135353],[128.472517,38.134813],[128.472024,38.134619],[128.471767,38.13443],[128.471495,38.134419],[128.471121,38.134245],[128.471163,38.134101],[128.470927,38.134054],[128.470614,38.133786],[128.469958,38.133587],[128.469246,38.133782],[128.468291,38.134008],[128.46774,38.134037],[128.467595,38.13406],[128.467471,38.134204],[128.467077,38.134417],[128.466815,38.134441],[128.466374,38.134533],[128.46578,38.134705],[128.465429,38.134831],[128.465003,38.134822],[128.464889,38.134859],[128.464778,38.134896],[128.464625,38.134898],[128.464484,38.134664],[128.464456,38.134448]]]},"properties":{"name":"설악산 대청봉 구간 4","difficulty":"초급","distance_km":4.54,"time_hr":1.3,"kind":"산림청 구간","desc":"산림청 등산로 구간 데이터(미큐레이션)"}},{"type":"Feature","geometry":{"type":"MultiLineString","coordinates":[[[128.466523,38.162697],[128.466331,38.162579],[128.465903,38.162492],[128.465468,38.16249],[128.465236,38.16265],[128.465074,38.163124],[128.463865,38.163804],[128.463759,38.163977],[128.462999,38.164459],[128.462524,38.164708],[128.462347,38.164889],[128.462148,38.16537],[128.462087,38.165485],[128.462015,38.165529],[128.461915,38.165502],[128.461661,38.165462],[128.461434,38.165429],[128.461263,38.16551],[128.461175,38.165604],[128.461076,38.165655],[128.460859,38.165665],[128.460669,38.165668],[128.46056,38.165655],[128.460431,38.165585],[128.460258,38.165522],[128.460059,38.165511],[128.459669,38.165501],[128.45948,38.165546],[128.459119,38.165644],[128.45894,38.165725],[128.458634,38.165836],[128.458409,38.165889],[128.458039,38.165972],[128.457795,38.166018],[128.457461,38.166051],[128.456951,38.165921],[128.4563,38.165965],[128.455566,38.165945],[128.455074,38.165773],[128.454206,38.16539],[128.453231,38.164637],[128.452584,38.164002],[128.451567,38.163399],[128.450774,38.162708],[128.450433,38.162419],[128.4498,38.162012],[128.449367,38.161632],[128.449102,38.161499],[128.448826,38.161274],[128.448373,38.161251],[128.447956,38.161227],[128.447528,38.16114],[128.447246,38.161086],[128.446956,38.161068],[128.446703,38.161064],[128.446558,38.161066],[128.446404,38.16106],[128.446213,38.161041],[128.446031,38.160986],[128.445759,38.160968],[128.445614,38.16097],[128.445469,38.160979],[128.445353,38.161066],[128.44521,38.161154],[128.445095,38.161277],[128.444997,38.161371],[128.444762,38.161402],[128.444536,38.161405],[128.444337,38.161415],[128.444102,38.161461],[128.44395,38.161534],[128.443824,38.1616],[128.443563,38.161667],[128.443292,38.161707],[128.443112,38.161745],[128.442849,38.161733],[128.442612,38.161679],[128.442348,38.161582],[128.44201,38.161458],[128.441763,38.161318],[128.441613,38.161091],[128.441421,38.161],[128.441268,38.161009],[128.44116,38.161053],[128.44108,38.161126],[128.440992,38.161241],[128.440901,38.161228],[128.440836,38.16115],[128.440697,38.161016],[128.440532,38.160925],[128.440268,38.160836],[128.43995,38.160761],[128.439712,38.160664],[128.439539,38.160587],[128.439456,38.160509],[128.439316,38.160332],[128.439205,38.160191],[128.439064,38.159957],[128.438825,38.159759],[128.438432,38.159557],[128.438031,38.159454],[128.437947,38.159298]]]},"properties":{"name":"설악산 대청봉 구간 5","difficulty":"초급","distance_km":3.08,"time_hr":0.9,"kind":"산림청 구간","desc":"산림청 등산로 구간 데이터(미큐레이션)"}},{"type":"Feature","geometry":{"type":"MultiLineString","coordinates":[[[128.466771,38.119172],[128.467275,38.119194],[128.467621,38.119275],[128.46807,38.119549],[128.468612,38.119964],[128.469007,38.120238],[128.469252,38.120273],[128.469697,38.120336],[128.470697,38.120581],[128.471816,38.12086],[128.472462,38.121017],[128.47343,38.121441],[128.47396,38.12172],[128.474403,38.122108],[128.474868,38.12276],[128.475403,38.123254],[128.475759,38.12385],[128.475959,38.124312],[128.476367,38.124793],[128.477097,38.125556],[128.477457,38.125895],[128.477668,38.126958],[128.47809,38.127682],[128.478626,38.128225],[128.479577,38.129099],[128.479991,38.129481],[128.4806,38.130024],[128.480777,38.130258],[128.481309,38.131088],[128.482084,38.131807],[128.482305,38.131983],[128.482812,38.13242],[128.484076,38.13269],[128.485214,38.13304],[128.48583,38.133469],[128.486901,38.134528],[128.487371,38.134479],[128.48799,38.134657],[128.488411,38.134859],[128.48892,38.135417],[128.489171,38.135736],[128.490016,38.136333],[128.490272,38.136473],[128.49057,38.136855],[128.490962,38.137022],[128.491024,38.137393],[128.491419,38.137674],[128.491762,38.138034],[128.491776,38.138299],[128.491572,38.138523],[128.491413,38.139147],[128.49107,38.139659],[128.490892,38.140226],[128.490995,38.140868],[128.491475,38.141756],[128.491586,38.142284],[128.491863,38.142552],[128.491831,38.14276],[128.491499,38.142928],[128.491252,38.143668],[128.490785,38.144303],[128.490342,38.144781],[128.489819,38.144923],[128.489346,38.145265],[128.489146,38.145661],[128.489156,38.146161],[128.489276,38.146696],[128.489037,38.147407],[128.489149,38.148042],[128.488742,38.148498],[128.488159,38.149206],[128.487994,38.149573],[128.487925,38.150153],[128.488085,38.150451],[128.488315,38.15067],[128.488342,38.151098],[128.48841,38.151312],[128.488648,38.151423],[128.48885,38.151564],[128.489072,38.151783],[128.489029,38.151926],[128.488786,38.152423],[128.488783,38.152716],[128.488562,38.152976],[128.488654,38.153526],[128.488517,38.153921],[128.488343,38.154252],[128.48821,38.154833],[128.487934,38.155501],[128.48773,38.15574],[128.487526,38.156808],[128.487492,38.156937],[128.487275,38.156961],[128.486259,38.156845],[128.485237,38.157366],[128.484942,38.157992],[128.484376,38.158671],[128.484239,38.159094],[128.484161,38.159238],[128.484247,38.159445],[128.484494,38.15957],[128.484418,38.15985],[128.484467,38.16005],[128.484657,38.160491],[128.485165,38.160978],[128.485222,38.161542],[128.485074,38.161837],[128.485338,38.162777],[128.48732,38.164054],[128.48772,38.164134],[128.487954,38.164067],[128.488021,38.164266],[128.487862,38.164461],[128.487765,38.164584],[128.487673,38.16495],[128.487194,38.165471],[128.487291,38.166235],[128.487378,38.166477],[128.487484,38.166783],[128.487595,38.167354],[128.487839,38.167772],[128.488053,38.16807],[128.488446,38.168237],[128.488894,38.168431],[128.489324,38.168626],[128.490013,38.169146],[128.490602,38.169589],[128.490938,38.170529],[128.490961,38.170764],[128.490533,38.171077]]]},"properties":{"name":"설악동구간 1","difficulty":"초급","distance_km":7.64,"time_hr":4.8,"kind":"산림청 구간","desc":"산림청 등산로 구간 데이터(미큐레이션)"}},{"type":"Feature","geometry":{"type":"MultiLineString","coordinates":[[[128.473459,38.170888],[128.473421,38.170495],[128.473292,38.170092],[128.473242,38.169858],[128.473329,38.169206],[128.473226,38.169057],[128.473123,38.16888],[128.472977,38.16836],[128.472416,38.167959],[128.472025,38.167442],[128.471446,38.167006],[128.470852,38.166277],[128.470355,38.165897],[128.470039,38.165508],[128.469655,38.165305],[128.469417,38.165208],[128.469127,38.165169],[128.468522,38.164804],[128.468254,38.164579],[128.467897,38.16439],[128.467814,38.164306],[128.467839,38.164177],[128.467874,38.164105],[128.46789,38.164033],[128.467869,38.163883],[128.467812,38.163755],[128.467199,38.163412],[128.467077,38.163199],[128.46697,38.162865],[128.46667,38.162797],[128.466523,38.162697]]]},"properties":{"name":"설악산 대청봉 구간 6","difficulty":"초급","distance_km":1.18,"time_hr":0.3,"kind":"산림청 구간","desc":"산림청 등산로 구간 데이터(미큐레이션)"}},{"type":"Feature","geometry":{"type":"MultiLineString","coordinates":[[[128.473459,38.170888],[128.473523,38.17109],[128.47371,38.171374],[128.473951,38.172086],[128.474919,38.172908],[128.475757,38.17329],[128.476885,38.17386],[128.47758,38.173863],[128.478372,38.173472],[128.478989,38.173369],[128.479218,38.173509],[128.480079,38.173546],[128.480797,38.173954],[128.481733,38.173942],[128.482199,38.173841],[128.482741,38.173798],[128.483937,38.173962],[128.48468,38.174084],[128.485059,38.174174],[128.485349,38.174325],[128.485966,38.174246],[128.486626,38.174047]]]},"properties":{"name":"설악동구간 2","difficulty":"초급","distance_km":1.37,"time_hr":0.4,"kind":"산림청 구간","desc":"산림청 등산로 구간 데이터(미큐레이션)"}},{"type":"Feature","geometry":{"type":"MultiLineString","coordinates":[[[128.420778,38.180745],[128.422644,38.180248],[128.424302,38.179842],[128.425286,38.179637],[128.425802,38.179638],[128.427189,38.179685],[128.427524,38.179696],[128.428545,38.179519],[128.429559,38.179499],[128.430897,38.179397],[128.431266,38.179271],[128.432037,38.178833],[128.432675,38.178582],[128.433521,38.178278],[128.43434,38.178011],[128.434999,38.177896],[128.436245,38.177665],[128.437196,38.177642],[128.438148,38.177702],[128.438632,38.177743],[128.439401,38.17771],[128.439974,38.177667],[128.440518,38.177708],[128.441079,38.177833],[128.441563,38.177862],[128.442106,38.177832],[128.442752,38.177669],[128.443759,38.177454],[128.445065,38.177057],[128.445936,38.176831],[128.446599,38.176764],[128.447172,38.176733],[128.447641,38.176799],[128.448355,38.17698],[128.448568,38.177085],[128.448979,38.177247],[128.449371,38.177242],[128.449854,38.1772],[128.450199,38.177089],[128.450843,38.176866],[128.451619,38.176404],[128.452368,38.176109],[128.453807,38.176353],[128.454577,38.176367],[128.455571,38.1762],[128.456893,38.175909],[128.457342,38.175836],[128.457671,38.175817],[128.457989,38.175847],[128.458843,38.176028],[128.459537,38.175996],[128.460059,38.175703],[128.461002,38.175274],[128.461889,38.175085],[128.462704,38.175098],[128.463681,38.174848],[128.464097,38.174509],[128.464998,38.173965],[128.465186,38.173884],[128.465299,38.173844],[128.465608,38.173823],[128.4663,38.173806],[128.466593,38.173753],[128.466799,38.173611],[128.466973,38.173412],[128.467821,38.172806],[128.468195,38.172634],[128.468768,38.172592],[128.46904,38.1726],[128.469609,38.172378],[128.470629,38.172032],[128.471767,38.171565],[128.472364,38.171212],[128.472812,38.171004],[128.473459,38.170888]]]},"properties":{"name":"설악산 대청봉 구간 7","difficulty":"초급","distance_km":4.93,"time_hr":1.4,"kind":"산림청 구간","desc":"산림청 등산로 구간 데이터(미큐레이션)"}},{"type":"Feature","geometry":{"type":"MultiLineString","coordinates":[[[128.40631,38.097312],[128.405895,38.097498],[128.405939,38.097631],[128.40599,38.097751],[128.405976,38.097764],[128.405991,38.097776],[128.406076,38.09782],[128.40688,38.098189],[128.407463,38.09845],[128.407691,38.098562],[128.407969,38.098916],[128.408318,38.099054],[128.408433,38.099131],[128.408489,38.099228],[128.408515,38.099341],[128.408548,38.099409],[128.40862,38.099446],[128.408748,38.099498],[128.408814,38.09953],[128.408871,38.099591],[128.408971,38.099719],[128.409231,38.100045],[128.409286,38.100116],[128.409604,38.100147],[128.409813,38.100202],[128.410208,38.100534],[128.41037,38.101053],[128.410469,38.101367],[128.410846,38.101691],[128.410997,38.102011],[128.41114,38.10241],[128.411217,38.102659],[128.411559,38.103013],[128.411866,38.103438],[128.412123,38.103642],[128.412217,38.103834],[128.412231,38.10407],[128.412425,38.10474],[128.412071,38.105166],[128.411584,38.105251],[128.411336,38.105518],[128.411334,38.105883],[128.411373,38.106068],[128.411521,38.10621],[128.411777,38.106328],[128.411987,38.106461],[128.412044,38.106597],[128.412038,38.106747],[128.412023,38.10689],[128.412025,38.10699],[128.411644,38.107445],[128.411586,38.107725],[128.411244,38.107807],[128.410833,38.108162],[128.410711,38.108314],[128.410357,38.108748],[128.410267,38.109221],[128.410291,38.109542],[128.410225,38.1099],[128.409885,38.110541],[128.409801,38.110914],[128.409916,38.11122],[128.410167,38.112018],[128.410752,38.111861],[128.410968,38.111822],[128.411747,38.111863],[128.412494,38.111632],[128.412838,38.111628],[128.413011,38.111662],[128.413309,38.111651],[128.413435,38.111614],[128.413624,38.111547],[128.413822,38.11148],[128.41402,38.111435],[128.414235,38.111347],[128.414496,38.111279],[128.414675,38.111177],[128.414846,38.111111],[128.415007,38.111008],[128.415189,38.111078],[128.415496,38.111038],[128.415749,38.111021],[128.416031,38.11106],[128.416195,38.11113],[128.416422,38.111163],[128.416613,38.111211],[128.416776,38.111245],[128.417021,38.111234],[128.417164,38.11119],[128.417372,38.111144],[128.417662,38.111155],[128.417917,38.111267],[128.418028,38.11138],[128.418322,38.111162],[128.418607,38.110886],[128.418866,38.110726],[128.419081,38.110623],[128.419316,38.110599],[128.419597,38.110596],[128.419751,38.110615],[128.419887,38.110628],[128.420167,38.110589],[128.420401,38.110529],[128.420536,38.110513],[128.420735,38.110503],[128.420915,38.110458],[128.421094,38.11037],[128.421283,38.110311],[128.421473,38.110273],[128.421609,38.110292],[128.421863,38.110318],[128.422468,38.110275],[128.422782,38.110142],[128.42309,38.11016],[128.423458,38.10997],[128.423675,38.109974],[128.424017,38.109891],[128.424506,38.1099],[128.425102,38.109842],[128.42551,38.109866],[128.425901,38.109976],[128.426125,38.109844],[128.42625,38.109771],[128.426657,38.109716],[128.426834,38.109521],[128.426976,38.109384],[128.427191,38.109302],[128.427391,38.1093],[128.428143,38.109377],[128.429224,38.109599],[128.42947,38.109654],[128.429722,38.109572],[128.429941,38.109691],[128.43019,38.109938],[128.430465,38.110085],[128.431019,38.110214],[128.431354,38.110224],[128.432056,38.110494],[128.432538,38.110574],[128.433043,38.110525],[128.433396,38.110492],[128.433978,38.110628],[128.43567,38.111537],[128.436018,38.111762],[128.436364,38.111858],[128.436612,38.11204],[128.437174,38.112098],[128.437294,38.112211],[128.437673,38.112635],[128.438004,38.112867],[128.438496,38.113061],[128.438744,38.113266],[128.439054,38.113333],[128.439313,38.113645],[128.440391,38.114633],[128.441779,38.115245],[128.443041,38.115458],[128.443895,38.115619],[128.444963,38.11605],[128.445797,38.116125],[128.446307,38.116312],[128.447057,38.116238],[128.447701,38.116302],[128.448009,38.116327],[128.448315,38.116209],[128.44855,38.116213],[128.449073,38.116099],[128.449198,38.116047],[128.44934,38.115881],[128.449576,38.1159],[128.450084,38.115972],[128.450676,38.116165],[128.451351,38.116443],[128.451854,38.116715],[128.45241,38.116902],[128.452997,38.117302],[128.453225,38.11752],[128.453293,38.117584],[128.454278,38.118899],[128.454603,38.119334],[128.455272,38.12],[128.455587,38.120076],[128.45603,38.120439],[128.45653,38.120585],[128.456859,38.120813],[128.457124,38.120882],[128.457429,38.120942],[128.457526,38.120938],[128.457703,38.120931],[128.458191,38.120989],[128.458365,38.121082],[128.458659,38.121119],[128.458788,38.121208],[128.459215,38.121504],[128.459358,38.121559]]]},"properties":{"name":"설악산 대청봉 구간 8","difficulty":"초급","distance_km":7.02,"time_hr":2.1,"kind":"산림청 구간","desc":"산림청 등산로 구간 데이터(미큐레이션)"}},{"type":"Feature","geometry":{"type":"MultiLineString","coordinates":[[[128.459358,38.121559],[128.459447,38.121485],[128.460045,38.121446],[128.461165,38.121192],[128.461838,38.120911],[128.462038,38.120757],[128.462237,38.120562],[128.462358,38.120536],[128.46256,38.120478],[128.462882,38.12037],[128.463028,38.120087],[128.463309,38.119932],[128.463512,38.119913],[128.463733,38.119822],[128.463803,38.119774],[128.463934,38.119701],[128.464079,38.11969],[128.464203,38.119556],[128.46439,38.119618],[128.464818,38.119603],[128.465041,38.11945],[128.465147,38.11927]]]},"properties":{"name":"설악산 대청봉 구간 9","difficulty":"초급","distance_km":0.61,"time_hr":0.2,"kind":"산림청 구간","desc":"산림청 등산로 구간 데이터(미큐레이션)"}},{"type":"Feature","geometry":{"type":"MultiLineString","coordinates":[[[128.456711,38.125643],[128.456515,38.125302],[128.456593,38.12513],[128.45657,38.12488],[128.456711,38.124685],[128.456794,38.12434],[128.456934,38.124081],[128.457173,38.123807],[128.457216,38.123685],[128.457203,38.123492],[128.457354,38.123375],[128.457324,38.123204],[128.45745,38.123167],[128.457517,38.122923],[128.45794,38.122353],[128.458351,38.122076],[128.459043,38.121803],[128.459358,38.121559]]]},"properties":{"name":"설악산 대청봉 구간 10","difficulty":"초급","distance_km":0.56,"time_hr":0.2,"kind":"산림청 구간","desc":"산림청 등산로 구간 데이터(미큐레이션)"}},{"type":"Feature","geometry":{"type":"MultiLineString","coordinates":[[[128.456711,38.125643],[128.456549,38.125652],[128.456274,38.12597],[128.455996,38.126059],[128.455851,38.126068],[128.455553,38.126122],[128.455219,38.126155],[128.454922,38.12623],[128.453671,38.126589],[128.453444,38.126591],[128.453275,38.126737],[128.452979,38.126833],[128.452726,38.126872],[128.452474,38.126947],[128.452311,38.126949],[128.451843,38.127105],[128.45172,38.127285],[128.451153,38.127449],[128.450776,38.127604],[128.450296,38.127603],[128.449971,38.127614],[128.449691,38.127689],[128.449494,38.127763],[128.449204,38.127774],[128.449032,38.127776],[128.44885,38.127714],[128.448741,38.127672],[128.44856,38.12771],[128.44825,38.128028],[128.448136,38.128202],[128.448158,38.128444],[128.448094,38.128831],[128.44784,38.128842],[128.447566,38.128713]]]},"properties":{"name":"설악산 대청봉 구간 11","difficulty":"초급","distance_km":0.97,"time_hr":0.3,"kind":"산림청 구간","desc":"산림청 등산로 구간 데이터(미큐레이션)"}},{"type":"Feature","geometry":{"type":"MultiLineString","coordinates":[[[128.447566,38.128713],[128.447581,38.128984],[128.447148,38.12909],[128.447015,38.129184],[128.446787,38.129559],[128.446563,38.129683],[128.446496,38.129956]]]},"properties":{"name":"설악산 대청봉 구간 12","difficulty":"초급","distance_km":0.19,"time_hr":0.1,"kind":"산림청 구간","desc":"산림청 등산로 구간 데이터(미큐레이션)"}},{"type":"Feature","geometry":{"type":"MultiLineString","coordinates":[[[128.446496,38.129956],[128.446462,38.130099],[128.446523,38.130399],[128.446437,38.130636],[128.446457,38.130757],[128.446652,38.130983],[128.446523,38.13135],[128.446466,38.131672],[128.446596,38.131842],[128.446681,38.132027],[128.446207,38.132276],[128.445907,38.132244],[128.445767,38.132496],[128.445871,38.132702],[128.446084,38.132971],[128.446414,38.133174],[128.446826,38.133398],[128.447141,38.133773],[128.447189,38.13388],[128.447066,38.13406],[128.446913,38.134119],[128.446997,38.134276],[128.447002,38.134519],[128.446782,38.134829],[128.446717,38.135187],[128.446534,38.135575],[128.446538,38.135754],[128.446368,38.135856],[128.44639,38.136063],[128.446275,38.136194],[128.446534,38.136505],[128.446357,38.136715],[128.44636,38.136843],[128.446263,38.136966],[128.446147,38.137039],[128.445931,38.137142],[128.445906,38.137235],[128.445822,38.137551],[128.445636,38.137753],[128.445288,38.138015],[128.445206,38.138452],[128.445163,38.138553],[128.445101,38.138639],[128.445075,38.138704],[128.445077,38.138818],[128.445044,38.13899],[128.444866,38.139114],[128.444796,38.139236],[128.444789,38.139351],[128.444719,38.139473],[128.444648,38.139567],[128.444523,38.139655],[128.444426,38.13977],[128.444446,38.140306]]]},"properties":{"name":"설악산 대청봉 구간 13","difficulty":"초급","distance_km":1.37,"time_hr":0.4,"kind":"산림청 구간","desc":"산림청 등산로 구간 데이터(미큐레이션)"}},{"type":"Feature","geometry":{"type":"MultiLineString","coordinates":[[[128.446496,38.129956],[128.445176,38.130065],[128.444398,38.130082],[128.444082,38.130114],[128.443335,38.130338],[128.442619,38.130297],[128.442272,38.130136],[128.442171,38.130088],[128.441956,38.130169],[128.441732,38.130758],[128.441139,38.131466],[128.440934,38.131619],[128.440274,38.132106],[128.440101,38.132537],[128.438966,38.132815],[128.438641,38.132891],[128.438151,38.133254],[128.436594,38.133731],[128.436351,38.134278],[128.435958,38.134533],[128.435693,38.1349],[128.435226,38.135535],[128.434727,38.135942],[128.433933,38.136524],[128.433172,38.136955],[128.432679,38.137233],[128.431912,38.137371],[128.431386,38.137327],[128.431051,38.137317],[128.430261,38.137655],[128.430029,38.137837],[128.429022,38.138171],[128.428738,38.138482],[128.42854,38.13852],[128.427797,38.138493],[128.426859,38.138226],[128.426292,38.138383],[128.425594,38.138363],[128.425089,38.138476],[128.424928,38.138571],[128.424911,38.139058],[128.424309,38.139787],[128.423898,38.140064],[128.423613,38.140296],[128.423258,38.140679],[128.422811,38.140964],[128.422261,38.14107],[128.422091,38.141165],[128.42175,38.141363],[128.421574,38.141615],[128.421418,38.141981],[128.420744,38.142683],[128.419646,38.143025],[128.419165,38.143439],[128.418544,38.143618],[128.418091,38.143623],[128.417584,38.144066],[128.417845,38.144942],[128.41747,38.14519],[128.417215,38.145622],[128.416804,38.145891],[128.416441,38.146303],[128.415935,38.14686],[128.415552,38.147186]]]},"properties":{"name":"설악산 대청봉 구간 14","difficulty":"초급","distance_km":3.71,"time_hr":1.1,"kind":"산림청 구간","desc":"산림청 등산로 구간 데이터(미큐레이션)"}},{"type":"Feature","geometry":{"type":"MultiLineString","coordinates":[[[128.464736,38.132686],[128.464356,38.132662],[128.464236,38.132535],[128.464091,38.132544],[128.46396,38.132353],[128.463353,38.132317],[128.46318,38.132284],[128.462796,38.131645],[128.462624,38.131619],[128.462344,38.131636],[128.462203,38.131402],[128.461904,38.131384],[128.461692,38.13118],[128.461689,38.131015],[128.46145,38.13084],[128.46142,38.130261],[128.461334,38.130033],[128.461295,38.129912],[128.461203,38.12982],[128.461121,38.1298],[128.460985,38.129787],[128.460912,38.129774],[128.460839,38.129245],[128.460186,38.128767],[128.460013,38.128698],[128.459829,38.128107],[128.459598,38.127874],[128.459424,38.127776],[128.459179,38.12775],[128.45914,38.127601],[128.458838,38.127447],[128.458587,38.127107],[128.458239,38.126875],[128.45802,38.126828],[128.457881,38.126665],[128.457788,38.12653],[128.45765,38.126425],[128.457495,38.126355],[128.45733,38.126272],[128.457174,38.126159],[128.457017,38.125989],[128.456805,38.125799],[128.456711,38.125643]]]},"properties":{"name":"설악산 대청봉 구간 15","difficulty":"초급","distance_km":1.18,"time_hr":0.3,"kind":"산림청 구간","desc":"산림청 등산로 구간 데이터(미큐레이션)"}},{"type":"Feature","geometry":{"type":"MultiLineString","coordinates":[[[128.464736,38.132686],[128.464892,38.132749],[128.464921,38.132877],[128.464624,38.133381],[128.46461,38.133603],[128.46465,38.133723],[128.464482,38.133918],[128.464621,38.134117],[128.464456,38.134448]]]},"properties":{"name":"설악산 대청봉 구간 16","difficulty":"초급","distance_km":0.22,"time_hr":0.1,"kind":"산림청 구간","desc":"산림청 등산로 구간 데이터(미큐레이션)"}},{"type":"Feature","geometry":{"type":"MultiLineString","coordinates":[[[128.464456,38.134448],[128.464271,38.134658]]]},"properties":{"name":"설악산 대청봉 구간 17","difficulty":"초급","distance_km":0.03,"time_hr":0.0,"kind":"산림청 구간","desc":"산림청 등산로 구간 데이터(미큐레이션)"}},{"type":"Feature","geometry":{"type":"MultiLineString","coordinates":[[[128.464271,38.134658],[128.464497,38.135169],[128.464562,38.135255],[128.464786,38.135552],[128.465123,38.136141],[128.465235,38.136297],[128.465611,38.136536],[128.465483,38.13714],[128.465437,38.137353],[128.465171,38.137621],[128.464573,38.138057],[128.463902,38.138437],[128.463704,38.138526],[128.463302,38.138567],[128.463226,38.138575],[128.46279,38.13853],[128.462609,38.138504],[128.462294,38.138629],[128.462034,38.138768],[128.461891,38.138849]]]},"properties":{"name":"설악산 대청봉 구간 18","difficulty":"초급","distance_km":0.71,"time_hr":0.2,"kind":"산림청 구간","desc":"산림청 등산로 구간 데이터(미큐레이션)"}},{"type":"Feature","geometry":{"type":"MultiLineString","coordinates":[[[128.464271,38.134658],[128.464181,38.134759],[128.463698,38.135458],[128.463258,38.1361],[128.462819,38.136363],[128.462663,38.136708],[128.462511,38.137246],[128.462413,38.138206],[128.46229,38.138408],[128.461953,38.138755],[128.461891,38.138849]]]},"properties":{"name":"설악산 대청봉 구간 19","difficulty":"초급","distance_km":0.53,"time_hr":0.1,"kind":"산림청 구간","desc":"산림청 등산로 구간 데이터(미큐레이션)"}},{"type":"Feature","geometry":{"type":"MultiLineString","coordinates":[[[128.347341,38.136936],[128.347302,38.136801],[128.346992,38.136168],[128.346935,38.136019],[128.346905,38.13589],[128.346813,38.135784],[128.346708,38.135506],[128.346678,38.135335],[128.346585,38.135207],[128.346545,38.135022],[128.346524,38.134872],[128.346514,38.134801],[128.346399,38.134452],[128.346268,38.134246],[128.346231,38.134168],[128.346197,38.13381],[128.346158,38.133661],[128.34611,38.133533],[128.346053,38.133376],[128.346049,38.133169],[128.345871,38.13282],[128.345588,38.132223],[128.345486,38.132088],[128.345348,38.131932],[128.345192,38.131841],[128.344817,38.131645],[128.344512,38.131284],[128.343973,38.13104],[128.343477,38.130631],[128.34286,38.130581],[128.342448,38.130307],[128.342338,38.130208],[128.342305,38.129915],[128.342293,38.129736],[128.342227,38.129587],[128.342053,38.129475],[128.341933,38.129362],[128.341876,38.129198],[128.341872,38.128998],[128.341878,38.128854],[128.341884,38.128669],[128.34189,38.128525],[128.341888,38.12839],[128.341967,38.128253],[128.342146,38.128136],[128.342199,38.128064],[128.342332,38.127948],[128.342382,38.127662],[128.342377,38.127412],[128.342364,38.127183],[128.34236,38.126954],[128.342526,38.126659],[128.342578,38.126537],[128.342584,38.126387],[128.342582,38.126229],[128.342597,38.126108],[128.342613,38.125972],[128.342719,38.12582],[128.342807,38.125676],[128.342958,38.125503],[128.343101,38.125423],[128.34339,38.125384],[128.343705,38.125273],[128.344008,38.125019],[128.344159,38.124853],[128.344046,38.124647],[128.344008,38.124518],[128.344004,38.124347],[128.344038,38.124211],[128.344034,38.124003],[128.344031,38.123796],[128.344,38.123596],[128.343905,38.123375],[128.343884,38.123226],[128.343982,38.123096],[128.344089,38.123052],[128.344325,38.123049],[128.344478,38.123019],[128.344595,38.122967],[128.344692,38.122852],[128.344769,38.122622],[128.344783,38.122357],[128.344798,38.122221],[128.34464,38.122001],[128.344574,38.121852],[128.344391,38.121732],[128.344145,38.121628],[128.343854,38.121588],[128.343456,38.121579],[128.34323,38.121581],[128.343085,38.121612],[128.342904,38.121614],[128.34274,38.121558],[128.34263,38.121481],[128.342411,38.121362],[128.34221,38.121257],[128.342081,38.121151],[128.341967,38.120366],[128.341666,38.119711]]]},"properties":{"name":"한계리구간 1","difficulty":"초급","distance_km":2.42,"time_hr":1.5,"kind":"산림청 구간","desc":"산림청 등산로 구간 데이터(미큐레이션)"}},{"type":"Feature","geometry":{"type":"MultiLineString","coordinates":[[[128.347341,38.136936],[128.347511,38.136849],[128.347673,38.136797],[128.347889,38.13673],[128.348006,38.136678],[128.348149,38.136562],[128.348247,38.136518],[128.348463,38.136423],[128.348642,38.136307],[128.348775,38.136169],[128.348826,38.135983],[128.348887,38.135839],[128.349022,38.135816],[128.349276,38.135863],[128.349521,38.13586],[128.349819,38.135814],[128.349936,38.135813],[128.350153,38.135789],[128.350369,38.135715],[128.350748,38.13566],[128.350973,38.135579],[128.351081,38.135556],[128.351326,38.135539],[128.351588,38.135558],[128.351833,38.135555],[128.352049,38.135509],[128.35232,38.135456],[128.352509,38.13539],[128.352779,38.135329],[128.352933,38.135306],[128.353213,38.135281],[128.353566,38.135263],[128.353756,38.135261],[128.353955,38.135287],[128.354102,38.135357],[128.354292,38.135369],[128.354618,38.135358],[128.354934,38.13534],[128.35526,38.135337],[128.355513,38.135334],[128.355721,38.135288],[128.356108,38.135162],[128.356269,38.135096],[128.356466,38.134972],[128.356492,38.134915],[128.356542,38.134678],[128.356593,38.134499],[128.356618,38.134356],[128.356625,38.134227],[128.35646,38.133671],[128.356574,38.133455],[128.357101,38.133063],[128.357207,38.132904],[128.357577,38.132843],[128.357639,38.132785],[128.357528,38.132665],[128.357475,38.132258],[128.357521,38.131821],[128.357565,38.131706],[128.357636,38.131655],[128.357644,38.131569],[128.357606,38.131512],[128.357737,38.13118],[128.357718,38.130637],[128.358303,38.129987],[128.358743,38.12976],[128.358937,38.129507],[128.359007,38.129342],[128.35894,38.129178],[128.35892,38.129086],[128.359181,38.128954],[128.359506,38.128936],[128.359605,38.128885],[128.360099,38.1287],[128.360579,38.128702],[128.360898,38.128805],[128.361142,38.128803],[128.361394,38.128735],[128.361546,38.128641],[128.361609,38.128583],[128.361834,38.128537],[128.361952,38.128536],[128.362079,38.128577],[128.362143,38.128576],[128.36236,38.12856],[128.362503,38.128494],[128.362647,38.128435],[128.362915,38.128231],[128.363141,38.128207],[128.363332,38.128298],[128.363651,38.128387],[128.364006,38.12849],[128.364251,38.128509],[128.364414,38.128507],[128.364521,38.128463],[128.364665,38.128411],[128.364809,38.128331],[128.364971,38.128293],[128.365106,38.128249],[128.365278,38.128247],[128.365442,38.128345],[128.365578,38.128343],[128.365705,38.128342],[128.365822,38.128319],[128.365912,38.12829],[128.366002,38.128231],[128.366045,38.128152],[128.366425,38.128098],[128.366579,38.128117],[128.366833,38.128164],[128.367384,38.128072],[128.367408,38.127936],[128.367634,38.127919],[128.368343,38.128047],[128.369021,38.128039],[128.369239,38.128036],[128.370004,38.128292],[128.370383,38.12823],[128.370573,38.128242],[128.37067,38.128113],[128.3706,38.127742],[128.370761,38.127625],[128.370913,38.127559],[128.371103,38.127535],[128.371229,38.127484],[128.371282,38.127405],[128.371351,38.127254],[128.371367,38.127146],[128.3715,38.126973],[128.371644,38.126943],[128.371807,38.126941],[128.372091,38.126652],[128.372272,38.126621],[128.372305,38.126456],[128.372638,38.126345],[128.372789,38.126186],[128.373285,38.126094],[128.373617,38.125933],[128.374131,38.125834],[128.37458,38.125643],[128.374927,38.125818],[128.375115,38.125687],[128.375278,38.125713],[128.375808,38.1255],[128.376133,38.12546],[128.376725,38.125167],[128.376902,38.124951],[128.377053,38.124792],[128.377158,38.124612],[128.378414,38.124461],[128.380161,38.124019],[128.381563,38.123466],[128.382577,38.123468],[128.383216,38.123732],[128.384213,38.123842],[128.384583,38.123781],[128.385361,38.123743],[128.385987,38.123828],[128.386701,38.123777],[128.387206,38.123657],[128.387971,38.12344],[128.388434,38.123506],[128.388926,38.123644],[128.389578,38.123664],[128.390166,38.123686],[128.391283,38.123844],[128.392245,38.123998],[128.393188,38.124094],[128.393812,38.124058],[128.394551,38.12387],[128.395141,38.12347],[128.39541,38.123366],[128.395654,38.123349],[128.395833,38.123226],[128.396086,38.123187],[128.396605,38.122888],[128.396709,38.122622],[128.396942,38.122512],[128.396957,38.122347],[128.397197,38.122144],[128.39753,38.122004],[128.397762,38.121837],[128.397972,38.121455],[128.398133,38.12091],[128.398212,38.120752],[128.398328,38.120679],[128.398282,38.120615],[128.398589,38.12014],[128.398759,38.120002],[128.399083,38.119447],[128.399296,38.119223],[128.399255,38.118995],[128.399252,38.118823],[128.399341,38.118736],[128.39943,38.118664],[128.399471,38.11842],[128.399878,38.117958],[128.400235,38.117703],[128.40102,38.117107],[128.40127,38.116911],[128.401491,38.11663],[128.401551,38.116443],[128.401783,38.116297],[128.401871,38.116153],[128.402176,38.115556],[128.402265,38.115469],[128.402491,38.115431],[128.40266,38.115293],[128.403133,38.11493],[128.403365,38.114784],[128.403914,38.114613],[128.404309,38.114422],[128.40473,38.114224],[128.405186,38.113933],[128.405585,38.11395],[128.40631,38.114012],[128.406699,38.114015],[128.407269,38.113972],[128.407438,38.113849],[128.4078,38.113844],[128.407994,38.113549],[128.408272,38.11341],[128.408414,38.113272],[128.408539,38.113206],[128.408724,38.112954],[128.409122,38.112935],[128.409367,38.112946],[128.409529,38.112923],[128.40974,38.112584],[128.409864,38.112425],[128.4093,38.111853],[128.408529,38.111247],[128.407815,38.110841],[128.406575,38.11037],[128.405132,38.109686],[128.404675,38.109441],[128.403619,38.109125],[128.402846,38.108927],[128.40259,38.108794],[128.402369,38.108597],[128.402104,38.10797],[128.402118,38.107298],[128.402167,38.107033],[128.402181,38.106818],[128.40252,38.106528],[128.40314,38.106306],[128.403445,38.106181],[128.403964,38.105424],[128.404042,38.105209],[128.404112,38.104607],[128.404027,38.103979],[128.403692,38.103497],[128.403404,38.103078],[128.403379,38.102271],[128.403289,38.101821],[128.403203,38.101565],[128.402939,38.101032],[128.402614,38.100585],[128.402292,38.100296],[128.402053,38.100105]]]},"properties":{"name":"한계리구간 2","difficulty":"초급","distance_km":9.02,"time_hr":4.5,"kind":"산림청 구간","desc":"산림청 등산로 구간 데이터(미큐레이션)"}},{"type":"Feature","geometry":{"type":"MultiLineString","coordinates":[[[128.347341,38.136936],[128.347501,38.137035],[128.347665,38.137104],[128.347857,38.137195],[128.347967,38.137272],[128.348105,38.137407],[128.348162,38.13757],[128.348173,38.137649],[128.348238,38.137756],[128.348285,38.137819],[128.348431,38.137918],[128.348587,38.137987],[128.348662,38.13813],[128.348773,38.1383],[128.348977,38.138519],[128.349217,38.138781],[128.34942,38.138993],[128.349595,38.139156],[128.349789,38.139361],[128.349875,38.139617],[128.349951,38.139809],[128.350047,38.140087],[128.350178,38.140322],[128.350317,38.140513],[128.350448,38.140719],[128.350496,38.14089],[128.350563,38.141104],[128.350611,38.141246],[128.35066,38.141417],[128.350679,38.141489],[128.350825,38.141537],[128.350925,38.141572],[128.351053,38.141642],[128.351253,38.141689],[128.351432,38.141704],[128.351598,38.141838],[128.352115,38.141918],[128.352796,38.142504],[128.353121,38.14295],[128.353447,38.143411],[128.353675,38.14353],[128.353866,38.143578],[128.354131,38.143704],[128.354447,38.144136],[128.354522,38.144243],[128.354817,38.144561],[128.35493,38.144796],[128.354989,38.145024],[128.354964,38.145181],[128.354851,38.145419],[128.354862,38.146026],[128.354911,38.146212],[128.355158,38.146352],[128.355341,38.146471],[128.355482,38.146734],[128.355665,38.146847],[128.355902,38.146901],[128.356129,38.14697],[128.35633,38.147032],[128.356603,38.147093],[128.356894,38.147197],[128.357095,38.147266],[128.35734,38.147328],[128.357486,38.147376],[128.35773,38.147373],[128.35793,38.147385],[128.35816,38.147561],[128.358761,38.147762],[128.359225,38.147914],[128.359291,38.14802],[128.359573,38.14811],[128.36001,38.148219],[128.360285,38.148395],[128.360505,38.148528],[128.360724,38.148626],[128.360968,38.148623],[128.36113,38.148557],[128.361347,38.148533],[128.361582,38.14853],[128.36171,38.1486],[128.361984,38.148718],[128.362248,38.148794],[128.362341,38.148914],[128.362478,38.14897],[128.362587,38.149026],[128.362599,38.14914],[128.36261,38.149283],[128.362676,38.149397],[128.362822,38.149495],[128.363013,38.149529],[128.363267,38.149554],[128.363504,38.14963],[128.363632,38.1497],[128.364042,38.149817],[128.364595,38.149875],[128.364945,38.149671],[128.365306,38.149617],[128.365688,38.149734],[128.365926,38.149831],[128.366118,38.14995],[128.366257,38.15012],[128.366403,38.150212],[128.366623,38.150331],[128.366706,38.150408],[128.366663,38.150523],[128.366646,38.150581],[128.366828,38.150657],[128.3669,38.150613],[128.366944,38.15057],[128.367125,38.150553],[128.367262,38.150588],[128.367769,38.15061],[128.368114,38.150671],[128.368369,38.150746],[128.368505,38.150738],[128.368777,38.150734],[128.368923,38.150811],[128.36916,38.150902],[128.369415,38.15097],[128.369597,38.151047],[128.369842,38.151044],[128.370086,38.15102],[128.37033,38.150995],[128.370737,38.150962],[128.3709,38.150967],[128.37111,38.151072],[128.371266,38.151192],[128.371526,38.15151],[128.371727,38.151644],[128.371839,38.151778],[128.371923,38.151935],[128.372025,38.152062],[128.372225,38.152124],[128.372397,38.152115],[128.372569,38.152092],[128.372867,38.152052],[128.373165,38.15202],[128.373473,38.152017],[128.373762,38.151992],[128.373926,38.152019],[128.374073,38.152138],[128.37422,38.152237],[128.374285,38.152315],[128.374331,38.152386],[128.374405,38.152435],[128.374452,38.152527],[128.374535,38.152612],[128.374699,38.152696],[128.374864,38.152787],[128.375046,38.152864],[128.375201,38.152912],[128.37533,38.152989],[128.375457,38.153052],[128.37554,38.153115],[128.375605,38.153172],[128.375642,38.153243],[128.375663,38.153371],[128.375664,38.15345],[128.375675,38.153521],[128.375822,38.153641],[128.375827,38.153913],[128.375947,38.154526],[128.376219,38.154523],[128.376614,38.15484],[128.376846,38.155166],[128.37711,38.155671],[128.376882,38.156074],[128.376461,38.156322],[128.376174,38.156483],[128.375959,38.156635],[128.375807,38.15673],[128.375728,38.156824],[128.375711,38.156932],[128.375938,38.156965],[128.376003,38.15705],[128.376124,38.15722],[128.376408,38.157367],[128.376673,38.157507],[128.377037,38.157595],[128.37722,38.157672]]]},"properties":{"name":"설악산 대청봉 구간 20","difficulty":"초급","distance_km":4.17,"time_hr":1.2,"kind":"산림청 구간","desc":"산림청 등산로 구간 데이터(미큐레이션)"}},{"type":"Feature","geometry":{"type":"MultiLineString","coordinates":[[[128.444446,38.140306],[128.444631,38.140071],[128.445382,38.140048],[128.446172,38.140167],[128.446674,38.140347],[128.447958,38.140281],[128.448985,38.140032],[128.449968,38.139813],[128.4505,38.139735],[128.450672,38.139704],[128.4511,38.139413],[128.451345,38.138945],[128.451676,38.13874],[128.45228,38.138633],[128.45345,38.138289],[128.454312,38.137928],[128.455435,38.137493],[128.456941,38.136752],[128.458052,38.13613],[128.459971,38.136142],[128.460685,38.136069],[128.461329,38.13566],[128.461806,38.135097],[128.462137,38.134435],[128.462984,38.133788],[128.463682,38.133372],[128.46445,38.132847],[128.464736,38.132686]]]},"properties":{"name":"설악산 대청봉 구간 21","difficulty":"초급","distance_km":2.11,"time_hr":0.6,"kind":"산림청 구간","desc":"산림청 등산로 구간 데이터(미큐레이션)"}},{"type":"Feature","geometry":{"type":"MultiLineString","coordinates":[[[128.444446,38.140306],[128.444625,38.140669],[128.444811,38.140924],[128.445249,38.14109],[128.445326,38.141332],[128.445518,38.141444],[128.445539,38.141594],[128.445759,38.141713],[128.445964,38.141982],[128.445906,38.142255],[128.445615,38.142651],[128.445246,38.142806],[128.444744,38.143063],[128.444626,38.143],[128.444228,38.143069],[128.444082,38.142971],[128.443738,38.142982],[128.443194,38.142974],[128.442597,38.143454],[128.442383,38.143628],[128.442067,38.143653],[128.441519,38.143889],[128.44109,38.14413],[128.440929,38.144268],[128.440678,38.144407],[128.440546,38.144559],[128.44036,38.144782],[128.439898,38.14476],[128.439641,38.145042],[128.439444,38.145173],[128.439228,38.145254],[128.438985,38.145328],[128.438843,38.145437],[128.438754,38.145546],[128.438649,38.145712],[128.438454,38.145921],[128.438405,38.146201],[128.436998,38.146032],[128.436871,38.146026],[128.436646,38.146101],[128.436505,38.146274],[128.436301,38.146491],[128.435969,38.146631],[128.435707,38.146699],[128.435585,38.146922],[128.435332,38.146961],[128.434886,38.147288],[128.434798,38.147425],[128.434129,38.147476],[128.433986,38.147563],[128.433534,38.147619],[128.433209,38.147651],[128.433009,38.147632],[128.432794,38.147742],[128.432459,38.147732],[128.432153,38.147829],[128.431884,38.147975],[128.43189,38.148282],[128.431353,38.148575],[128.430835,38.148524],[128.430463,38.148901],[128.430051,38.149177],[128.429399,38.149178],[128.428811,38.149157],[128.428547,38.149567],[128.428568,38.149717],[128.428389,38.149827],[128.428221,38.150036],[128.427727,38.1507]]]},"properties":{"name":"설악산 대청봉 구간 22","difficulty":"초급","distance_km":2.35,"time_hr":0.7,"kind":"산림청 구간","desc":"산림청 등산로 구간 데이터(미큐레이션)"}},{"type":"Feature","geometry":{"type":"MultiLineString","coordinates":[[[128.414279,38.146429],[128.41472,38.146281],[128.415319,38.145902],[128.41545,38.145629],[128.415534,38.145313],[128.415639,38.145097],[128.415798,38.14491],[128.415869,38.144809],[128.415867,38.144701],[128.415891,38.144565],[128.415979,38.144428],[128.416031,38.144335],[128.416047,38.144213],[128.416054,38.144106],[128.416015,38.143949],[128.415903,38.1438],[128.415829,38.143679],[128.41579,38.14353],[128.415776,38.143294],[128.415773,38.143165],[128.415734,38.143023],[128.415669,38.142909],[128.415585,38.142781],[128.41551,38.142625],[128.415433,38.142426],[128.415404,38.142326],[128.415374,38.142183],[128.415344,38.142012],[128.415313,38.141848],[128.415266,38.141748],[128.415201,38.141635],[128.415189,38.141513],[128.415197,38.141442],[128.415266,38.141276],[128.415178,38.140948],[128.415056,38.140685],[128.414725,38.140432],[128.414884,38.140237],[128.414971,38.140057],[128.415051,38.139992],[128.415002,38.139799],[128.415102,38.139326],[128.415316,38.139145],[128.415423,38.139065],[128.415748,38.139025],[128.416108,38.138928],[128.416397,38.138882],[128.416831,38.138848],[128.417178,38.13855],[128.417585,38.138546],[128.418072,38.138447],[128.418415,38.138357],[128.418609,38.138126],[128.418598,38.13799],[128.418665,38.137746],[128.418826,38.137601],[128.418883,38.137293],[128.418925,38.137128],[128.419019,38.136841],[128.419473,38.136435],[128.420034,38.136421],[128.420222,38.136304],[128.4211,38.136329],[128.421289,38.13627],[128.421642,38.136244],[128.422002,38.136118],[128.422444,38.136034],[128.422875,38.135872],[128.423951,38.135823],[128.424575,38.135772],[128.425199,38.135736],[128.425793,38.135093],[128.42581,38.135035],[128.425599,38.134888],[128.42537,38.134769],[128.425287,38.134691],[128.425327,38.134419],[128.425523,38.134245],[128.425659,38.133786],[128.425865,38.133647],[128.426154,38.13363],[128.426526,38.133203],[128.427064,38.132503],[128.427253,38.132401],[128.427568,38.13234],[128.427786,38.132344],[128.428004,38.13242],[128.428131,38.13244],[128.428215,38.132539],[128.428334,38.132616],[128.428461,38.132615],[128.428532,38.132564],[128.428694,38.13249],[128.428892,38.132445],[128.429019,38.132443],[128.429127,38.132428],[128.429216,38.132348],[128.429399,38.132475],[128.429762,38.13247],[128.430424,38.132577],[128.430746,38.132809],[128.431542,38.13277],[128.431912,38.132701],[128.432055,38.132607],[128.432225,38.132505],[128.432367,38.132388],[128.432446,38.13228],[128.432562,38.132164],[128.432724,38.132098],[128.432966,38.132002],[128.433027,38.131851],[128.43316,38.131742],[128.43334,38.131669],[128.433523,38.131302],[128.433739,38.13127],[128.434161,38.131072],[128.434553,38.131232],[128.434834,38.131229],[128.435343,38.131315],[128.435769,38.13136],[128.436077,38.131356],[128.436187,38.131448],[128.436576,38.131443],[128.436808,38.131262],[128.436917,38.130838],[128.437311,38.130612],[128.437405,38.130318],[128.437873,38.130155],[128.438416,38.129233],[128.438421,38.129061],[128.438847,38.129084],[128.439207,38.128515],[128.43943,38.128312],[128.439546,38.128253],[128.440414,38.128171],[128.440883,38.128094],[128.441108,38.128056],[128.441473,38.127708],[128.442645,38.127493],[128.443234,38.127522],[128.443452,38.127562],[128.443866,38.127886],[128.444393,38.127987],[128.444624,38.127748],[128.444849,38.127724],[128.445177,38.127805],[128.445327,38.128054],[128.445473,38.128109],[128.445717,38.12812],[128.445826,38.128126],[128.446137,38.128301],[128.446519,38.128368],[128.446612,38.128517],[128.446729,38.12848],[128.446985,38.128598],[128.44725,38.128717],[128.447566,38.128713]]]},"properties":{"name":"설악산 대청봉 구간 23","difficulty":"초급","distance_km":4.69,"time_hr":1.4,"kind":"산림청 구간","desc":"산림청 등산로 구간 데이터(미큐레이션)"}},{"type":"Feature","geometry":{"type":"MultiLineString","coordinates":[[[128.415552,38.147186],[128.416051,38.147695],[128.416243,38.147786],[128.416722,38.147744],[128.41762,38.147326],[128.418444,38.146858],[128.419149,38.146328],[128.419641,38.146064],[128.419973,38.145882],[128.420523,38.145775],[128.421374,38.145765],[128.421888,38.145658],[128.422599,38.145449],[128.423264,38.14517],[128.423841,38.145027],[128.424467,38.145105],[128.424866,38.145157],[128.425671,38.145076],[128.425859,38.145002],[128.426288,38.144682],[128.426813,38.144226],[128.427322,38.143883],[128.427521,38.143831],[128.428146,38.143859],[128.428581,38.143882],[128.42904,38.143734],[128.429689,38.143118],[128.429991,38.142828],[128.430549,38.14265],[128.430974,38.142638],[128.431339,38.142805],[128.431822,38.142956],[128.432275,38.142958],[128.432519,38.142948],[128.432614,38.142718],[128.432756,38.142552],[128.432871,38.142436],[128.433269,38.142388],[128.433721,38.142368],[128.434173,38.142348],[128.434425,38.142238],[128.434749,38.142127],[128.435071,38.141944],[128.435638,38.141301],[128.435929,38.140918],[128.436549,38.140696],[128.437242,38.140459],[128.43839,38.140388],[128.439967,38.140468],[128.441128,38.140576],[128.442019,38.140744],[128.442647,38.140943],[128.443083,38.140995],[128.44339,38.140956],[128.444181,38.140638],[128.444446,38.140306]]]},"properties":{"name":"설악산 대청봉 구간 24","difficulty":"초급","distance_km":2.92,"time_hr":0.9,"kind":"산림청 구간","desc":"산림청 등산로 구간 데이터(미큐레이션)"}},{"type":"Feature","geometry":{"type":"MultiLineString","coordinates":[[[128.415456,38.147359],[128.414363,38.146529],[128.414279,38.146429]]]},"properties":{"name":"설악산 대청봉 구간 25","difficulty":"초급","distance_km":0.15,"time_hr":0.1,"kind":"산림청 구간","desc":"산림청 등산로 구간 데이터(미큐레이션)"}},{"type":"Feature","geometry":{"type":"MultiLineString","coordinates":[[[128.415456,38.147359],[128.415552,38.147186]]]},"properties":{"name":"설악산 대청봉 구간 26","difficulty":"초급","distance_km":0.02,"time_hr":0.0,"kind":"산림청 구간","desc":"산림청 등산로 구간 데이터(미큐레이션)"}},{"type":"Feature","geometry":{"type":"MultiLineString","coordinates":[[[128.423467,38.149558],[128.423131,38.14904],[128.423136,38.148818],[128.423213,38.148595],[128.423219,38.148467],[128.423136,38.14836],[128.422935,38.148298],[128.422727,38.148272],[128.42241,38.14829],[128.421634,38.148421],[128.42102,38.148536],[128.420169,38.148968],[128.418999,38.149369],[128.418711,38.149465],[128.41853,38.149467],[128.417986,38.149395],[128.416729,38.149489],[128.415791,38.149243],[128.415488,38.148989],[128.415269,38.148448],[128.415229,38.148256],[128.415265,38.147798],[128.415456,38.147359]]]},"properties":{"name":"설악산 대청봉 구간 27","difficulty":"초급","distance_km":1.05,"time_hr":0.3,"kind":"산림청 구간","desc":"산림청 등산로 구간 데이터(미큐레이션)"}},{"type":"Feature","geometry":{"type":"MultiLineString","coordinates":[[[128.423467,38.149558],[128.423278,38.149617],[128.422911,38.149829],[128.422201,38.15056],[128.421776,38.151072],[128.421429,38.151406],[128.420568,38.151824],[128.42011,38.152036],[128.419354,38.152246],[128.418951,38.152501],[128.418707,38.152613],[128.418077,38.152785],[128.416914,38.153064],[128.415875,38.153198],[128.414776,38.153476],[128.414125,38.153534],[128.413879,38.153444],[128.413741,38.153345],[128.413448,38.153184],[128.413275,38.1531],[128.413021,38.153111],[128.412823,38.153177],[128.412546,38.152859],[128.411981,38.152694],[128.411852,38.152567],[128.411292,38.152674],[128.410745,38.152466],[128.410404,38.152606],[128.409931,38.152504],[128.409616,38.152151],[128.408675,38.151711],[128.408506,38.15142],[128.407979,38.151326],[128.407857,38.151099],[128.407373,38.150876],[128.406966,38.150874],[128.406862,38.150653],[128.406715,38.150541]]]},"properties":{"name":"설악산 대청봉 구간 28","difficulty":"초급","distance_km":1.77,"time_hr":0.5,"kind":"산림청 구간","desc":"산림청 등산로 구간 데이터(미큐레이션)"}},{"type":"Feature","geometry":{"type":"MultiLineString","coordinates":[[[128.406715,38.150541],[128.407185,38.150499],[128.40754,38.150631],[128.407672,38.150422],[128.408617,38.150125],[128.409357,38.149987],[128.410111,38.14962],[128.41051,38.149208],[128.410606,38.149014],[128.410627,38.148706],[128.411029,38.14838],[128.410952,38.148152],[128.411059,38.148072],[128.411144,38.147799],[128.41124,38.147619],[128.411328,38.147475],[128.411234,38.147283],[128.411383,38.147024],[128.411941,38.146853],[128.412198,38.146599],[128.412487,38.146532],[128.412755,38.14635],[128.413218,38.14643],[128.413344,38.14635],[128.414086,38.146362],[128.414279,38.146429]]]},"properties":{"name":"설악산 대청봉 구간 29","difficulty":"초급","distance_km":0.95,"time_hr":0.3,"kind":"산림청 구간","desc":"산림청 등산로 구간 데이터(미큐레이션)"}},{"type":"Feature","geometry":{"type":"MultiLineString","coordinates":[[[128.427727,38.1507],[128.427277,38.150384],[128.426494,38.150172],[128.425887,38.150136],[128.425461,38.15012],[128.424815,38.149985],[128.424487,38.149846],[128.424249,38.14972],[128.423957,38.14963],[128.423649,38.149584],[128.423467,38.149558]]]},"properties":{"name":"설악산 대청봉 구간 30","difficulty":"초급","distance_km":0.4,"time_hr":0.1,"kind":"산림청 구간","desc":"산림청 등산로 구간 데이터(미큐레이션)"}},{"type":"Feature","geometry":{"type":"MultiLineString","coordinates":[[[128.389004,38.15386],[128.388999,38.153662],[128.389069,38.153518],[128.38923,38.153437],[128.389527,38.153348],[128.389797,38.153273],[128.390142,38.153269],[128.390295,38.153225],[128.39061,38.153135],[128.390846,38.153154],[128.390937,38.153188],[128.391275,38.153349],[128.391955,38.153377],[128.392378,38.153286],[128.39265,38.153275],[128.392992,38.153193],[128.393317,38.153132],[128.393471,38.153108],[128.393868,38.153061],[128.394067,38.153051],[128.394157,38.152986],[128.394254,38.152863],[128.394352,38.152755],[128.39445,38.152682],[128.394666,38.152636],[128.394974,38.152611],[128.39521,38.152651],[128.395418,38.15267],[128.395535,38.152633],[128.395716,38.152617],[128.395933,38.152607],[128.396086,38.152562],[128.396366,38.152488],[128.396465,38.152458],[128.399256,38.152553],[128.399871,38.152525],[128.400036,38.152651],[128.400816,38.1532],[128.401437,38.153464],[128.401755,38.153532],[128.402066,38.15365],[128.402531,38.153837],[128.403812,38.154058],[128.404462,38.153957],[128.404938,38.153722],[128.405142,38.153534],[128.405423,38.153066],[128.405574,38.152907],[128.405585,38.15207],[128.405393,38.151951],[128.405425,38.151765],[128.405737,38.151475],[128.405834,38.151338],[128.405848,38.151166],[128.405963,38.150993],[128.406096,38.150848],[128.406185,38.150762],[128.406308,38.150596],[128.406561,38.150543],[128.406715,38.150541]]]},"properties":{"name":"설악산 대청봉 구간 31","difficulty":"초급","distance_km":1.96,"time_hr":0.6,"kind":"산림청 구간","desc":"산림청 등산로 구간 데이터(미큐레이션)"}},{"type":"Feature","geometry":{"type":"MultiLineString","coordinates":[[[128.389004,38.15386],[128.389621,38.154382],[128.390405,38.155166],[128.390914,38.155718],[128.391524,38.155897],[128.393199,38.155855],[128.394159,38.155908],[128.395267,38.156074],[128.396121,38.156221],[128.39707,38.156575],[128.397749,38.157017],[128.398031,38.157092],[128.398357,38.157095],[128.398729,38.157127],[128.398948,38.157231],[128.399774,38.157822],[128.399975,38.157877],[128.401154,38.158006],[128.40172,38.158214],[128.402947,38.158921],[128.404,38.159531],[128.404421,38.159769],[128.404631,38.159824],[128.404802,38.1598],[128.404983,38.159784],[128.405075,38.159883],[128.405412,38.160415],[128.405606,38.160627],[128.405857,38.160974],[128.406322,38.16162],[128.406662,38.161851],[128.407029,38.162083],[128.407304,38.162301],[128.407673,38.16264],[128.407975,38.16278],[128.40831,38.162804],[128.4086,38.162794],[128.408944,38.162768],[128.409117,38.162816],[128.409301,38.162985],[128.409394,38.16312],[128.40946,38.163241],[128.40958,38.163382],[128.40979,38.16343],[128.410061,38.16342],[128.410314,38.163374],[128.410512,38.16335],[128.410794,38.163382],[128.411067,38.163472],[128.411424,38.163661],[128.411752,38.16375],[128.412035,38.163875],[128.412353,38.1639],[128.412644,38.163975],[128.412845,38.164058],[128.413209,38.164175],[128.413637,38.164285],[128.413992,38.164366],[128.414247,38.164435],[128.414556,38.164517],[128.414629,38.164559],[128.415066,38.164661],[128.41543,38.164721],[128.415891,38.164701],[128.416633,38.164678],[128.416985,38.164609],[128.41777,38.164471],[128.418314,38.164478],[128.418666,38.164431],[128.418954,38.164349],[128.419288,38.164274],[128.419505,38.164257],[128.419732,38.164297],[128.419932,38.16433],[128.420307,38.164483],[128.420627,38.164658],[128.420812,38.164863],[128.420943,38.165062],[128.42111,38.16526],[128.421267,38.165437],[128.421516,38.165662],[128.421772,38.16581],[128.422011,38.165971],[128.422377,38.166174],[128.422623,38.166264],[128.422778,38.166291],[128.423104,38.16628],[128.423247,38.166199],[128.423507,38.166053],[128.423712,38.165893],[128.4239,38.165755],[128.424114,38.165602],[128.424319,38.165457],[128.424429,38.165386],[128.424764,38.165037],[128.424961,38.164913],[128.425339,38.164772],[128.425618,38.164705],[128.425927,38.164744],[128.426146,38.164841],[128.426338,38.16491],[128.426501,38.164923],[128.426663,38.164892],[128.42677,38.164791],[128.426875,38.164618],[128.426972,38.164459],[128.427103,38.164229],[128.427217,38.164049],[128.427242,38.163898],[128.427229,38.163713],[128.427154,38.163585],[128.426877,38.163316],[128.426565,38.163084],[128.426462,38.162914],[128.426433,38.162814],[128.426398,38.16245],[128.426395,38.162257],[128.426444,38.162028],[128.426514,38.161862],[128.426709,38.161667],[128.426951,38.161514],[128.427446,38.16135],[128.427806,38.161253],[128.428058,38.161164],[128.428192,38.16107],[128.428415,38.160902],[128.428584,38.160757],[128.428799,38.160647],[128.42916,38.160593],[128.429413,38.160561],[128.429675,38.160508],[128.429954,38.16044],[128.430181,38.160423],[128.430409,38.160506],[128.430688,38.160889],[128.431091,38.161127],[128.431598,38.1616],[128.431755,38.161748],[128.432091,38.161794],[128.432484,38.161489],[128.432617,38.161345],[128.433087,38.159465],[128.433349,38.158969],[128.433928,38.158497],[128.434465,38.158154],[128.435005,38.157998],[128.435672,38.157846],[128.436451,38.157823],[128.436948,38.157788],[128.437593,38.157902]]]},"properties":{"name":"설악산 대청봉 구간 32","difficulty":"초급","distance_km":5.67,"time_hr":1.7,"kind":"산림청 구간","desc":"산림청 등산로 구간 데이터(미큐레이션)"}},{"type":"Feature","geometry":{"type":"MultiLineString","coordinates":[[[128.380257,38.1567],[128.380803,38.156282],[128.381332,38.156019],[128.381978,38.155704],[128.382441,38.155741],[128.383003,38.155792],[128.383444,38.156108],[128.383673,38.156284],[128.383955,38.156331],[128.384058,38.156508],[128.384678,38.156744],[128.385496,38.156906],[128.385886,38.156923],[128.386154,38.156748],[128.386318,38.156782],[128.386517,38.156751],[128.387311,38.156134],[128.387585,38.155788],[128.387471,38.155503],[128.38763,38.155287],[128.387581,38.155115],[128.38796,38.154067],[128.388416,38.153761],[128.388521,38.153694],[128.389004,38.15386]]]},"properties":{"name":"설악산 대청봉 구간 33","difficulty":"초급","distance_km":1.09,"time_hr":0.3,"kind":"산림청 구간","desc":"산림청 등산로 구간 데이터(미큐레이션)"}},{"type":"Feature","geometry":{"type":"MultiLineString","coordinates":[[[128.380257,38.1567],[128.380564,38.157162],[128.380988,38.15773],[128.381229,38.158326],[128.381858,38.158838],[128.382795,38.159847],[128.382905,38.159973],[128.383315,38.160228],[128.383936,38.160728],[128.38492,38.161773],[128.385482,38.162377],[128.3856,38.162544],[128.386093,38.163523],[128.38626,38.163853],[128.386354,38.163961],[128.386951,38.164387],[128.387537,38.164759],[128.387778,38.16502],[128.387936,38.165269],[128.388141,38.165574],[128.388365,38.165886],[128.388678,38.166168],[128.389,38.16645],[128.389277,38.16669],[128.38938,38.166882],[128.389614,38.167294],[128.389809,38.167542],[128.390013,38.167804],[128.390216,38.16798],[128.390427,38.168135],[128.390811,38.168317],[128.391067,38.168457],[128.39128,38.168683],[128.391458,38.168995],[128.391589,38.169201],[128.391701,38.169407],[128.391865,38.169949],[128.39215,38.170632],[128.392813,38.171661],[128.392897,38.171774],[128.393324,38.172348],[128.39385,38.172857],[128.394328,38.173223],[128.394807,38.173646],[128.395093,38.173915],[128.395542,38.174195],[128.395854,38.174378],[128.3963,38.17453],[128.396611,38.174647],[128.397047,38.174735],[128.397384,38.174838],[128.397949,38.174982],[128.398714,38.175209],[128.399016,38.175384],[128.399338,38.175637],[128.399744,38.17604],[128.400187,38.176457],[128.40112,38.177397],[128.402295,38.178205],[128.402991,38.178633],[128.403581,38.179148],[128.404148,38.179413],[128.404212,38.179455],[128.404983,38.179488],[128.40622,38.179745],[128.407345,38.180332],[128.408097,38.180824],[128.4088,38.181066],[128.409798,38.181168],[128.410658,38.181151],[128.411691,38.181138],[128.412769,38.181168],[128.413559,38.181237],[128.414329,38.18125],[128.415162,38.18124],[128.415876,38.181167],[128.416564,38.181144],[128.41688,38.18109],[128.418064,38.18094],[128.420208,38.180771],[128.420778,38.180745]]]},"properties":{"name":"설악산 대청봉 구간 34","difficulty":"초급","distance_km":4.89,"time_hr":1.4,"kind":"산림청 구간","desc":"산림청 등산로 구간 데이터(미큐레이션)"}},{"type":"Feature","geometry":{"type":"MultiLineString","coordinates":[[[128.37722,38.157672],[128.377566,38.157536],[128.377863,38.157418],[128.378058,38.157208],[128.378354,38.157062],[128.378805,38.156949],[128.379925,38.156793],[128.380115,38.156805],[128.380257,38.1567]]]},"properties":{"name":"설악산 대청봉 구간 35","difficulty":"초급","distance_km":0.3,"time_hr":0.1,"kind":"산림청 구간","desc":"산림청 등산로 구간 데이터(미큐레이션)"}},{"type":"Feature","geometry":{"type":"MultiLineString","coordinates":[[[128.437593,38.157902],[128.437074,38.157264],[128.436414,38.156879],[128.435757,38.15663],[128.43553,38.156583],[128.435069,38.15661],[128.434542,38.156073],[128.434408,38.155688],[128.43416,38.155541],[128.434206,38.155126],[128.433995,38.154942],[128.433907,38.15465],[128.433707,38.154617],[128.433246,38.154172],[128.432478,38.153803],[128.431959,38.153666],[128.431615,38.153663],[128.43159,38.153792],[128.431456,38.153872],[128.431118,38.153698],[128.430898,38.153593],[128.43076,38.153452],[128.430713,38.153359],[128.430656,38.153238],[128.430542,38.152982],[128.430532,38.152897],[128.43042,38.152734],[128.430337,38.152663],[128.430227,38.152614],[128.430118,38.152566],[128.430006,38.152431],[128.429728,38.152091],[128.429445,38.151959],[128.429049,38.151649],[128.428793,38.151495],[128.428681,38.151346],[128.42827,38.15118],[128.428057,38.150925],[128.427727,38.1507]]]},"properties":{"name":"설악산 대청봉 구간 36","difficulty":"초급","distance_km":1.3,"time_hr":0.4,"kind":"산림청 구간","desc":"산림청 등산로 구간 데이터(미큐레이션)"}},{"type":"Feature","geometry":{"type":"MultiLineString","coordinates":[[[128.437593,38.157902],[128.437714,38.158029],[128.437805,38.158071]]]},"properties":{"name":"설악산 대청봉 구간 37","difficulty":"초급","distance_km":0.03,"time_hr":0.0,"kind":"산림청 구간","desc":"산림청 등산로 구간 데이터(미큐레이션)"}},{"type":"Feature","geometry":{"type":"MultiLineString","coordinates":[[[128.437805,38.158071],[128.437843,38.158163],[128.437825,38.158635],[128.437734,38.159065],[128.437947,38.159298]]]},"properties":{"name":"설악산 대청봉 구간 38","difficulty":"초급","distance_km":0.14,"time_hr":0.0,"kind":"산림청 구간","desc":"산림청 등산로 구간 데이터(미큐레이션)"}},{"type":"Feature","geometry":{"type":"MultiLineString","coordinates":[[[128.420778,38.180745],[128.420828,38.181068],[128.420876,38.181338],[128.420988,38.181568],[128.421105,38.181742],[128.421257,38.18183],[128.421445,38.181924],[128.421668,38.182372],[128.421814,38.182522],[128.421831,38.182686],[128.421926,38.182803],[128.422022,38.182948],[128.422118,38.183122],[128.422207,38.18329],[128.422361,38.183491],[128.422514,38.183664],[128.422618,38.183838],[128.422636,38.184012],[128.422675,38.184181],[128.422705,38.184294],[128.422736,38.184417],[128.42284,38.184613]]]},"properties":{"name":"용대리구간 1","difficulty":"중급","distance_km":0.48,"time_hr":0.2,"kind":"산림청 구간","desc":"산림청 등산로 구간 데이터(미큐레이션)"}},{"type":"Feature","geometry":{"type":"MultiLineString","coordinates":[[[128.301492,38.182933],[128.301997,38.182336],[128.302178,38.182002],[128.302242,38.181669],[128.302336,38.181385],[128.302369,38.181168],[128.302351,38.181014],[128.302106,38.180599],[128.301797,38.180343],[128.301466,38.180107],[128.301373,38.179885],[128.301368,38.179773],[128.301416,38.179663],[128.301549,38.179533],[128.301639,38.17931],[128.301608,38.178904],[128.3016,38.178479],[128.301594,38.178131],[128.30162,38.177969],[128.301665,38.177861],[128.301864,38.177534],[128.30202,38.177089],[128.302315,38.17655],[128.302633,38.175992],[128.302865,38.175766],[128.302978,38.175656],[128.303445,38.175595],[128.303914,38.175627],[128.30417,38.175569],[128.304331,38.175401],[128.304395,38.175049],[128.304527,38.174586],[128.304628,38.174372],[128.304714,38.174269],[128.305039,38.174136],[128.305162,38.174108],[128.305279,38.174117],[128.305424,38.174168],[128.305669,38.174333],[128.306211,38.174511],[128.306634,38.174599],[128.306933,38.174648],[128.307048,38.174682],[128.307209,38.174769],[128.307553,38.174995],[128.307772,38.175172],[128.307989,38.175317],[128.308217,38.175345],[128.308485,38.17535],[128.308639,38.175339],[128.308789,38.175255],[128.309099,38.175052],[128.309233,38.174833],[128.309372,38.174624],[128.309568,38.174543],[128.31028,38.174318],[128.310981,38.174292],[128.311877,38.174651],[128.312462,38.174645],[128.312811,38.174535],[128.312972,38.17443],[128.313064,38.174289],[128.313059,38.173992],[128.313006,38.17366],[128.312995,38.17305],[128.313018,38.172671],[128.313063,38.172444],[128.313155,38.172324],[128.313491,38.17201],[128.314117,38.17167],[128.314883,38.171311],[128.31532,38.170899],[128.315778,38.17034],[128.316205,38.169319],[128.316378,38.168559],[128.316695,38.167965],[128.316767,38.167616],[128.316936,38.167471],[128.317052,38.167391],[128.317169,38.167304],[128.317212,38.167167],[128.317382,38.166565],[128.317279,38.166409],[128.317195,38.166231],[128.317164,38.166052],[128.317152,38.165859],[128.317194,38.165666],[128.317282,38.165572],[128.317399,38.165499],[128.317514,38.165355],[128.317674,38.16521],[128.317846,38.165165],[128.317981,38.165114],[128.318215,38.165039],[128.318376,38.164945],[128.318528,38.164836],[128.318744,38.16474],[128.318951,38.164695],[128.319123,38.164657],[128.319239,38.164606],[128.319435,38.164411],[128.31957,38.164338],[128.319767,38.164243],[128.320056,38.164182],[128.320325,38.164015],[128.320401,38.163749],[128.32041,38.163249],[128.320511,38.162826],[128.320673,38.162731],[128.320907,38.162642],[128.321005,38.16257],[128.321076,38.162497],[128.321084,38.16244],[128.321055,38.162333],[128.321035,38.162226],[128.32105,38.162054],[128.321183,38.161896],[128.321308,38.161794],[128.321359,38.1616],[128.321199,38.161295],[128.321158,38.161016],[128.321208,38.160794],[128.321464,38.160398],[128.321829,38.160072],[128.322043,38.159862],[128.32209,38.159734],[128.322118,38.159704],[128.322155,38.159692],[128.322208,38.15969],[128.32223,38.159693],[128.322246,38.159711],[128.322258,38.159753],[128.322371,38.159793],[128.322386,38.159802],[128.322401,38.159819],[128.322414,38.159858],[128.322371,38.159952],[128.322367,38.159977],[128.322364,38.160005],[128.322394,38.160027],[128.322609,38.160099],[128.322744,38.160098],[128.322962,38.160088],[128.323124,38.160043],[128.323223,38.160021],[128.323366,38.159919],[128.323501,38.159846],[128.32369,38.159815],[128.323767,38.159814],[128.323814,38.159806],[128.323856,38.159792],[128.323987,38.159719],[128.324094,38.159625],[128.324188,38.1596],[128.32424,38.159596],[128.324288,38.159603],[128.32443,38.15965],[128.324511,38.159649],[128.324674,38.159647],[128.324863,38.159573],[128.324916,38.159501],[128.325057,38.159285],[128.325134,38.159012],[128.325284,38.158825],[128.325436,38.158673],[128.325552,38.158586],[128.325641,38.158535],[128.325748,38.158448],[128.325964,38.158367],[128.326126,38.1583],[128.326225,38.158285],[128.32629,38.158288],[128.32635,38.158288],[128.326405,38.158273],[128.326505,38.158232],[128.326634,38.158196],[128.326696,38.158191],[128.326765,38.158195],[128.32694,38.158234],[128.327012,38.158205],[128.327055,38.158104],[128.327126,38.15801],[128.327189,38.157962],[128.327269,38.157915],[128.327346,38.157886],[128.327567,38.157841],[128.327837,38.157781],[128.328026,38.157721],[128.328161,38.157627],[128.328321,38.157496],[128.3284,38.157367],[128.32847,38.157237],[128.328523,38.157151],[128.328606,38.157052],[128.328654,38.157018],[128.328705,38.156997],[128.328882,38.156954],[128.329034,38.156859],[128.32931,38.156584],[128.329508,38.15651],[128.329667,38.156482],[128.329746,38.15646],[128.329789,38.156425],[128.329813,38.156392],[128.329875,38.156277],[128.329913,38.156232],[128.329973,38.156205],[128.330072,38.156146],[128.330166,38.156095],[128.330205,38.156079],[128.330248,38.156069],[128.330351,38.156057],[128.33045,38.156021],[128.330557,38.155962],[128.330674,38.155896],[128.330799,38.155824],[128.331043,38.155778],[128.33116,38.155755],[128.331314,38.155725],[128.331431,38.155681],[128.331545,38.155617],[128.331589,38.155581],[128.331617,38.155539],[128.331635,38.155478],[128.33166,38.155356],[128.331647,38.155135],[128.331663,38.155034],[128.331768,38.154826],[128.331809,38.154597],[128.331832,38.154339],[128.331933,38.153916],[128.332002,38.153729],[128.332118,38.153635],[128.332234,38.153555],[128.33244,38.153452],[128.332558,38.153415],[128.332673,38.153307],[128.332743,38.153163],[128.332813,38.153026],[128.332874,38.152883],[128.332953,38.152767],[128.332988,38.152667],[128.332949,38.152546],[128.332883,38.152403],[128.332854,38.152268],[128.332797,38.15214],[128.332731,38.15199],[128.332684,38.151927],[128.33262,38.151884],[128.332577,38.15186],[128.332525,38.151818],[128.3325,38.151765],[128.33245,38.151493],[128.332433,38.151396],[128.332437,38.151325],[128.332465,38.151276],[128.332535,38.151206],[128.332633,38.151083],[128.332612,38.150955],[128.332565,38.150827],[128.332553,38.150691],[128.332542,38.150598],[128.332558,38.150441],[128.332598,38.150154],[128.332587,38.150033],[128.332539,38.149883],[128.332545,38.149762],[128.332571,38.149654],[128.332596,38.149532],[128.332656,38.149374],[128.332681,38.149245],[128.332698,38.149198],[128.332701,38.149153],[128.332672,38.149099],[128.332623,38.149038],[128.332576,38.148953],[128.332537,38.148789],[128.332472,38.148718],[128.332352,38.14857],[128.332285,38.148413],[128.332309,38.14822],[128.332324,38.148069],[128.332268,38.147941],[128.332175,38.147842],[128.332074,38.147743],[128.332072,38.147629],[128.332106,38.147515],[128.332102,38.14746],[128.332074,38.147407],[128.332003,38.147337],[128.331983,38.147215],[128.332009,38.147129],[128.332097,38.146999],[128.332159,38.146934],[128.33222,38.146805],[128.332261,38.146561],[128.332259,38.146461],[128.332284,38.146332],[128.332336,38.146232],[128.33238,38.146124],[128.332414,38.14603],[128.332457,38.145901],[128.332391,38.145738],[128.332388,38.145587],[128.332411,38.145387],[128.332464,38.145293],[128.332715,38.145148],[128.332803,38.145032],[128.332865,38.144946],[128.332871,38.144745],[128.332906,38.144688],[128.333066,38.144557],[128.333113,38.1445],[128.33316,38.144433],[128.333259,38.144205],[128.333402,38.144096],[128.3336,38.144022],[128.333896,38.143869],[128.33411,38.143702],[128.334279,38.143514],[128.33432,38.143465],[128.33436,38.143431],[128.334416,38.14341],[128.334656,38.143367],[128.334964,38.143363],[128.335125,38.143371],[128.335189,38.143369],[128.335238,38.143342],[128.335316,38.143287],[128.335595,38.143199],[128.335802,38.14311],[128.335999,38.143015],[128.336197,38.142934],[128.336403,38.142825],[128.336592,38.142751],[128.3368,38.142727],[128.336963,38.142725],[128.337133,38.142666],[128.337387,38.142649],[128.337677,38.142703],[128.337868,38.142708],[128.337985,38.142707],[128.338075,38.142648],[128.338181,38.142518],[128.338233,38.142403],[128.338239,38.142239],[128.338172,38.142039],[128.338115,38.14189],[128.33803,38.141705],[128.338018,38.141548],[128.338016,38.141405],[128.338013,38.141233],[128.338028,38.141076],[128.338088,38.140882],[128.338048,38.140711],[128.338037,38.140597],[128.338035,38.140489],[128.338078,38.140332],[128.338129,38.140174],[128.338136,38.140052],[128.338106,38.139902],[128.338104,38.139788],[128.338184,38.139694],[128.338373,38.139642],[128.338799,38.139658],[128.33906,38.139584],[128.339293,38.139445],[128.33949,38.139357],[128.339779,38.139297],[128.339951,38.139273],[128.340156,38.139114],[128.340479,38.138946],[128.340684,38.138793],[128.340892,38.138769],[128.341101,38.138803],[128.341209,38.138801],[128.341462,38.138763],[128.341714,38.138674],[128.34193,38.138621],[128.342328,38.138595],[128.342536,38.138572],[128.34277,38.138505],[128.342967,38.138367],[128.343229,38.138313],[128.343443,38.138168],[128.343613,38.138023],[128.343828,38.137949],[128.343963,38.137855],[128.344115,38.13776],[128.344314,38.137743],[128.34452,38.137627],[128.344663,38.137568],[128.34486,38.137451],[128.34497,38.137478],[128.345114,38.137477],[128.345341,38.137474],[128.345467,38.137458],[128.345683,38.137406],[128.346071,38.137294],[128.346252,38.137292],[128.346442,38.137311],[128.346569,38.137288],[128.346739,38.137222],[128.34682,38.137185],[128.346927,38.137106],[128.347044,38.137033],[128.34716,38.136974],[128.347341,38.136936]]]},"properties":{"name":"용대리구간 2","difficulty":"초급","distance_km":8.16,"time_hr":5.1,"kind":"산림청 구간","desc":"산림청 등산로 구간 데이터(미큐레이션)"}},{"type":"Feature","geometry":{"type":"MultiLineString","coordinates":[[[128.357827,38.19183],[128.358733,38.191362],[128.359414,38.190961],[128.359709,38.190729],[128.359956,38.190361],[128.360198,38.189765],[128.36045,38.189154],[128.360541,38.188696],[128.360567,38.188152],[128.360495,38.187695],[128.360681,38.187457],[128.361349,38.187335],[128.361575,38.187304],[128.362175,38.186946],[128.362675,38.187019],[128.362971,38.186894],[128.36305,38.186758],[128.361679,38.185136],[128.360994,38.18435],[128.360957,38.184286],[128.361095,38.183927],[128.361113,38.183419],[128.361423,38.183037],[128.362239,38.182605],[128.36381,38.182337],[128.364093,38.182448],[128.364321,38.182517],[128.364548,38.182564],[128.364812,38.18259],[128.364976,38.182652],[128.365239,38.182671],[128.365439,38.18269],[128.365667,38.182787],[128.36584,38.182814],[128.366157,38.182824],[128.366528,38.182813],[128.366935,38.18278],[128.367233,38.18274],[128.367395,38.182696],[128.368027,38.182095],[128.36888,38.181184],[128.369041,38.181096],[128.37009,38.180998],[128.370272,38.180996],[128.370461,38.180929],[128.370786,38.180868],[128.371195,38.180506],[128.371075,38.180343],[128.370726,38.180133],[128.370416,38.180015],[128.370044,38.179976],[128.369898,38.179906],[128.369813,38.17975],[128.369888,38.179363],[128.370055,38.179132],[128.370368,38.178871],[128.371417,38.178308],[128.371712,38.178126],[128.371883,38.177574],[128.37192,38.177108],[128.370969,38.176648],[128.370483,38.176346],[128.370283,38.176312],[128.370057,38.176301],[128.369546,38.176135],[128.369426,38.175972],[128.369332,38.175801],[128.369427,38.175557],[128.369458,38.175307],[128.3701,38.175213],[128.370418,38.175288],[128.370878,38.175655],[128.37154,38.175683],[128.37217,38.175947],[128.372613,38.175899],[128.372942,38.175566],[128.373276,38.17504],[128.37329,38.17484],[128.373691,38.174463],[128.37382,38.174112],[128.373693,38.173105],[128.373344,38.172859],[128.373179,38.172274],[128.372827,38.171849],[128.372771,38.171314],[128.372578,38.17113],[128.372407,38.171182],[128.372295,38.171012],[128.372176,38.170455],[128.372028,38.170307],[128.371767,38.169423],[128.371575,38.169326],[128.371653,38.169174],[128.371648,38.16891],[128.371553,38.168632],[128.371334,38.168563],[128.371214,38.16845],[128.371131,38.168344],[128.371121,38.168294],[128.371328,38.16822],[128.371661,38.168152],[128.371752,38.168129],[128.371748,38.167951],[128.371702,38.16788],[128.371797,38.167678],[128.371958,38.167548],[128.372129,38.16751],[128.372337,38.167486],[128.372609,38.167483],[128.372672,38.167446],[128.372941,38.167336],[128.373167,38.167305],[128.373257,38.167297],[128.373421,38.167316],[128.373611,38.167314],[128.373765,38.167326],[128.373884,38.167361],[128.374074,38.167373],[128.374238,38.167428],[128.374403,38.167519],[128.374557,38.167546],[128.374675,38.167537],[128.37483,38.1676],[128.374913,38.167692],[128.375024,38.167812],[128.375153,38.167939],[128.375358,38.16823],[128.375452,38.168422],[128.375519,38.168586],[128.375557,38.16915],[128.375673,38.169549],[128.376389,38.16909],[128.376774,38.168857],[128.37717,38.168731],[128.377513,38.168677],[128.377784,38.168652],[128.377857,38.168659],[128.378302,38.16826],[128.379031,38.168008],[128.379184,38.167921],[128.379084,38.167421],[128.378672,38.166733],[128.377626,38.16603],[128.376552,38.165234],[128.376075,38.164918],[128.375955,38.164805],[128.375881,38.164713],[128.375298,38.164534],[128.375128,38.163707],[128.375119,38.163192],[128.375034,38.16305],[128.375383,38.162302],[128.37524,38.161467],[128.375128,38.160782],[128.374808,38.160164],[128.37448,38.15956],[128.37445,38.159431],[128.374393,38.159289],[128.374218,38.159141],[128.374069,38.158892],[128.373992,38.158679],[128.373835,38.158523],[128.373723,38.158325],[128.373666,38.158168],[128.373652,38.157903],[128.373694,38.157731],[128.373772,38.157552],[128.373878,38.1574],[128.374094,38.157319],[128.374548,38.157378],[128.375174,38.157464],[128.375675,38.157594],[128.376229,38.157687],[128.376681,38.157682],[128.376954,38.157715],[128.37722,38.157672]]]},"properties":{"name":"용대리구간 3","difficulty":"초급","distance_km":7.09,"time_hr":2.1,"kind":"산림청 구간","desc":"산림청 등산로 구간 데이터(미큐레이션)"}},{"type":"Feature","geometry":{"type":"MultiLineString","coordinates":[[[128.504804,38.090147],[128.50482,38.089589],[128.504814,38.089324],[128.504636,38.088547],[128.504288,38.087901],[128.504132,38.087381],[128.504113,38.086437],[128.504225,38.085721],[128.504525,38.084931],[128.504548,38.084694],[128.504507,38.08403],[128.504458,38.08343],[128.504406,38.083094],[128.504305,38.082778],[128.504396,38.082362],[128.504418,38.08214],[128.504389,38.081583],[128.504753,38.080813],[128.504863,38.080447],[128.505014,38.07943],[128.504828,38.078731],[128.504441,38.077935],[128.504341,38.077472],[128.504332,38.076621],[128.504239,38.075607],[128.504216,38.075343]]]},"properties":{"name":"오색리구간 1","difficulty":"초급","distance_km":1.68,"time_hr":0.7,"kind":"산림청 구간","desc":"산림청 등산로 구간 데이터(미큐레이션)"}},{"type":"Feature","geometry":{"type":"MultiLineString","coordinates":[[[128.504804,38.090147],[128.504777,38.090598],[128.504707,38.091156],[128.504802,38.091806],[128.504616,38.092459],[128.504428,38.092976],[128.504209,38.093787],[128.504081,38.094139],[128.503814,38.094807],[128.503683,38.095066],[128.50391,38.096429],[128.503749,38.096946],[128.50372,38.097304],[128.503187,38.099113],[128.503213,38.099928],[128.503333,38.100477],[128.50346,38.100947],[128.503551,38.10141],[128.503514,38.101819],[128.50344,38.10217],[128.503282,38.102408],[128.502036,38.103425],[128.501075,38.104238],[128.500044,38.105581],[128.5,38.105655],[128.499773,38.106035],[128.499276,38.106549],[128.498956,38.106789],[128.498805,38.10737],[128.498549,38.108146],[128.498354,38.108799],[128.498111,38.109183],[128.498083,38.109196],[128.497965,38.109254],[128.497614,38.109316],[128.497216,38.10935],[128.496872,38.109361],[128.496782,38.109381],[128.49626,38.109498],[128.496172,38.109533],[128.495003,38.11],[128.494045,38.110041],[128.493573,38.109975],[128.492889,38.109727],[128.492029,38.109258],[128.491401,38.108907],[128.491205,38.108797],[128.49105,38.108741],[128.491038,38.108736],[128.491026,38.108732],[128.490977,38.108714]]]},"properties":{"name":"설악산 대청봉 구간 39","difficulty":"초급","distance_km":2.97,"time_hr":0.9,"kind":"산림청 구간","desc":"산림청 등산로 구간 데이터(미큐레이션)"}},{"type":"Feature","geometry":{"type":"MultiLineString","coordinates":[[[128.504685,38.090336],[128.504804,38.090147]]]},"properties":{"name":"설악산 대청봉 구간 40","difficulty":"초급","distance_km":0.02,"time_hr":0.0,"kind":"산림청 구간","desc":"산림청 등산로 구간 데이터(미큐레이션)"}},{"type":"Feature","geometry":{"type":"MultiLineString","coordinates":[[[128.504685,38.090336],[128.504313,38.090489],[128.503774,38.090653],[128.502607,38.091083],[128.501512,38.091548],[128.500895,38.091884],[128.500699,38.092044],[128.500571,38.092439],[128.500577,38.092689],[128.500581,38.092897]]]},"properties":{"name":"오색리구간 2","difficulty":"초급","distance_km":0.5,"time_hr":0.1,"kind":"산림청 구간","desc":"산림청 등산로 구간 데이터(미큐레이션)"}},{"type":"Feature","geometry":{"type":"MultiLineString","coordinates":[[[128.476603,38.107035],[128.476597,38.106277],[128.476376,38.105665],[128.476077,38.10519],[128.47564,38.10458],[128.475314,38.104148],[128.474667,38.103477],[128.474165,38.102797],[128.473966,38.102356],[128.473926,38.102156],[128.473994,38.101498],[128.474101,38.100953],[128.474162,38.10038],[128.474088,38.09988],[128.473971,38.099439],[128.473742,38.098855],[128.473516,38.098415],[128.473438,38.097708],[128.473316,38.09703],[128.473239,38.096788],[128.473107,38.096539],[128.472665,38.096173],[128.472499,38.095539],[128.47209,38.095],[128.471822,38.094281],[128.470984,38.094013],[128.470764,38.093851],[128.47059,38.092838],[128.470003,38.091544],[128.469971,38.091316],[128.469983,38.091008],[128.470167,38.090677],[128.47045,38.090387],[128.470724,38.090062],[128.47096,38.089644],[128.470975,38.089465],[128.471152,38.088827],[128.471346,38.087244],[128.47186,38.086237],[128.472405,38.08545],[128.473074,38.08452],[128.473268,38.084253],[128.473411,38.083736],[128.473583,38.083305],[128.473499,38.083184],[128.473096,38.082903],[128.47274,38.082329],[128.472763,38.081213],[128.472569,38.080543],[128.472598,38.079713],[128.472647,38.079019],[128.472807,38.078409],[128.473112,38.077862],[128.473685,38.07709],[128.473682,38.076496],[128.473398,38.076321],[128.473266,38.075601],[128.472867,38.075126],[128.472648,38.075015],[128.47206,38.074986],[128.471498,38.074943],[128.471127,38.074927]]]},"properties":{"name":"오색리구간 3","difficulty":"초급","distance_km":4.02,"time_hr":1.2,"kind":"산림청 구간","desc":"산림청 등산로 구간 데이터(미큐레이션)"}},{"type":"Feature","geometry":{"type":"MultiLineString","coordinates":[[[128.476603,38.107035],[128.47675,38.107591],[128.476735,38.107734],[128.476204,38.108363],[128.476138,38.10865],[128.476256,38.109127],[128.476468,38.109768],[128.476612,38.110174],[128.477068,38.110819],[128.477171,38.111411],[128.47715,38.112184],[128.477095,38.112599],[128.476999,38.113237],[128.476924,38.113566],[128.476153,38.114906],[128.47612,38.114964]]]},"properties":{"name":"설악산 대청봉 구간 41","difficulty":"초급","distance_km":0.93,"time_hr":0.3,"kind":"산림청 구간","desc":"산림청 등산로 구간 데이터(미큐레이션)"}},{"type":"Feature","geometry":{"type":"MultiLineString","coordinates":[[[128.490977,38.108714],[128.490753,38.108374],[128.490601,38.108047],[128.490531,38.10769],[128.490529,38.106739],[128.49053,38.105895],[128.490692,38.1054],[128.490842,38.105191],[128.491126,38.104944],[128.491935,38.104633],[128.492372,38.104363],[128.492686,38.104202],[128.493415,38.103992],[128.493989,38.103735],[128.494313,38.103223],[128.49457,38.102962],[128.495306,38.102231],[128.495577,38.10177],[128.496209,38.101225],[128.496388,38.101123],[128.496502,38.100499],[128.496695,38.100232],[128.496944,38.100015],[128.497254,38.099675],[128.497457,38.099429],[128.498092,38.099085],[128.498361,38.098924],[128.499529,38.097665],[128.499834,38.09666],[128.5,38.096516],[128.500483,38.096094],[128.500786,38.095847],[128.500979,38.095537],[128.501387,38.094259],[128.501517,38.093564],[128.50172,38.093297],[128.502155,38.092876],[128.503238,38.091883],[128.504065,38.091157],[128.504384,38.090817],[128.504685,38.090336]]]},"properties":{"name":"설악산 대청봉 구간 42","difficulty":"초급","distance_km":2.53,"time_hr":0.8,"kind":"산림청 구간","desc":"산림청 등산로 구간 데이터(미큐레이션)"}},{"type":"Feature","geometry":{"type":"MultiLineString","coordinates":[[[128.47612,38.114964],[128.476264,38.11494],[128.47694,38.114803],[128.477242,38.114665],[128.477389,38.114597],[128.477831,38.11452],[128.478602,38.114153],[128.478748,38.113808],[128.478864,38.113692],[128.480058,38.112783],[128.480334,38.112573],[128.480631,38.112469],[128.480982,38.11235],[128.481261,38.112296],[128.481647,38.112127],[128.482278,38.111583],[128.482456,38.111437],[128.482926,38.111097],[128.483285,38.110949],[128.483797,38.110786],[128.484484,38.110319],[128.48468,38.110167],[128.484877,38.110043],[128.485309,38.109923],[128.486057,38.109777],[128.486535,38.109693],[128.487064,38.10945],[128.488015,38.109023],[128.48849,38.10881],[128.489058,38.10871],[128.48942,38.108705],[128.489855,38.10875],[128.490397,38.108664],[128.490696,38.108682],[128.490977,38.108714]]]},"properties":{"name":"설악산 대청봉 구간 43","difficulty":"초급","distance_km":1.54,"time_hr":0.5,"kind":"산림청 구간","desc":"산림청 등산로 구간 데이터(미큐레이션)"}},{"type":"Feature","geometry":{"type":"MultiLineString","coordinates":[[[128.469312,38.116222],[128.469501,38.116054],[128.469943,38.115663],[128.470624,38.114832],[128.470964,38.11422],[128.471906,38.113351],[128.472478,38.112986],[128.473005,38.112607],[128.473478,38.111836],[128.473704,38.111412],[128.473938,38.11088],[128.474656,38.110141],[128.474896,38.109001],[128.475445,38.107972],[128.475692,38.107626],[128.476293,38.107354],[128.476603,38.107035]]]},"properties":{"name":"설악산 대청봉 구간 44","difficulty":"초급","distance_km":1.24,"time_hr":0.4,"kind":"산림청 구간","desc":"산림청 등산로 구간 데이터(미큐레이션)"}},{"type":"Feature","geometry":{"type":"MultiLineString","coordinates":[[[128.469312,38.116222],[128.47113,38.116149],[128.471736,38.116141],[128.472342,38.115945],[128.472753,38.115732],[128.472885,38.115662],[128.473957,38.115434],[128.474823,38.115259],[128.475366,38.115166],[128.475589,38.115128],[128.475812,38.115059],[128.47612,38.114964]]]},"properties":{"name":"설악산 대청봉 구간 45","difficulty":"초급","distance_km":0.62,"time_hr":0.2,"kind":"산림청 구간","desc":"산림청 등산로 구간 데이터(미큐레이션)"}},{"type":"Feature","geometry":{"type":"MultiLineString","coordinates":[[[128.466771,38.119172],[128.467084,38.118838],[128.467539,38.118539],[128.467778,38.118243],[128.468046,38.117167],[128.468204,38.116936],[128.469008,38.116419],[128.469312,38.116222]]]},"properties":{"name":"설악산 대청봉 구간 46","difficulty":"초급","distance_km":0.41,"time_hr":0.1,"kind":"산림청 구간","desc":"산림청 등산로 구간 데이터(미큐레이션)"}},{"type":"Feature","geometry":{"type":"MultiLineString","coordinates":[[[128.465147,38.11927],[128.465277,38.119136],[128.465536,38.119032],[128.465609,38.118953],[128.465693,38.118774],[128.465666,38.118587],[128.465629,38.118459],[128.465469,38.118301],[128.464872,38.11798],[128.464517,38.117568],[128.464273,38.117516],[128.463938,38.117269],[128.463878,38.117187],[128.463832,38.116904],[128.463888,38.116798],[128.463834,38.116694],[128.463604,38.116509],[128.463218,38.116295],[128.463158,38.116204],[128.463162,38.116076],[128.463129,38.115875],[128.462535,38.115119],[128.462361,38.114806],[128.462281,38.114583],[128.462261,38.114423],[128.462262,38.114194],[128.461904,38.113979],[128.461291,38.11368],[128.460643,38.113419],[128.46058,38.113154],[128.460645,38.112948],[128.460696,38.11286],[128.460669,38.112696],[128.460564,38.112437],[128.460659,38.112192],[128.460654,38.111949],[128.460712,38.111706],[128.460662,38.111463],[128.460514,38.111272],[128.460627,38.111042],[128.460616,38.110977],[128.460286,38.110753],[128.460302,38.110645],[128.460182,38.110525],[128.460161,38.11039],[128.460022,38.110227],[128.460174,38.110103],[128.460083,38.109668],[128.460158,38.108845],[128.460046,38.108675],[128.460059,38.10846],[128.459936,38.108176],[128.460042,38.107581],[128.460166,38.107022],[128.46021,38.106942],[128.460112,38.106565],[128.459957,38.106509],[128.459817,38.106275],[128.459929,38.105981],[128.459971,38.10583],[128.459815,38.105746],[128.459627,38.10582],[128.458592,38.105232],[128.458479,38.104969],[128.458166,38.104715],[128.458064,38.104574],[128.457528,38.104432],[128.457209,38.104358],[128.456889,38.104199],[128.456715,38.104018],[128.4566,38.10374],[128.456585,38.103634],[128.456678,38.103402],[128.456674,38.103199],[128.456767,38.102938],[128.456639,38.10266],[128.45673,38.102312],[128.456532,38.102151],[128.456515,38.101949],[128.456514,38.101872],[128.456643,38.101629],[128.45666,38.101234],[128.45637,38.100775],[128.456147,38.100614],[128.456097,38.100528],[128.456021,38.100375],[128.456006,38.10023],[128.456027,38.100066],[128.456049,38.09995],[128.456009,38.099768],[128.45583,38.09952],[128.455511,38.099396],[128.455282,38.099241],[128.455196,38.099028],[128.455111,38.098843],[128.454972,38.098694],[128.45488,38.098574],[128.454868,38.098438],[128.454893,38.098345],[128.455018,38.09825],[128.45506,38.098064],[128.454815,38.098074],[128.454794,38.097889],[128.454435,38.0976],[128.454223,38.097395],[128.454092,38.097189],[128.454017,38.097033],[128.454141,38.096903],[128.45403,38.096775],[128.453361,38.096827],[128.453144,38.096829],[128.452696,38.096585],[128.452523,38.096544],[128.452054,38.0966],[128.452034,38.096507],[128.451522,38.096234],[128.451199,38.095945],[128.451107,38.095846],[128.450579,38.095252],[128.450467,38.095089],[128.450518,38.094895],[128.45069,38.094443],[128.450766,38.094156],[128.450652,38.093893],[128.450501,38.093608],[128.450497,38.09338],[128.45043,38.093195],[128.450382,38.093045],[128.450315,38.092889],[128.450231,38.092718],[128.450164,38.09254],[128.450134,38.092412],[128.450203,38.092232],[128.450218,38.092103],[128.450126,38.09199],[128.450033,38.091898],[128.449941,38.091799],[128.449838,38.091615],[128.449797,38.091408],[128.449549,38.091196],[128.449397,38.090819],[128.449232,38.090714],[128.449346,38.090541],[128.449278,38.09032],[128.44931,38.090112],[128.449271,38.089948],[128.449254,38.089548],[128.448996,38.08933],[128.448812,38.088695],[128.44864,38.08824],[128.448539,38.088049],[128.44864,38.087676],[128.4487,38.087518],[128.448682,38.087068],[128.448685,38.086746],[128.448797,38.086466],[128.448911,38.08625],[128.448953,38.086135],[128.448903,38.085878],[128.448844,38.08565],[128.448949,38.085441],[128.448981,38.085234],[128.448977,38.085041],[128.448952,38.084683]]]},"properties":{"name":"오색리구간 4","difficulty":"초급","distance_km":4.71,"time_hr":1.4,"kind":"산림청 구간","desc":"산림청 등산로 구간 데이터(미큐레이션)"}}]}